{"type":"FeatureCollection","features":[{"type":"Feature","geometry":{"type":"MultiLineString","coordinates":[[[-78.56152740000002,35.8434565],[-78.5600571,35.8434785]],[[-78.5554567,35.842363],[-78.554775,35.842395999999994],[-78.5532704,35.8428572]],[[-78.5639183,35.8323572],[-78.5636123,35.832172599999986],[-78.5629795,35.83235509999999],[-78.5625405,35.832679000000006],[-78.5622554,35.8339869],[-78.5636056,35.8356784],[-78.5633974,35.83694739999999],[-78.5636059,35.83831510000002],[-78.5633225,35.838650099999995],[-78.5622295,35.8390181],[-78.5616221,35.8394818]],[[-78.5616221,35.8394818],[-78.56166400000001,35.8396999]],[[-78.6609036,35.816269],[-78.6608508,35.816398500000005]],[[-78.5600571,35.8434785],[-78.5569561,35.843032900000004]],[[-78.544128,35.8398602],[-78.5427756,35.83939010000001]],[[-78.5532704,35.8428572],[-78.5524745,35.842274800000006],[-78.5517594,35.84198349999999],[-78.5503501,35.84148340000001],[-78.5488517,35.841203199999995]],[[-78.6475836,35.82399350000001],[-78.6472632,35.82407800000001]],[[-78.5369437,35.83514430000001],[-78.5368935,35.83496]],[[-78.5427756,35.83939010000001],[-78.5425896,35.8393006]],[[-78.5425896,35.8393006],[-78.5413373,35.83842150000001],[-78.5410779,35.8385851],[-78.5402243,35.838588699999995],[-78.5395104,35.838524000000014],[-78.5388047,35.838257000000006],[-78.5381274,35.8374969],[-78.5378075,35.8362781],[-78.5373889,35.8357709],[-78.5375504,35.8355663],[-78.5369437,35.83514430000001]],[[-78.5368935,35.83496],[-78.536257,35.83311959999999],[-78.5366632,35.8306656],[-78.5365363,35.8304617]],[[-78.6533116,35.822956299999994],[-78.65316440000001,35.822967099999985]],[[-78.6608508,35.816398500000005],[-78.6605917,35.81683770000001]],[[-78.6605917,35.81683770000001],[-78.6598612,35.81772959999999],[-78.6587911,35.819574],[-78.6578248,35.8198496],[-78.6568341,35.820625799999995],[-78.6564711,35.822194399999994],[-78.6544819,35.8222047],[-78.6540233,35.822368100000006],[-78.6533116,35.822956299999994]],[[-78.6533116,35.822956299999994],[-78.6533414,35.8233205]],[[-78.5443265,35.83992109999999],[-78.544128,35.8398602]],[[-78.5471857,35.8408669],[-78.5469578,35.8407799]],[[-78.54601900000002,35.840349399999994],[-78.545791,35.840282]],[[-78.5469578,35.8407799],[-78.54601900000002,35.840349399999994]],[[-78.545791,35.840282],[-78.5453699,35.840053700000006],[-78.5443265,35.83992109999999]],[[-78.5488517,35.841203199999995],[-78.5471857,35.8408669]],[[-78.56166400000001,35.8396999],[-78.5618308,35.8427114]],[[-78.5618308,35.8427114],[-78.56187180000002,35.842978599999995]],[[-78.56187180000002,35.842978599999995],[-78.56152740000002,35.8434565]],[[-78.6533033,35.8234783],[-78.6531024,35.8240329],[-78.6525364,35.82406019999999],[-78.6517064,35.8243675],[-78.6502875,35.82426989999999]],[[-78.6533414,35.8233205],[-78.6533033,35.8234783]],[[-78.6500069,35.82421589999999],[-78.648237,35.824346199999994],[-78.6475836,35.82399350000001]],[[-78.6502875,35.82426989999999],[-78.6500069,35.82421589999999]],[[-78.555559,35.8423945],[-78.5554567,35.842363]],[[-78.5569561,35.843032900000004],[-78.555559,35.8423945]]]},"properties":{"name":"Beaverdam Creek","kind":"stream"}},{"type":"Feature","geometry":{"type":"MultiLineString","coordinates":[[[-78.5696196,35.73977209999999],[-78.569274,35.74026959999999]],[[-78.625424,35.8402527],[-78.6256794,35.8393771],[-78.6255685,35.8389225],[-78.6259227,35.8387706],[-78.6261998,35.83794129999999],[-78.6261282,35.8371897],[-78.6263173,35.83652539999999],[-78.626088,35.83624079999999],[-78.6261249,35.8360268]],[[-78.5695762,35.74429279999998],[-78.56973850000001,35.744519800000006],[-78.5696369,35.744660200000006],[-78.5690707,35.744857899999985],[-78.5689093,35.745112199999994],[-78.5684089,35.745143],[-78.5682423,35.745764399999985]],[[-78.62624,35.8427514],[-78.6261346,35.84291259999999],[-78.6252913,35.8425879],[-78.625562,35.84194539999999]],[[-78.5682475,35.72944530000001],[-78.5684229,35.73008],[-78.5687185,35.730182799999994],[-78.5686593,35.730455000000006],[-78.5689683,35.731077899999995],[-78.5689113,35.73204400000001],[-78.56922250000001,35.7328399],[-78.5692083,35.7342131]],[[-78.5676598,35.726737],[-78.5674776,35.72697519999999],[-78.5680079,35.7281321],[-78.56794620000001,35.7283832],[-78.5682764,35.7293089]],[[-78.6234651,35.8503868],[-78.6242267,35.84849680000001],[-78.6261253,35.84581839999999],[-78.6263489,35.84443430000001],[-78.6261144,35.8432256],[-78.62624,35.8427514]],[[-78.628898,35.8173028],[-78.6289702,35.81718879999999]],[[-78.6261365,35.8345603],[-78.6262641,35.83418269999999]],[[-78.6274781,35.8580857],[-78.6274513,35.8577505],[-78.6271143,35.8574426],[-78.6270342,35.8571186],[-78.6265591,35.8567949],[-78.6253899,35.85352220000001],[-78.6250751,35.85338410000001]],[[-78.6250751,35.85338410000001],[-78.6232502,35.85166709999999],[-78.6234651,35.8503868]],[[-78.569274,35.74026959999999],[-78.5686295,35.741796],[-78.5689487,35.7421215],[-78.5688038,35.7424362],[-78.5689458,35.743264599999996],[-78.5692151,35.74383689999999],[-78.5695251,35.743976999999994],[-78.5695762,35.74429279999998]],[[-78.5692083,35.7342131],[-78.5692966,35.7355479],[-78.57008,35.738358999999996]],[[-78.5682764,35.7293089],[-78.5682475,35.72944530000001]],[[-78.6273629,35.8325555],[-78.627804,35.8322527],[-78.6275858,35.83208830000001],[-78.6276303,35.831945000000005],[-78.628159,35.83191879999999],[-78.6281175,35.8316734],[-78.6283788,35.83138550000001],[-78.6284851,35.8308908]],[[-78.6261347,35.83584],[-78.6263249,35.8348233],[-78.6261365,35.8345603]],[[-78.6262641,35.83418269999999],[-78.626301,35.833946]],[[-78.6261249,35.8360268],[-78.6261347,35.83584]],[[-78.626301,35.833946],[-78.6271124,35.83311739999999],[-78.6273629,35.8325555]],[[-78.6284851,35.8308908],[-78.6289033,35.8302796]],[[-78.6289033,35.8302796],[-78.6292548,35.8293678],[-78.6300516,35.8289179],[-78.6302944,35.8283248],[-78.630214,35.827912700000006],[-78.6285968,35.82578589999999],[-78.6284898,35.82543419999999],[-78.6286789,35.8247751],[-78.6295569,35.8232212],[-78.6298063,35.8221366],[-78.629713,35.8218793]],[[-78.629713,35.8218793],[-78.6296111,35.821303500000006]],[[-78.6296111,35.821303500000006],[-78.6295082,35.82104929999999]],[[-78.6294667,35.820939499999994],[-78.62887830000001,35.81976009999999],[-78.629041,35.819064499999996],[-78.629038,35.81824259999999],[-78.6287678,35.81762799999999],[-78.628898,35.8173028]],[[-78.6295082,35.82104929999999],[-78.6294667,35.820939499999994]],[[-78.5699913,35.738898600000006],[-78.5696196,35.73977209999999]],[[-78.57008,35.738358999999996],[-78.5699913,35.738898600000006]],[[-78.6255706,35.84172809999998],[-78.62534680000002,35.8410609],[-78.625424,35.8402527]],[[-78.625562,35.84194539999999],[-78.6255706,35.84172809999998]]]},"properties":{"name":"Big Branch","kind":"stream"}},{"type":"Feature","geometry":{"type":"MultiLineString","coordinates":[[[-78.6110949,35.796701399999996],[-78.6110276,35.7970529],[-78.6114,35.79883809999998],[-78.6104635,35.7998876],[-78.609317,35.8003056],[-78.6089588,35.8005913],[-78.608623,35.801404399999996],[-78.6083578,35.8031752]],[[-78.6161125,35.7926832],[-78.6159807,35.793095699999995],[-78.6144303,35.7944368],[-78.6142964,35.79483239999999],[-78.6137156,35.7953977],[-78.6110949,35.796701399999996]],[[-78.6079129,35.80366169999999],[-78.6078383,35.8038986]],[[-78.6186659,35.78757759999999],[-78.6182452,35.7878784],[-78.6179606,35.7883651]],[[-78.6179606,35.7883651],[-78.6178946,35.788500899999995]],[[-78.6178946,35.788500899999995],[-78.6177043,35.79020560000001],[-78.6166402,35.7912441],[-78.6161237,35.79239979999999]],[[-78.6161237,35.79239979999999],[-78.6161125,35.7926832]]]},"properties":{"name":"Bridges Branch","kind":"stream"}},{"type":"Feature","geometry":{"type":"MultiLineString","coordinates":[[[-78.8089842,35.9004096],[-78.8087054,35.89941159999999],[-78.8091783,35.8985216],[-78.8087405,35.89681920000001]],[[-78.8108252,35.906528699999996],[-78.8100956,35.9055975],[-78.8099951,35.90504820000001],[-78.8095357,35.9048833],[-78.8091912,35.9041802],[-78.8092926,35.9028947]],[[-78.8092926,35.9028947],[-78.8088944,35.902625400000005],[-78.8088859,35.902275800000005]],[[-78.8086315,35.8958244],[-78.8086251,35.89529149999999],[-78.8083477,35.8949124],[-78.8087601,35.894401599999995],[-78.8084152,35.89389069999999],[-78.8088878,35.8934071],[-78.8089691,35.892692899999986],[-78.8087601,35.892363499999995],[-78.8079902,35.891808499999996],[-78.807538,35.89105599999999]],[[-78.8089213,35.9010544],[-78.80882940000001,35.900818699999995]],[[-78.81201370000001,35.90714299999999],[-78.8116369,35.90702299999999]],[[-78.8110621,35.9065845],[-78.8108252,35.906528699999996]],[[-78.80882940000001,35.900818699999995],[-78.8089842,35.9004096]],[[-78.8140666,35.907970600000006],[-78.8128039,35.907250999999995],[-78.81201370000001,35.90714299999999]],[[-78.8087718,35.8965479],[-78.8089744,35.8960685]],[[-78.8087405,35.89681920000001],[-78.8087718,35.8965479]],[[-78.8088859,35.902275800000005],[-78.8089099,35.9018116]],[[-78.8089099,35.9018116],[-78.8089213,35.9010544]]]},"properties":{"name":"Brier Creek","kind":"stream"}},{"type":"Feature","geometry":{"type":"MultiLineString","coordinates":[[[-78.6281225,35.785885],[-78.62761,35.7866678],[-78.6272741,35.7878158]],[[-78.6261757,35.790654399999994],[-78.6259947,35.79105620000001],[-78.62602070000001,35.79297569999999]],[[-78.626037,35.793126900000004],[-78.6255873,35.7943739],[-78.6249196,35.7955106],[-78.6248442,35.7960826]],[[-78.62602070000001,35.79297569999999],[-78.626037,35.793126900000004]],[[-78.6243213,35.797835899999995],[-78.6241377,35.797968]],[[-78.6248207,35.796261099999995],[-78.6245596,35.7969371],[-78.6245402,35.79754679999999],[-78.6243213,35.797835899999995]],[[-78.6248442,35.7960826],[-78.6248207,35.796261099999995]],[[-78.6287413,35.7835584],[-78.628757,35.78471280000001],[-78.6281582,35.78582819999999]],[[-78.6281582,35.78582819999999],[-78.6281225,35.785885]],[[-78.6272393,35.78796210000001],[-78.6267177,35.7888591],[-78.6267179,35.789271199999995]],[[-78.6272741,35.7878158],[-78.6272653,35.78787930000001]],[[-78.6272642,35.78788719999999],[-78.6272393,35.78796210000001]],[[-78.6272653,35.78787930000001],[-78.6272642,35.78788719999999]],[[-78.6267179,35.789271199999995],[-78.6267579,35.789880999999994],[-78.6262484,35.7905631]],[[-78.6262484,35.7905631],[-78.6261757,35.790654399999994]]]},"properties":{"name":"Cemetery Branch","kind":"stream"}},{"type":"Feature","geometry":{"type":"MultiLineString","coordinates":[[[-78.74546,35.8399713],[-78.7446597,35.84014069999999],[-78.7441024,35.8408368],[-78.7424281,35.8411427],[-78.7410462,35.8403842],[-78.7400678,35.839591],[-78.7391065,35.83952839999999],[-78.7380937,35.84014069999999],[-78.737098,35.8412609],[-78.7363294,35.8433661],[-78.7352527,35.84401619999999],[-78.7326434,35.8470079],[-78.7323859,35.846854799999996],[-78.73224,35.8463817],[-78.7321971,35.8447328],[-78.7302319,35.841401899999994],[-78.7298625,35.84047470000001],[-78.7295442,35.8402728],[-78.72923840000001,35.8402825],[-78.7289635,35.840681999999994],[-78.7298572,35.841234699999994],[-78.7298062,35.841817799999994],[-78.7288154,35.8424438],[-78.7277796,35.84280629999999],[-78.7271382,35.844120200000006],[-78.7267359,35.8444809],[-78.7235294,35.8458639],[-78.7228413,35.84592790000001],[-78.7207902,35.845094599999996],[-78.7189933,35.845049800000005],[-78.7185414,35.8448928],[-78.71706460000001,35.8438523],[-78.7165287,35.84376979999999],[-78.7159959,35.8440062],[-78.7156374,35.84480099999999],[-78.7155828,35.845416900000004],[-78.715315,35.84563059999999],[-78.7146692,35.8457189],[-78.7131925,35.84528099999999],[-78.7117266,35.84461580000001],[-78.7109291,35.84396929999999],[-78.7105678,35.84361260000001],[-78.71015750000001,35.8425896],[-78.7095982,35.8420357],[-78.7076096,35.84087259999999],[-78.7072022,35.84079000000001],[-78.7018354,35.8418601],[-78.7000788,35.84179399999999],[-78.6993583,35.8421724],[-78.697198,35.84501139999999],[-78.6960421,35.845642],[-78.6953368,35.84564089999999],[-78.6938175,35.8453661],[-78.69191930000001,35.844737200000004],[-78.6898661,35.8445728],[-78.688494,35.8446791],[-78.6861646,35.8441128],[-78.6857086,35.844114999999995],[-78.68526380000002,35.8438501],[-78.6846564,35.842761],[-78.6843207,35.8416367],[-78.680235,35.83867240000001],[-78.679703,35.838477799999986],[-78.6791108,35.8378237],[-78.6770509,35.8368565],[-78.6751428,35.8365639],[-78.6745569,35.8370761],[-78.67384710000002,35.83804649999998],[-78.6712055,35.838149099999995],[-78.6701384,35.8391841],[-78.6689285,35.8394937],[-78.6686434,35.839493700000006],[-78.6678694,35.83872289999999],[-78.6663622,35.8382134],[-78.6654039,35.83806630000001],[-78.6640069,35.83814919999999]],[[-78.6622556,35.837336499999985],[-78.66176490000001,35.83690169999999],[-78.6612857,35.836099499999996],[-78.6599923,35.8348393],[-78.6580823,35.833934199999995]],[[-78.6289702,35.81718879999999],[-78.6270815,35.81612320000001],[-78.6253283,35.815814399999994]],[[-78.5963506,35.79727470000001],[-78.5964535,35.7967837],[-78.5957355,35.79646110000001],[-78.5958095,35.7955838],[-78.5952991,35.7952381],[-78.5949655,35.7943218],[-78.5952315,35.7937449],[-78.5959413,35.7930833],[-78.5954893,35.79198709999999],[-78.5947818,35.79160050000001],[-78.5943189,35.79155399999999],[-78.5923836,35.7922466],[-78.5916738,35.7923109],[-78.591032,35.790220000000005],[-78.5902901,35.789748800000005],[-78.5895565,35.78953880000001],[-78.589309,35.7896623],[-78.5892443,35.79122470000001],[-78.5891238,35.79144759999999],[-78.5887755,35.791577499999995],[-78.5878048,35.791150099999996],[-78.5855385,35.790827],[-78.5828886,35.789826399999995],[-78.5820587,35.78986870000001],[-78.58023010000001,35.79049329999999],[-78.579069,35.790399199999996],[-78.5783694,35.7901446],[-78.5784747,35.7876931],[-78.5779422,35.7837253],[-78.5783317,35.783276],[-78.5789408,35.783142899999994],[-78.5793294,35.7828738],[-78.5795,35.78197300000001],[-78.5792249,35.7817017],[-78.5767227,35.78131479999999],[-78.5761628,35.78150449999999],[-78.5761203,35.781907000000004],[-78.575683,35.782185000000005],[-78.5744942,35.7821668],[-78.573082,35.782491],[-78.570868,35.782709],[-78.5685327,35.7825603],[-78.5650807,35.7835939],[-78.5632903,35.7836276],[-78.5625258,35.7834949],[-78.5619604,35.783263299999994],[-78.5589438,35.77970979999999],[-78.5566817,35.7776107],[-78.5536645,35.7770817],[-78.55336410000001,35.77726890000001],[-78.5530315,35.7780153],[-78.5525219,35.778208899999996],[-78.5508656,35.7771894],[-78.5500542,35.7762592],[-78.549835,35.775353300000006],[-78.5496043,35.775057399999994],[-78.547482,35.7734585],[-78.546427,35.7718944],[-78.5461033,35.7716131],[-78.5454611,35.771552799999995],[-78.5450238,35.771242],[-78.5440233,35.7701278],[-78.5434842,35.76948359999999],[-78.5429989,35.768271999999996],[-78.5421475,35.76712700000001],[-78.5415897,35.76673859999999],[-78.5397098,35.7662199]],[[-78.6374329,35.8243732],[-78.6366554,35.824574],[-78.6362318,35.82452459999999],[-78.6357529,35.824151099999995],[-78.634799,35.8218305],[-78.6333527,35.820425],[-78.6332432,35.82005839999999],[-78.6305146,35.81850930000001],[-78.6298937,35.8179012]],[[-78.6157856,35.814021399999994],[-78.6152355,35.8143195],[-78.6121407,35.81470999999999],[-78.6102052,35.81447849999999]],[[-78.6472632,35.82407800000001],[-78.6460918,35.823435499999995],[-78.6442579,35.82349919999999],[-78.6434815,35.8232343]],[[-78.6078383,35.8038986],[-78.6072663,35.80383609999999],[-78.6066287,35.8039587],[-78.6053751,35.80467899999999],[-78.6048527,35.80551080000001],[-78.6039985,35.80625119999999],[-78.6035663,35.80627859999999],[-78.6031924,35.8059607]],[[-78.6580823,35.833934199999995],[-78.6558337,35.832188]],[[-78.6031924,35.8059607],[-78.6010003,35.803515],[-78.6002503,35.80236829999999],[-78.5987032,35.80094369999998],[-78.5981474,35.7998843],[-78.5971794,35.798869999999994],[-78.5960097,35.79799700000002],[-78.59592,35.797551299999995],[-78.5963506,35.79727470000001]],[[-78.6640069,35.83814919999999],[-78.6622556,35.837336499999985]],[[-78.6558337,35.832188],[-78.6551397,35.831775099999994],[-78.6549425,35.831472899999994],[-78.65480440000002,35.830239199999994],[-78.6555313,35.8291935],[-78.6554871,35.828550799999995],[-78.6551452,35.82822240000001],[-78.6534059,35.82789139999999],[-78.6514811,35.827863699999995],[-78.6505842,35.8275642]],[[-78.6505842,35.8275642],[-78.6501214,35.82733189999999],[-78.6495322,35.8262894],[-78.6484844,35.8255326],[-78.6472632,35.82407800000001]],[[-78.6298937,35.8179012],[-78.6294265,35.8173871],[-78.6289702,35.81718879999999]],[[-78.64226690000001,35.8222891],[-78.6416839,35.82196559999999],[-78.639516,35.8218406],[-78.6377173,35.821433500000005],[-78.63754070000002,35.821806699999996],[-78.6378462,35.8239251],[-78.6374329,35.8243732]],[[-78.6085354,35.8043791],[-78.6078383,35.8038986]],[[-78.6102052,35.81447849999999],[-78.6101408,35.81425560000001],[-78.6115556,35.8114201],[-78.6114625,35.81074589999999],[-78.610334,35.8098125],[-78.6094754,35.80836159999999],[-78.6085254,35.80717229999999],[-78.6088013,35.80525719999999],[-78.6085354,35.8043791]],[[-78.6253283,35.815814399999994],[-78.6246963,35.8156507],[-78.6241045,35.8152305],[-78.6215184,35.81417239999999],[-78.62030030000001,35.814165599999995],[-78.6193935,35.8137414],[-78.6183528,35.81355429999999],[-78.6174042,35.81319440000001],[-78.6170413,35.8131398],[-78.6164522,35.813300299999995],[-78.615908,35.8136854],[-78.6157856,35.814021399999994]],[[-78.6434815,35.8232343],[-78.64226690000001,35.8222891]]]},"properties":{"name":"Crabtree Creek","kind":"stream"}},{"type":"Feature","geometry":{"type":"MultiLineString","coordinates":[[[-78.6956277,35.85896749999999],[-78.6956685,35.85876569999999],[-78.6953777,35.8584368],[-78.6956704,35.85802249999999],[-78.6954655,35.8580129],[-78.695324,35.85761409999999],[-78.6943435,35.857009100000006],[-78.6936681,35.8563559],[-78.691101,35.8566366],[-78.6905929,35.85636819999999],[-78.6900448,35.8556568]],[[-78.7029126,35.8921241],[-78.7008512,35.891290100000006],[-78.7003919,35.890779]],[[-78.7082118,35.8992542],[-78.7074285,35.8983479],[-78.7061921,35.8962222],[-78.7052601,35.89532149999999],[-78.7048817,35.8942887],[-78.7042306,35.893339000000005]],[[-78.6887905,35.8493357],[-78.6894515,35.84818209999999],[-78.68946440000002,35.8478856],[-78.6891948,35.84694060000002],[-78.688068,35.8461331],[-78.6880188,35.84583549999999]],[[-78.6969981,35.8730054],[-78.697039,35.872296000000006]],[[-78.7168554,35.9058664],[-78.716775,35.9056962],[-78.7162144,35.9054435],[-78.7141613,35.905076],[-78.7133446,35.90478509999999],[-78.7127175,35.9040673],[-78.7125133,35.9032954],[-78.7121504,35.902843100000005],[-78.7117775,35.9027143],[-78.7115726,35.9020356]],[[-78.7005128,35.885872099999986],[-78.700284,35.885568799999994],[-78.7001418,35.8841042],[-78.7003684,35.88232219999999],[-78.6992955,35.8801316],[-78.6986733,35.8792884],[-78.6985016,35.877654],[-78.6976111,35.876888999999984],[-78.6976326,35.87495909999999],[-78.6969981,35.8730054]],[[-78.6900462,35.8538247],[-78.6902473,35.8534009],[-78.69015960000002,35.852818600000006],[-78.6904158,35.8522199],[-78.6904362,35.8512421],[-78.6894041,35.85025319999999],[-78.6887905,35.8493357]],[[-78.6973275,35.8634016],[-78.6966714,35.8633362],[-78.6963344,35.8629978]],[[-78.7003919,35.890779],[-78.70025,35.89003199999999],[-78.7007897,35.8884389],[-78.7002997,35.886346599999996],[-78.7005128,35.885872099999986]],[[-78.6956036,35.8620608],[-78.6953084,35.86089669999999],[-78.6956277,35.85896749999999]],[[-78.6970204,35.87196569999999],[-78.6970648,35.87170369999998]],[[-78.6970648,35.87170369999998],[-78.6972899,35.871357100000004],[-78.6983457,35.87116930000001],[-78.6982169,35.87104409999999],[-78.6985602,35.8708494],[-78.6985517,35.87055029999999],[-78.6987319,35.870376400000005],[-78.6979251,35.8702234],[-78.6979251,35.8698687],[-78.6990039,35.86907879999999]],[[-78.6970392,35.8721144],[-78.6970204,35.87196569999999]],[[-78.6990039,35.86907879999999],[-78.6993053,35.868908699999984]],[[-78.6993053,35.868908699999984],[-78.6997516,35.868528700000006],[-78.69983,35.86814369999999],[-78.6988921,35.866744100000005],[-78.697832,35.8657553],[-78.6973275,35.8634016]],[[-78.6883276,35.845430699999994],[-78.6884775,35.84501529999999],[-78.6881,35.84492130000001],[-78.6881033,35.8446211]],[[-78.6880188,35.84583549999999],[-78.6883276,35.845430699999994]],[[-78.6900448,35.8556568],[-78.6896134,35.854609399999994],[-78.6898765,35.854119499999996]],[[-78.6898765,35.854119499999996],[-78.6900462,35.8538247]],[[-78.6963344,35.8629978],[-78.6955109,35.862443000000006]],[[-78.6955109,35.862443000000006],[-78.6956036,35.8620608]],[[-78.7091445,35.9004307],[-78.7082523,35.8993422]],[[-78.7082523,35.8993422],[-78.7082118,35.8992542]],[[-78.7114939,35.901965999999994],[-78.7107798,35.901314],[-78.7103657,35.901357899999994],[-78.7093999,35.9010297],[-78.7091445,35.9004307]],[[-78.7115726,35.9020356],[-78.7114939,35.901965999999994]],[[-78.7041995,35.893241999999994],[-78.7040983,35.89287710000001]],[[-78.7042306,35.893339000000005],[-78.7041995,35.893241999999994]],[[-78.7040983,35.89287710000001],[-78.70300970000001,35.8921842]],[[-78.70300970000001,35.8921842],[-78.7029126,35.8921241]]]},"properties":{"name":"Hare Snipe Creek","kind":"stream"}},{"type":"Feature","geometry":{"type":"MultiLineString","coordinates":[[[-78.5150713,35.8644661],[-78.5160233,35.86436489999999],[-78.516513,35.8639667]],[[-78.4962693,35.87545910000001],[-78.4972589,35.87499499999999],[-78.49797840000001,35.87411530000001]],[[-78.49797840000001,35.87411530000001],[-78.4993666,35.8734901]],[[-78.50348,35.87219799999999],[-78.5041075,35.87202549999999],[-78.5054846,35.8719603],[-78.5069361,35.8713624]],[[-78.5003551,35.87288039999999],[-78.5016777,35.87235439999999],[-78.50348,35.87219799999999]],[[-78.4933946,35.877366599999995],[-78.4941103,35.87681679999999],[-78.4942785,35.87625109999999],[-78.4950482,35.87636609999999],[-78.495689,35.8761625],[-78.4962693,35.87545910000001]],[[-78.5166216,35.85760709999999],[-78.5172369,35.857239199999995],[-78.5179185,35.85654730000001],[-78.51883590000001,35.8565642],[-78.5203608,35.857081199999996],[-78.5218658,35.856982900000006]],[[-78.509732,35.86799649999999],[-78.5111499,35.86687669999999],[-78.5114821,35.86561910000001],[-78.511948,35.86513579999999],[-78.5126835,35.8649274],[-78.5139313,35.8650433],[-78.5150713,35.8644661]],[[-78.5069361,35.8713624],[-78.5074616,35.870798799999996],[-78.5074127,35.869591899999996],[-78.5075433,35.8692867],[-78.5085343,35.8690935],[-78.5091101,35.86874469999999],[-78.509732,35.86799649999999]],[[-78.516513,35.8639667],[-78.5161967,35.86321100000001],[-78.5165314,35.8621497],[-78.5161144,35.8613382],[-78.5159117,35.8596389]],[[-78.4993666,35.8734901],[-78.5002117,35.872942800000004]],[[-78.5218658,35.856982900000006],[-78.5237742,35.8572254]],[[-78.4937954,35.88118980000001],[-78.4923932,35.8800394]],[[-78.5237742,35.8572254],[-78.524565,35.857451000000005],[-78.525306,35.8578741],[-78.5259694,35.857825799999986],[-78.527903,35.85569660000001],[-78.5280807,35.8549707],[-78.5291314,35.8549305]],[[-78.5002117,35.872942800000004],[-78.5003551,35.87288039999999]],[[-78.49740900000002,35.8737253],[-78.49797840000001,35.87411530000001]],[[-78.4999484,35.874066699999986],[-78.4993666,35.8734901]],[[-78.5159117,35.8596389],[-78.5159376,35.85946280000001]],[[-78.5159376,35.85946280000001],[-78.5162424,35.8590464],[-78.5166216,35.85760709999999]],[[-78.4627357,35.89389469999999],[-78.4640966,35.893613699999996],[-78.465628,35.89256430000001],[-78.466944,35.8923662],[-78.4675451,35.8920201],[-78.4680106,35.89230009999999],[-78.4686727,35.892146],[-78.4692594,35.89221179999999],[-78.4707452,35.8918653],[-78.471777,35.89140909999999],[-78.4726891,35.8908716],[-78.4731987,35.89033699999999],[-78.4733542,35.88968950000001],[-78.4731987,35.8891071],[-78.4729036,35.888885499999994],[-78.4727051,35.8881249],[-78.4729251,35.88739479999999],[-78.4746302,35.88667360000001],[-78.4746237,35.8863988],[-78.4753115,35.8863327],[-78.4757637,35.88609639999999],[-78.4759661,35.88574489999999],[-78.4770934,35.8855852],[-78.4773297,35.8854313],[-78.4778627,35.8854476],[-78.4804808,35.8840348],[-78.4813244,35.88406220000001],[-78.4820605,35.8844572],[-78.4823704,35.8843857],[-78.4823913,35.8840397],[-78.483073,35.883852700000006],[-78.4844099,35.88425329999999],[-78.4847399,35.88460450000001],[-78.4857931,35.885104],[-78.4864047,35.8855825],[-78.4871182,35.8853878],[-78.4880599,35.8853467],[-78.4885058,35.884897900000006],[-78.4885927,35.8837422],[-78.4896267,35.882784499999985],[-78.4916762,35.8827029],[-78.4917398,35.8813963],[-78.4923932,35.8800394]],[[-78.4923932,35.8800394],[-78.4922286,35.879257800000005],[-78.4923157,35.87865789999999],[-78.4927749,35.8783885],[-78.4933946,35.877366599999995]]]},"properties":{"name":"Harris Creek","kind":"stream"}},{"type":"Feature","geometry":{"type":"MultiLineString","coordinates":[[[-78.6393866,35.900587300000005],[-78.6374494,35.8996688],[-78.6369301,35.8992345],[-78.636059,35.89939339999999],[-78.6350865,35.89919520000001],[-78.6345395,35.8993487]],[[-78.6345395,35.8993487],[-78.6323641,35.90103969999999],[-78.6319859,35.9019399],[-78.6314864,35.90220399999999],[-78.6307701,35.9028902]]]},"properties":{"name":"Honeycutt Creek","kind":"stream"}},{"type":"Feature","geometry":{"type":"MultiLineString","coordinates":[[[-78.5517118,35.9845325],[-78.5518375,35.98404430000001],[-78.5513997,35.98403480000001],[-78.551138,35.98367659999999],[-78.55048520000001,35.9834348],[-78.5502638,35.9830788],[-78.5518351,35.98205419999999],[-78.5520335,35.98163770000001],[-78.552014,35.981080399999996],[-78.5522896,35.9807383],[-78.5529232,35.98073529999999],[-78.553887,35.980250599999984],[-78.5545944,35.9802666],[-78.5554201,35.979813799999995],[-78.5566646,35.9795419]],[[-78.5566646,35.9795419],[-78.5574522,35.979549999999996],[-78.5589711,35.9802852],[-78.5595878,35.9802319]],[[-78.5595878,35.9802319],[-78.5596817,35.9800949],[-78.5593173,35.97974380000001],[-78.5595382,35.9786679],[-78.5602922,35.97857979999999],[-78.5610052,35.9788772]],[[-78.5673353,35.9790642],[-78.5674589,35.9792052],[-78.5671787,35.9793826],[-78.5672962,35.9796848],[-78.5671864,35.98100709999999],[-78.5685476,35.98060600000001]],[[-78.5610052,35.9788772],[-78.5613799,35.9789453]],[[-78.5613799,35.9789453],[-78.5622929,35.9791585],[-78.5626646,35.9790995],[-78.56322120000002,35.9793305],[-78.5637008,35.979153299999986],[-78.564175,35.97951280000001],[-78.5645601,35.979556699999996],[-78.5658503,35.979348099999996],[-78.5668734,35.97890129999999],[-78.5673353,35.9790642]]]},"properties":{"name":"Horse Creek","kind":"stream"}},{"type":"Feature","geometry":{"type":"MultiLineString","coordinates":[[[-78.6935733,35.8085115],[-78.6933642,35.8084596],[-78.693074,35.8085696],[-78.6922747,35.80947810000001],[-78.6919138,35.8110471],[-78.6907673,35.813649899999994],[-78.6909295,35.8141726],[-78.6904844,35.81445299999999]],[[-78.69952,35.8000591],[-78.699757,35.8006942],[-78.6994792,35.801301099999996],[-78.69919,35.8015189],[-78.6992841,35.80195639999999],[-78.6989472,35.802152799999995],[-78.6990415,35.8024604],[-78.6986865,35.802994500000004]],[[-78.6904844,35.81445299999999],[-78.6900999,35.8149639],[-78.6895263,35.81503949999999]],[[-78.6827268,35.82669739999999],[-78.6813201,35.8269839],[-78.6817979,35.8278855],[-78.6815465,35.8283177],[-78.6808355,35.828942]],[[-78.6808355,35.828942],[-78.6810788,35.829415399999995]],[[-78.6810788,35.829415399999995],[-78.6810872,35.8297656],[-78.68075380000002,35.8301385],[-78.6793098,35.8308268],[-78.6788208,35.8312317],[-78.6787137,35.8318065],[-78.6784208,35.83208749999999],[-78.6785198,35.832271899999995],[-78.6780681,35.832574],[-78.6777826,35.8331792],[-78.6778378,35.83384149999999],[-78.6772407,35.8343839]],[[-78.6765589,35.8360212],[-78.6768388,35.8368385]],[[-78.6772407,35.8343839],[-78.6774292,35.8345773]],[[-78.6774292,35.8345773],[-78.67741,35.8347477],[-78.6771658,35.8347902],[-78.6763696,35.8354496],[-78.6765589,35.8360212]],[[-78.6829019,35.8263999],[-78.6827268,35.82669739999999]],[[-78.6831086,35.826082199999995],[-78.6829019,35.8263999]],[[-78.6968098,35.8063884],[-78.6962904,35.8069487],[-78.6954475,35.8071081],[-78.6946275,35.80839279999999],[-78.6942153,35.80853570000001]],[[-78.6942153,35.80853570000001],[-78.6935733,35.8085115]],[[-78.6895263,35.81503949999999],[-78.6891686,35.8150452]],[[-78.6891686,35.8150452],[-78.6882065,35.81497379999999],[-78.68756400000001,35.815674400000006]],[[-78.68756400000001,35.815674400000006],[-78.687863,35.8160559]],[[-78.687863,35.8160559],[-78.6880656,35.81702109999999],[-78.6873651,35.81723989999999],[-78.68708300000002,35.817499899999994],[-78.6870712,35.817787899999985],[-78.6873315,35.81806509999999],[-78.6871484,35.81811969999999],[-78.6873814,35.8183207],[-78.6866821,35.81898600000001],[-78.687029,35.81911409999999],[-78.6868051,35.820038999999994],[-78.6858204,35.8212313],[-78.6852607,35.82161250000001],[-78.6853458,35.8221579],[-78.6850557,35.82276649999999],[-78.68458950000002,35.8226307],[-78.6846905,35.82313979999999],[-78.6839298,35.82348159999999],[-78.6839067,35.8242025],[-78.6834997,35.8241475],[-78.6837855,35.8247935],[-78.683403,35.8248298],[-78.6833207,35.824959699999994],[-78.6837018,35.8254126],[-78.6831547,35.825763699999996],[-78.6831086,35.826082199999995]],[[-78.6976828,35.804408],[-78.6975153,35.8045668],[-78.6976479,35.8047787],[-78.6974217,35.80508859999999],[-78.6974435,35.80538310000001],[-78.6968098,35.8063884]],[[-78.6986865,35.802994500000004],[-78.6976828,35.804408]]]},"properties":{"name":"House Creek","kind":"stream"}},{"type":"Feature","geometry":{"type":"LineString","coordinates":[[-78.566905,35.965285900000005],[-78.5673036,35.964615699999996],[-78.567412,35.9637697],[-78.5677908,35.96278650000001],[-78.5676082,35.9616879],[-78.5687224,35.96063869999999],[-78.5692894,35.959814699999995],[-78.569918,35.959666399999996],[-78.5712497,35.9597871],[-78.5729518,35.95959479999999],[-78.5736141,35.96000130000001],[-78.5742084,35.96003970000001]]},"properties":{"name":"Jennys Branch","kind":"stream"}},{"type":"Feature","geometry":{"type":"LineString","coordinates":[[-78.7435497,35.93992149999999],[-78.7435776,35.9409433],[-78.74299030000002,35.941795],[-78.7427815,35.94276190000001],[-78.7441348,35.9458816]]},"properties":{"name":"Laurel Creek","kind":"stream"}},{"type":"Feature","geometry":{"type":"MultiLineString","coordinates":[[[-78.7905596,35.9138142],[-78.7905,35.9122223],[-78.7908594,35.9115184],[-78.7899997,35.90994069999999]],[[-78.7916375,35.89755869999999],[-78.7916848,35.897196099999995],[-78.7914081,35.89682260000001],[-78.7916042,35.89568539999999]],[[-78.7913477,35.9188846],[-78.7913544,35.918439500000005],[-78.7915503,35.9181812],[-78.79142790000002,35.9176074]],[[-78.7924308,35.93262390000001],[-78.7920458,35.9320415],[-78.7921276,35.931481299999994],[-78.7916681,35.9310306],[-78.7912836,35.9302889],[-78.7911353,35.9292451],[-78.7905815,35.928855],[-78.7904665,35.92805299999999]],[[-78.7916042,35.89568539999999],[-78.7912674,35.89394939999998],[-78.7906663,35.89266920000001]],[[-78.7899997,35.90994069999999],[-78.7895975,35.9097322],[-78.7889591,35.9089816],[-78.7889269,35.90833640000001],[-78.7887512,35.9079562],[-78.7885501,35.907917100000006],[-78.7885353,35.90749890000001],[-78.7889001,35.90706759999999],[-78.7893386,35.9061335],[-78.789411,35.90552079999999],[-78.7897034,35.90515469999999],[-78.7896672,35.9045823],[-78.7901647,35.9033167],[-78.7898925,35.9026139]],[[-78.7916597,35.9160223],[-78.7911585,35.91549220000001],[-78.7908876,35.9143468],[-78.7905087,35.914227899999986],[-78.7905596,35.9138142]],[[-78.79212350000002,35.92203789999999],[-78.792131,35.92045030000001]],[[-78.7904665,35.92805299999999],[-78.7902446,35.926586300000004],[-78.7903749,35.926038299999995],[-78.7910017,35.9257153],[-78.7910822,35.9255388],[-78.79108550000001,35.925324399999994],[-78.7905258,35.924787],[-78.7906062,35.9243825],[-78.79212350000002,35.92203789999999]],[[-78.7891749,35.90067520000001],[-78.78949660000002,35.89949200000001],[-78.7903605,35.89872849999999],[-78.7910359,35.898602400000016],[-78.7914414,35.8981464],[-78.7916375,35.89755869999999]],[[-78.7898925,35.9026139],[-78.7897321,35.9021927]],[[-78.7889548,35.90098089999999],[-78.7891749,35.90067520000001]],[[-78.7897321,35.9021927],[-78.7886882,35.9014817],[-78.7889548,35.90098089999999]],[[-78.792131,35.92045030000001],[-78.791935,35.91993939999999],[-78.791381,35.9196536],[-78.7911666,35.91922490000001]],[[-78.7916014,35.91627100000001],[-78.7916597,35.9160223]],[[-78.7911666,35.91922490000001],[-78.7913477,35.9188846]],[[-78.79142790000002,35.9176074],[-78.7914623,35.916972099999995]],[[-78.7914588,35.91661119999999],[-78.7916014,35.91627100000001]],[[-78.7914623,35.916972099999995],[-78.7914588,35.91661119999999]]]},"properties":{"name":"Little Brier Creek","kind":"stream"}},{"type":"Feature","geometry":{"type":"MultiLineString","coordinates":[[[-78.5980799,35.78464239999999],[-78.5972473,35.7846592]],[[-78.5941094,35.7856855],[-78.5939156,35.78596039999999]],[[-78.607367,35.78579899999999],[-78.606785,35.78593349999999],[-78.6043765,35.7859516]],[[-78.6043765,35.7859516],[-78.6042079,35.78598239999999]],[[-78.6042079,35.78598239999999],[-78.6034054,35.7862092],[-78.6029049,35.786120600000004],[-78.600845,35.7852761],[-78.600139,35.78456649999999],[-78.5997762,35.7847105],[-78.5994307,35.78449279999999]],[[-78.5939156,35.78596039999999],[-78.5931428,35.7865388]],[[-78.5931428,35.7865388],[-78.59297940000002,35.786867599999994]],[[-78.59297940000002,35.786867599999994],[-78.5914986,35.7875116],[-78.5907095,35.788517],[-78.5895822,35.78945019999998]],[[-78.5981933,35.7845491],[-78.5980799,35.78464239999999]]]},"properties":{"name":"Longview Creek","kind":"stream"}},{"type":"Feature","geometry":{"type":"MultiLineString","coordinates":[[[-78.708629,35.91530709999999],[-78.7086571,35.9155376],[-78.7080336,35.916360600000004],[-78.7056426,35.91649269999999],[-78.7056701,35.916948700000006],[-78.70415060000002,35.9173664],[-78.7033266,35.91845970000001]],[[-78.7121719,35.913464899999994],[-78.7112943,35.91354729999999],[-78.7103624,35.9138826],[-78.7097779,35.91427240000001],[-78.70863450000002,35.914612700000006]],[[-78.7244095,35.915518799999994],[-78.7239703,35.9159009],[-78.7231067,35.91732939999999],[-78.7221479,35.917230800000006],[-78.7215263,35.91733539999999],[-78.7169745,35.9161444],[-78.7161437,35.91571069999999],[-78.7150562,35.9145904],[-78.71329360000001,35.91408530000001],[-78.7125981,35.91358009999999],[-78.7121719,35.913464899999994]],[[-78.70863450000002,35.914612700000006],[-78.708629,35.91530709999999]]]},"properties":{"name":"Lower Barton Creek","kind":"stream"}},{"type":"Feature","geometry":{"type":"MultiLineString","coordinates":[[[-78.6203072,35.8705429],[-78.6197268,35.86966949999999]],[[-78.619033,35.868509599999996],[-78.6170272,35.866180299999996]],[[-78.6168672,35.86600039999999],[-78.6152982,35.865015699999994],[-78.6129036,35.864102199999984],[-78.6124967,35.86409410000001],[-78.611984,35.8636082]],[[-78.5997948,35.84879049999999],[-78.5998569,35.8484916]],[[-78.611984,35.8636082],[-78.6119103,35.8634336]],[[-78.6170272,35.866180299999996],[-78.6168672,35.86600039999999]],[[-78.6192106,35.868778600000006],[-78.619033,35.868509599999996]],[[-78.607504,35.85707060000001],[-78.6073253,35.85684990000001]],[[-78.6030546,35.85372730000001],[-78.6028613,35.85361859999999]],[[-78.5998569,35.8484916],[-78.5999104,35.847057500000005],[-78.6002869,35.84669310000001],[-78.6002533,35.8465062],[-78.5998079,35.8457705],[-78.5997135,35.84513329999999],[-78.598809,35.844617],[-78.598538,35.84246939999999],[-78.5979574,35.8409699],[-78.5975053,35.8406184],[-78.5977477,35.8394538],[-78.5974367,35.8371578],[-78.5978679,35.83545470000001]],[[-78.6017013,35.853455],[-78.6004786,35.8528564],[-78.5999026,35.8521158]],[[-78.6073253,35.85684990000001],[-78.6063662,35.8552326],[-78.6056682,35.8544315],[-78.6044293,35.8538991],[-78.6037206,35.8539746],[-78.6030546,35.85372730000001]],[[-78.6119103,35.8634336],[-78.6116233,35.8619982],[-78.6118134,35.8609297],[-78.6113452,35.859450300000006],[-78.61028570000002,35.85873100000001],[-78.60927380000001,35.85849509999999],[-78.6087738,35.8578471],[-78.6084495,35.8578032],[-78.607504,35.85707060000001]],[[-78.5919355,35.802714299999984],[-78.5920634,35.80178639999999],[-78.5907056,35.800426]],[[-78.5914352,35.8047398],[-78.5918716,35.8040658],[-78.5916137,35.8037851],[-78.591951,35.80299849999999]],[[-78.5979354,35.835097300000015],[-78.5985184,35.8333786],[-78.5986709,35.8310367]],[[-78.5925203,35.81020829999999],[-78.59298700000001,35.81009889999999],[-78.5930447,35.8093048],[-78.592776,35.80757789999999],[-78.592705,35.8074338],[-78.5922498,35.8073996]],[[-78.5940541,35.82000820000001],[-78.5938094,35.8196466]],[[-78.5986709,35.8310367],[-78.5986706,35.83091069999999]],[[-78.591951,35.80299849999999],[-78.5919355,35.802714299999984]],[[-78.5913745,35.8048577],[-78.5914352,35.8047398]],[[-78.5907056,35.800426],[-78.5906615,35.7994606]],[[-78.5978679,35.83545470000001],[-78.5979354,35.835097300000015]],[[-78.5906615,35.7994606],[-78.5905243,35.7986028],[-78.5915349,35.7974836],[-78.5944837,35.79613260000001],[-78.5947585,35.796072699999996],[-78.5951118,35.7962713],[-78.59566580000002,35.7962211]],[[-78.5986706,35.83091069999999],[-78.5961839,35.825232299999996],[-78.5959337,35.8229746],[-78.5953334,35.821299399999994],[-78.5940541,35.82000820000001]],[[-78.5938094,35.8196466],[-78.5933554,35.81781719999999],[-78.592775,35.816629699999986],[-78.592599,35.815296],[-78.5933956,35.8140983],[-78.5934155,35.8138456],[-78.5922595,35.8119901]],[[-78.5922289,35.811881099999994],[-78.5921282,35.8108336],[-78.5925203,35.81020829999999]],[[-78.5925203,35.81020829999999],[-78.5926705,35.8095177],[-78.5922498,35.8073996]],[[-78.5922498,35.8073996],[-78.5915481,35.80716909999999],[-78.5910352,35.8066577],[-78.5910041,35.80614810000001],[-78.5913745,35.8048577]],[[-78.5922595,35.8119901],[-78.5922289,35.811881099999994]],[[-78.59977960000002,35.85178539999999],[-78.5992764,35.850247499999995],[-78.59980890000001,35.8493409],[-78.5997948,35.84879049999999]],[[-78.5998003,35.8518578],[-78.59977960000002,35.85178539999999]],[[-78.5998441,35.85201049999999],[-78.5998003,35.8518578]],[[-78.5998669,35.8520515],[-78.5998441,35.85201049999999]],[[-78.5999026,35.8521158],[-78.5998669,35.8520515]],[[-78.6028613,35.85361859999999],[-78.6025438,35.853482],[-78.6017986,35.8534777]],[[-78.6017986,35.8534777],[-78.6017013,35.853455]],[[-78.6196782,35.8695774],[-78.6192106,35.868778600000006]],[[-78.6197268,35.86966949999999],[-78.6196782,35.8695774]]]},"properties":{"name":"Marsh Creek","kind":"stream"}},{"type":"Feature","geometry":{"type":"MultiLineString","coordinates":[[[-78.6642425,35.878414400000004],[-78.6642166,35.8778647],[-78.6646415,35.877322],[-78.6645736,35.87654169999999],[-78.662527,35.8754257]],[[-78.6610565,35.8556655],[-78.661348,35.8553122],[-78.6630115,35.85479420000001],[-78.6640335,35.8519858],[-78.6638752,35.850852200000006]],[[-78.6638752,35.850852200000006],[-78.6638877,35.8500142],[-78.6632448,35.8486721],[-78.6628625,35.848469300000005],[-78.66130080000002,35.8482322],[-78.6611204,35.84770040000001],[-78.6608442,35.8475771]],[[-78.6701709,35.8817142],[-78.6698892,35.881537099999996],[-78.6701548,35.88095249999999],[-78.6688858,35.8803778]],[[-78.6615812,35.875427200000004],[-78.6607644,35.87502849999999],[-78.6604974,35.87522459999999],[-78.65870080000002,35.875150000000005]],[[-78.6608442,35.8475771],[-78.66154630000001,35.84643530000001],[-78.6626728,35.8458395],[-78.6631447,35.84539980000002],[-78.6628765,35.8452085],[-78.6631313,35.8444388],[-78.662788,35.84422570000001],[-78.6631823,35.84399309999999],[-78.6630106,35.84393440000001],[-78.6629409,35.84350169999999],[-78.6624157,35.84339549999999],[-78.6622187,35.842567100000004]],[[-78.6634602,35.860504600000006],[-78.6625798,35.860193499999994]],[[-78.6651132,35.8866851],[-78.6653971,35.8862955]],[[-78.6662826,35.884562599999995],[-78.6667197,35.8842918],[-78.6668433,35.88397199999999]],[[-78.6576273,35.8753047],[-78.6559717,35.875268999999996],[-78.6554472,35.87488389999999]],[[-78.658547,35.8930787],[-78.6586577,35.8929573]],[[-78.6639252,35.83827709999999],[-78.6640069,35.83814919999999]],[[-78.658368,35.8752137],[-78.6576273,35.8753047]],[[-78.6580899,35.8954401],[-78.658547,35.8930787]],[[-78.6586577,35.8929573],[-78.6592661,35.8911886],[-78.6607949,35.8893106]],[[-78.655895,35.901862699999995],[-78.6559053,35.90181909999999]],[[-78.6507715,35.8682299],[-78.6516766,35.8669298],[-78.6518804,35.86685810000001],[-78.652154,35.8668233],[-78.6521399,35.86727040000001],[-78.6528767,35.8676226],[-78.6541186,35.86656130000001],[-78.6552078,35.86665140000001],[-78.65687030000001,35.867059899999994],[-78.6573949,35.86695159999999],[-78.6574828,35.8667573],[-78.6572235,35.8664233],[-78.6573298,35.86615639999999],[-78.6585609,35.86538039999999],[-78.6584483,35.86501959999999],[-78.6580352,35.864834800000004],[-78.657978,35.8642631],[-78.6593387,35.862685],[-78.6593118,35.862422],[-78.6589792,35.86217309999999],[-78.6589926,35.861864399999995],[-78.6603928,35.860491700000004],[-78.6614657,35.8578483],[-78.66078920000001,35.8567713]],[[-78.6554472,35.87488389999999],[-78.65532360000002,35.8747718],[-78.6554818,35.874426899999996],[-78.6552744,35.87428940000001],[-78.6551759,35.8736216],[-78.65472000000001,35.873717899999995],[-78.6538734,35.87362550000001],[-78.6526198,35.8730402],[-78.6525356,35.8719707],[-78.6531866,35.8712391],[-78.6529595,35.871056],[-78.6525234,35.87118929999999],[-78.6523306,35.87111709999999],[-78.6512317,35.870381099999996],[-78.6512434,35.8701307],[-78.6507897,35.8699326],[-78.6504676,35.8689099],[-78.6507715,35.8682299]],[[-78.6562933,35.90060600000001],[-78.65694990000001,35.899293099999994],[-78.6567992,35.8974284],[-78.657921,35.895917999999995],[-78.6580899,35.8954401]],[[-78.6559053,35.90181909999999],[-78.6562933,35.90060600000001]],[[-78.66078920000001,35.8567713],[-78.6609836,35.8560725]],[[-78.6653971,35.8862955],[-78.6657973,35.885172399999995],[-78.6661413,35.884936700000004],[-78.6662826,35.884562599999995]],[[-78.6609951,35.85590619999999],[-78.6610565,35.8556655]],[[-78.6621298,35.8422983],[-78.6620876,35.84203810000001],[-78.6623474,35.841853799999996],[-78.662328,35.84133109999999],[-78.6633764,35.8407799],[-78.6638053,35.8403757],[-78.6640377,35.839387],[-78.6635011,35.83904309999999],[-78.6639252,35.83827709999999]],[[-78.6622187,35.842567100000004],[-78.6621298,35.8422983]],[[-78.662527,35.8754257],[-78.6622417,35.875341299999995],[-78.6619895,35.8754661]],[[-78.6619895,35.8754661],[-78.6615812,35.875427200000004]],[[-78.6612923,35.888822],[-78.662304,35.888322900000006]],[[-78.6607949,35.8893106],[-78.6612923,35.888822]]]},"properties":{"name":"Mine Creek","kind":"stream"}},{"type":"Feature","geometry":{"type":"LineString","coordinates":[[-78.5252702,35.777045300000005],[-78.5261877,35.776804899999995],[-78.5263644,35.7763347],[-78.5271181,35.7758097],[-78.5272828,35.7754516],[-78.5290363,35.77443579999999],[-78.53165790000001,35.773659],[-78.5333769,35.77349230000001],[-78.5339129,35.7728129],[-78.5343897,35.77285789999999],[-78.5348695,35.7732877],[-78.5352758,35.7729484],[-78.5360239,35.772902099999996],[-78.5365881,35.7724492],[-78.5376707,35.77230430000001],[-78.5382296,35.7710948],[-78.5385921,35.7712649],[-78.5388937,35.7708575]]},"properties":{"name":"Mingo Creek","kind":"stream"}},{"type":"Feature","geometry":{"type":"MultiLineString","coordinates":[[[-78.6914431,35.867348400000004],[-78.6917642,35.8669975],[-78.6923108,35.867021599999994],[-78.6932238,35.86595519999999],[-78.6942356,35.86549350000001],[-78.6959048,35.86346660000001]],[[-78.6873941,35.87313569999999],[-78.68765040000001,35.87150929999999],[-78.6879701,35.87079949999999]],[[-78.6879701,35.87079949999999],[-78.6880486,35.870587]],[[-78.6873656,35.87340859999999],[-78.6873941,35.87313569999999]],[[-78.68491260000002,35.88207839999999],[-78.6847889,35.8791549],[-78.6846019,35.8785023],[-78.684739,35.87716019999999],[-78.6850353,35.87654869999999],[-78.68560900000001,35.87611749999999],[-78.6864338,35.8749685],[-78.6873656,35.87340859999999]],[[-78.6959048,35.86346660000001],[-78.696225,35.86319569999999]],[[-78.696225,35.86319569999999],[-78.6963344,35.8629978]],[[-78.6880486,35.870587],[-78.688266,35.869658899999976],[-78.6897952,35.8688302],[-78.6906411,35.8686294],[-78.6913269,35.8674408]],[[-78.6913269,35.8674408],[-78.6914431,35.867348400000004]]]},"properties":{"name":"Nacho Creek","kind":"stream"}},{"type":"Feature","geometry":{"type":"MultiLineString","coordinates":[[[-78.5834603,35.940968000000005],[-78.582266,35.94073579999999]],[[-78.5393042,35.8002162],[-78.5405204,35.79818650000001]],[[-78.5384513,35.80152650000001],[-78.5393042,35.8002162]],[[-78.5415944,35.795007],[-78.5406044,35.7941811],[-78.5371885,35.792151999999994],[-78.5353743,35.7898348],[-78.5349393,35.7885262]],[[-78.5349393,35.7885262],[-78.5365922,35.7855094]],[[-78.5414771,35.79620439999999],[-78.5415944,35.795007]],[[-78.5405204,35.79818650000001],[-78.5414771,35.79620439999999]],[[-78.5831921,35.95461969999999],[-78.5821632,35.951952]],[[-78.5365922,35.7855094],[-78.5373577,35.7818548],[-78.5373398,35.781157400000005]],[[-78.5821632,35.951952],[-78.5817997,35.9488543],[-78.582496,35.946978],[-78.585425,35.9444053],[-78.5856705,35.9422324]],[[-78.5287761,35.85730829999999],[-78.5288508,35.85569769999999],[-78.5291314,35.8549305],[-78.5304252,35.85331540000001],[-78.529912,35.850671000000006],[-78.5298866,35.848941700000005]],[[-78.5856705,35.9422324],[-78.5834603,35.940968000000005]],[[-78.582266,35.94073579999999],[-78.58111,35.9406369],[-78.5790101,35.941247900000015],[-78.5763002,35.9406818],[-78.57589850000001,35.940485100000004],[-78.57342510000001,35.9379716],[-78.570943,35.93629909999999],[-78.5684985,35.934018599999995],[-78.5675944,35.933841900000004],[-78.5654603,35.9342975],[-78.5642271,35.934221300000004],[-78.5621333,35.9336759],[-78.5597465,35.93241510000001],[-78.55782510000002,35.93098119999999],[-78.5564242,35.93027930000001],[-78.55383430000002,35.92840749999999],[-78.5535989,35.92783119999999],[-78.5536898,35.926583300000004],[-78.5545139,35.9255477],[-78.555782,35.9213315],[-78.5564884,35.9201614],[-78.5596829,35.91606629999999],[-78.5596561,35.9121616],[-78.5582702,35.9102677],[-78.5574355,35.9098256],[-78.554134,35.90870309999999],[-78.5528925,35.9083868],[-78.5518116,35.90838680000001],[-78.5503883,35.908092],[-78.5472526,35.90625010000001],[-78.546012,35.905876],[-78.5431666,35.9054831],[-78.5424311,35.9056288],[-78.5419889,35.905873099999994],[-78.5410562,35.9066791],[-78.5403038,35.908841900000006],[-78.5398625,35.909164200000006],[-78.5393475,35.90926129999999],[-78.5388113,35.9090185],[-78.5386216,35.9087682],[-78.5382698,35.9074069],[-78.5377307,35.906571899999996],[-78.5363595,35.9054856],[-78.535247,35.904330099999996],[-78.535176,35.9036754],[-78.53566240000002,35.9014945],[-78.5354752,35.900000000000006],[-78.534207,35.8972822],[-78.5332064,35.8943996],[-78.5331796,35.8934329],[-78.5338592,35.890715],[-78.5345709,35.8896832],[-78.536424,35.8889249],[-78.5380383,35.887983899999995],[-78.5394028,35.886874],[-78.5406549,35.8853827],[-78.5414276,35.883844700000004],[-78.5416716,35.88270779999999],[-78.5409706,35.8813378],[-78.5401466,35.8808696],[-78.5378296,35.8801455],[-78.5356304,35.88014549999999],[-78.5346512,35.88047939999999],[-78.53401440000002,35.881142699999984],[-78.53352210000001,35.88343840000001],[-78.5326415,35.88482979999999],[-78.5322111,35.885205],[-78.5309697,35.88574259999999],[-78.5299025,35.8859501],[-78.5293432,35.8857246],[-78.528756,35.884902],[-78.5261967,35.882699099999996],[-78.5259996,35.8821662],[-78.5263045,35.881788900000004],[-78.5271224,35.881368099999996],[-78.5281152,35.8794916],[-78.528997,35.8784595],[-78.5301837,35.87751299999999],[-78.5315935,35.8768721],[-78.5327981,35.875765],[-78.5351907,35.8724322],[-78.5357794,35.870956],[-78.5356792,35.87052069999999],[-78.5343278,35.868714],[-78.5328296,35.867326399999996],[-78.5311307,35.8662911],[-78.5272713,35.86462709999999],[-78.5268566,35.864106699999994],[-78.5267496,35.86343449999999],[-78.5269235,35.8625835],[-78.5269347,35.8602675],[-78.5282247,35.8585867],[-78.5287761,35.85730829999999]],[[-78.5298866,35.848941700000005],[-78.5307498,35.8432667],[-78.5306054,35.8402589],[-78.5314719,35.836620999999994],[-78.5307744,35.83358129999999],[-78.5310249,35.8324287],[-78.5317255,35.8312549],[-78.5326349,35.83078929999999],[-78.5348839,35.83092649999999],[-78.5359695,35.830713],[-78.5373608,35.8300962],[-78.5393604,35.828066899999996],[-78.5394731,35.827706799999994],[-78.5396064,35.822771499999995],[-78.5390907,35.82177169999999],[-78.5384035,35.820897099999996],[-78.5382794,35.8201856],[-78.5382787,35.8196463],[-78.5386169,35.8190604],[-78.5390703,35.8186914],[-78.5393619,35.8181583],[-78.53930960000001,35.8178598],[-78.5390757,35.817312599999994],[-78.5380688,35.816172900000005],[-78.5373585,35.8156091],[-78.536784,35.81544559999999],[-78.5358729,35.8147312],[-78.5356708,35.8138393],[-78.5334148,35.8124192],[-78.5327376,35.811571699999995],[-78.5323781,35.810249500000005],[-78.5327794,35.80980199999999],[-78.5347944,35.80882569999999],[-78.5365164,35.8077083],[-78.5373261,35.80666360000001],[-78.5386095,35.804494],[-78.5384513,35.80152650000001]],[[-78.5373398,35.781157400000005],[-78.537202,35.77974660000001],[-78.53737470000002,35.778575499999995],[-78.5381031,35.7769107],[-78.5396944,35.77468029999999],[-78.539812,35.77308610000001],[-78.5387477,35.7705586],[-78.5387541,35.769432],[-78.5397098,35.7662199],[-78.5392351,35.76225079999999],[-78.5387461,35.76113939999999],[-78.5382067,35.76065429999999],[-78.5364528,35.76050909999999],[-78.535489,35.76022570000001],[-78.5348431,35.75978740000001],[-78.5336745,35.75846109999999],[-78.5329082,35.75723729999999],[-78.5322126,35.7554261],[-78.5317019,35.7508189],[-78.5295742,35.746020699999995],[-78.5284396,35.7445188],[-78.5265681,35.7409442],[-78.5265643,35.74036819999999],[-78.5281877,35.73811119999999],[-78.5293111,35.7350509],[-78.5288807,35.733021199999996],[-78.5285701,35.732568500000006],[-78.52763,35.731892999999985],[-78.5264522,35.73134039999999],[-78.5255554,35.73105100000001],[-78.5231458,35.730700399999996],[-78.5219895,35.73081410000001],[-78.5202606,35.7314896],[-78.5184524,35.7318262],[-78.5160534,35.7317331],[-78.5152155,35.731531199999985],[-78.5146109,35.7312423],[-78.514125,35.730593199999994],[-78.5142322,35.7285463],[-78.5140715,35.72746540000001],[-78.5138775,35.7270313],[-78.5133978,35.726599400000005],[-78.5114237,35.726373],[-78.5067191,35.725510699999994],[-78.5027521,35.72453519999999],[-78.5018804,35.72446550000001]]]},"properties":{"name":"Neuse River","kind":"stream"}},{"type":"Feature","geometry":{"type":"MultiLineString","coordinates":[[[-78.5525945,35.8768422],[-78.5518123,35.87698489999999],[-78.5505227,35.8782372],[-78.5496727,35.8787481]],[[-78.5415824,35.8838185],[-78.5414276,35.883844700000004]],[[-78.6032746,35.8793901],[-78.6016549,35.8786186]],[[-78.57487340000002,35.8799447],[-78.5742268,35.879709]],[[-78.5726136,35.87765949999999],[-78.5715331,35.8775726],[-78.5713402,35.877302],[-78.5709511,35.87732449999999],[-78.5708834,35.87704859999999],[-78.5703887,35.87689829999999],[-78.5700836,35.87695870000001],[-78.5697197,35.876523299999995],[-78.5697197,35.876134300000004],[-78.5692846,35.87573969999999],[-78.5682395,35.8760248],[-78.5677473,35.87647979999999]],[[-78.5954204,35.8749683],[-78.5950133,35.875266700000005],[-78.5934944,35.875602199999996],[-78.5925706,35.8761023],[-78.5918615,35.87671769999999],[-78.5912533,35.87765]],[[-78.6016549,35.8786186],[-78.60182660000001,35.8774638]],[[-78.576039,35.879427199999995],[-78.57487340000002,35.8799447]],[[-78.6018174,35.87699570000001],[-78.6013351,35.8755324]],[[-78.5754612,35.880187000000014],[-78.57487340000002,35.8799447]],[[-78.6079187,35.8816773],[-78.6077725,35.8813763],[-78.6067053,35.881052800000006],[-78.6060376,35.880569399999985],[-78.6058215,35.88064849999999]],[[-78.5496727,35.8787481],[-78.5490309,35.8788963],[-78.54822760000002,35.87970349999999],[-78.5457156,35.88094029999999],[-78.5451995,35.88199749999998],[-78.5453236,35.882471899999985],[-78.5450752,35.88267230000001],[-78.5446072,35.8827529],[-78.54450920000001,35.88306639999999],[-78.5439921,35.883145],[-78.5433885,35.8830105],[-78.543097,35.88362999999999]],[[-78.5848706,35.8799659],[-78.5840391,35.87995690000001],[-78.5834334,35.8792788],[-78.5819154,35.87860039999999]],[[-78.5821322,35.87827699999999],[-78.5819154,35.87860039999999]],[[-78.5677473,35.87647979999999],[-78.5668721,35.8764994],[-78.5664128,35.87613150000001],[-78.5657091,35.8758759],[-78.5654872,35.8760529],[-78.5637243,35.875974500000005],[-78.5607348,35.8747176]],[[-78.5820756,35.877422900000006],[-78.5821322,35.87827699999999]],[[-78.5819154,35.87860039999999],[-78.5769217,35.87920220000001],[-78.576039,35.879427199999995]],[[-78.6042111,35.880233],[-78.6040551,35.87969400000001],[-78.6033733,35.879426]],[[-78.6013351,35.8755324],[-78.6009816,35.8754164],[-78.6003856,35.8755728],[-78.5996504,35.875463]],[[-78.6130937,35.8835676],[-78.6129507,35.8834468]],[[-78.5827355,35.8772336],[-78.5821322,35.87827699999999]],[[-78.5996504,35.875463],[-78.5981452,35.87501090000001],[-78.5964682,35.87500299999999]],[[-78.5607348,35.8747176],[-78.5589948,35.87484400000001],[-78.556317,35.87533210000001],[-78.55435,35.876271],[-78.5525945,35.8768422]],[[-78.543097,35.88362999999999],[-78.5427447,35.88381660000001],[-78.5415824,35.8838185]],[[-78.5742268,35.879709],[-78.5738948,35.879592499999994]],[[-78.6124852,35.8832037],[-78.6121882,35.883378900000004],[-78.6112578,35.883454400000005],[-78.6107612,35.8831371],[-78.610302,35.88239449999998],[-78.6092081,35.88188550000001],[-78.6079187,35.8816773]],[[-78.5738948,35.879592499999994],[-78.5728552,35.8790053]],[[-78.5728552,35.8790053],[-78.5726136,35.87765949999999]],[[-78.6169796,35.8840177],[-78.6169269,35.884094399999995]],[[-78.5912533,35.87765],[-78.591099,35.87791529999999]],[[-78.591099,35.87791529999999],[-78.5900956,35.8788021],[-78.58906490000001,35.8793542]],[[-78.58906490000001,35.8793542],[-78.5875547,35.879612999999985]],[[-78.5875547,35.879612999999985],[-78.5866455,35.879954399999995],[-78.5855017,35.88006]],[[-78.5961471,35.874983900000004],[-78.5954204,35.8749683]],[[-78.5964682,35.87500299999999],[-78.5961471,35.874983900000004]],[[-78.5855017,35.88006],[-78.5851535,35.8800041]],[[-78.5851535,35.8800041],[-78.5848706,35.8799659]],[[-78.6056482,35.8807103],[-78.6052664,35.8809257],[-78.6049067,35.8809193],[-78.6045025,35.8807378],[-78.6042285,35.8803613]],[[-78.6058215,35.88064849999999],[-78.6056482,35.8807103]],[[-78.6033733,35.879426],[-78.6032746,35.8793901]],[[-78.60182660000001,35.8774638],[-78.6018174,35.87699570000001]]]},"properties":{"name":"Perry Creek","kind":"stream"}},{"type":"Feature","geometry":{"type":"MultiLineString","coordinates":[[[-78.6442391,35.7888486],[-78.6441453,35.7908718],[-78.6435244,35.791708299999996]],[[-78.608666,35.8043433],[-78.6085354,35.8043791]],[[-78.6352598,35.7994928],[-78.6331174,35.80026910000001]],[[-78.6416808,35.79565029999999],[-78.6415002,35.795737700000004]],[[-78.6223723,35.80230509999999],[-78.6212745,35.8027506],[-78.6191965,35.80325679999999],[-78.6182196,35.80412359999999],[-78.6177659,35.8047811],[-78.6174245,35.80492039999999]],[[-78.640356,35.79727359999999],[-78.6395058,35.79743150000001]],[[-78.6395058,35.79743150000001],[-78.6383731,35.797511699999994],[-78.6373144,35.7982449],[-78.6366622,35.7990155],[-78.6352598,35.7994928]],[[-78.6258031,35.803244],[-78.6253871,35.803197600000004]],[[-78.62619790000001,35.803332700000006],[-78.6258031,35.803244]],[[-78.6253871,35.803197600000004],[-78.6251586,35.803078299999996]],[[-78.6247249,35.80141580000001],[-78.6244014,35.801233999999994],[-78.6238971,35.8013813],[-78.6223723,35.80230509999999]],[[-78.6296359,35.80118819999999],[-78.6295487,35.80123830000001]],[[-78.6299483,35.8010523],[-78.6296359,35.80118819999999]],[[-78.6293341,35.8014819],[-78.629082,35.801784299999994]],[[-78.6295487,35.80123830000001],[-78.6293341,35.8014819]],[[-78.6286394,35.8022738],[-78.62818750000001,35.8026153],[-78.62619790000001,35.803332700000006]],[[-78.629082,35.801784299999994],[-78.6286394,35.8022738]],[[-78.6329685,35.80032349999999],[-78.63106680000001,35.801030499999996],[-78.6299483,35.8010523]],[[-78.6331174,35.80026910000001],[-78.6329685,35.80032349999999]],[[-78.6434452,35.791800800000004],[-78.643173,35.7921847],[-78.6426345,35.793814299999994]],[[-78.6435244,35.791708299999996],[-78.6434452,35.791800800000004]],[[-78.6425876,35.7939639],[-78.6419708,35.795430599999996],[-78.6416808,35.79565029999999]],[[-78.6426345,35.793814299999994],[-78.6425876,35.7939639]],[[-78.6413553,35.7958229],[-78.6406692,35.7970398],[-78.640356,35.79727359999999]],[[-78.6415002,35.795737700000004],[-78.6413553,35.7958229]],[[-78.6143172,35.806534],[-78.6132927,35.807349],[-78.6128132,35.8073401],[-78.6108026,35.8045788],[-78.6103302,35.80416139999999],[-78.609629,35.8040134],[-78.608666,35.8043433]],[[-78.6174245,35.80492039999999],[-78.6171753,35.8049204]],[[-78.6145459,35.8063241],[-78.6143172,35.806534]],[[-78.6171753,35.8049204],[-78.6145459,35.8063241]],[[-78.6251586,35.803078299999996],[-78.6250351,35.80282209999999],[-78.6252779,35.8022017]],[[-78.6252779,35.8022017],[-78.6251568,35.80177849999999],[-78.6247249,35.80141580000001]]]},"properties":{"name":"Pigeon House Branch","kind":"stream"}},{"type":"Feature","geometry":{"type":"MultiLineString","coordinates":[[[-78.7548431,35.875704799999994],[-78.7551942,35.8759028],[-78.7561086,35.8749374],[-78.7572516,35.874614000000015]],[[-78.7466763,35.8914242],[-78.7469532,35.89101200000001],[-78.7470066,35.8905122],[-78.7466736,35.8885712]],[[-78.7497262,35.88035889999999],[-78.7507297,35.8797461]],[[-78.7572516,35.874614000000015],[-78.7570873,35.8738013],[-78.757581,35.8730434],[-78.7574124,35.872246799999985],[-78.757609,35.8717004],[-78.7570423,35.87150499999999],[-78.757042,35.8713787],[-78.7576629,35.87086810000001],[-78.7581633,35.870181599999995],[-78.7588797,35.8689952],[-78.7588638,35.868556]],[[-78.7467658,35.884519],[-78.746833,35.884063],[-78.7466164,35.883173],[-78.7470546,35.8822611],[-78.7481739,35.8811507],[-78.7497262,35.88035889999999]],[[-78.7507297,35.8797461],[-78.7514049,35.8798618],[-78.7519918,35.8796533],[-78.7528709,35.8785331],[-78.7529044,35.8777641],[-78.7536887,35.876814100000004],[-78.7537154,35.876473499999996],[-78.7548431,35.875704799999994]],[[-78.7465487,35.88654149999999],[-78.7469762,35.885414399999995],[-78.7469894,35.88496919999999],[-78.7467658,35.884519]],[[-78.7466736,35.8885712],[-78.7466136,35.8880293]],[[-78.7466136,35.8880293],[-78.7467141,35.8875347],[-78.7465466,35.88660399999999]],[[-78.7465466,35.88660399999999],[-78.7465487,35.88654149999999]]]},"properties":{"name":"Pots Branch","kind":"stream"}},{"type":"Feature","geometry":{"type":"MultiLineString","coordinates":[[[-78.7264326,35.797651800000004],[-78.7261413,35.79846160000001],[-78.7260681,35.79944759999999]],[[-78.5491647,35.9538921],[-78.5501662,35.9526668],[-78.5503406,35.952629],[-78.5501928,35.95222849999999],[-78.55042,35.95212610000001],[-78.5504725,35.95171009999999],[-78.5508878,35.951019800000005]],[[-78.7246586,35.8316262],[-78.7245303,35.8321991],[-78.724639,35.83362599999999],[-78.7245016,35.8339742],[-78.7238094,35.83445069999999],[-78.7238375,35.83505799999999]],[[-78.7334458,35.8147198],[-78.733716,35.8152308],[-78.73375,35.81646129999999]],[[-78.5459748,35.95703879999999],[-78.5459702,35.95641790000001],[-78.5476178,35.9553319]],[[-78.5363207,35.9667743],[-78.5365212,35.966261899999985],[-78.5371241,35.96614929999999],[-78.5372845,35.965841899999994],[-78.5385067,35.964843299999984]],[[-78.5525037,35.942472699999996],[-78.5527029,35.93932019999999]],[[-78.7301534,35.82267430000002],[-78.7304111,35.8235198],[-78.7302897,35.8241518],[-78.7308866,35.82462780000001]],[[-78.719593,35.8343412],[-78.71853380000002,35.834742399999996],[-78.7184553,35.8350748]],[[-78.5316139,35.969917],[-78.533086,35.96900000000001],[-78.53358600000001,35.968900999999995],[-78.534155,35.968545],[-78.5363207,35.9667743]],[[-78.73375,35.81646129999999],[-78.7347439,35.817748899999984],[-78.7346723,35.81790319999999],[-78.7338526,35.81826850000001],[-78.7331175,35.8182194],[-78.7320233,35.81883700000001],[-78.7320029,35.81952429999999],[-78.7323198,35.81971630000001],[-78.7323914,35.819982399999994],[-78.732193,35.820459500000005],[-78.7317713,35.820727399999996],[-78.7304489,35.8208258],[-78.7302869,35.821020299999994],[-78.7302767,35.82154150000001]],[[-78.5485712,35.954898799999995],[-78.5490374,35.95396829999999]],[[-78.7263348,35.8048785],[-78.726522,35.80510859999999],[-78.7264149,35.80691060000001],[-78.7262333,35.807838899999986],[-78.72601590000001,35.807947299999995]],[[-78.7256344,35.809627500000005],[-78.7262066,35.81001439999999],[-78.7269297,35.81153039999999],[-78.7276107,35.81221699999999],[-78.7284136,35.8124473],[-78.7288386,35.8127439],[-78.729648,35.8129029],[-78.7314357,35.81292770000001]],[[-78.5528862,35.93738369999999],[-78.5527993,35.937095600000006],[-78.5531107,35.9365823],[-78.55349550000001,35.934993899999995],[-78.5546293,35.9335534],[-78.5559366,35.93253419999999],[-78.557297,35.9323782]],[[-78.5419941,35.9618175],[-78.5421087,35.9617037]],[[-78.7146103,35.7972175],[-78.714756,35.7970385]],[[-78.7184553,35.8350748],[-78.7195806,35.8371043],[-78.7199253,35.838472],[-78.7198781,35.8388896],[-78.7188802,35.8397908],[-78.7188902,35.8404831],[-78.7191451,35.841184000000005],[-78.7190493,35.842488],[-78.718732,35.8431858],[-78.71981810000001,35.8437614],[-78.7210446,35.8441633],[-78.721273,35.845048],[-78.7211576,35.845206999999995]],[[-78.5514957,35.948723699999995],[-78.552233,35.94618599999999],[-78.55271270000001,35.9451315]],[[-78.7302767,35.82154150000001],[-78.7301534,35.82267430000002]],[[-78.55271270000001,35.9451315],[-78.5525639,35.9437361]],[[-78.7314357,35.81292770000001],[-78.7313202,35.813123000000004],[-78.7323668,35.813929200000004],[-78.7323805,35.81457739999998],[-78.7334458,35.8147198]],[[-78.5385067,35.964843299999984],[-78.5397657,35.96392900000001],[-78.5400267,35.96355279999999],[-78.5406606,35.9631964],[-78.5408728,35.9627697],[-78.5411568,35.9626628],[-78.5411606,35.9624387],[-78.541429,35.9623673],[-78.5419941,35.9618175]],[[-78.7307934,35.8246626],[-78.7302288,35.82481669999999]],[[-78.7260469,35.8286859],[-78.7261376,35.829663999999994]],[[-78.7308866,35.82462780000001],[-78.7307934,35.8246626]],[[-78.72601590000001,35.807947299999995],[-78.725919,35.80839700000001]],[[-78.5476178,35.9553319],[-78.5485712,35.954898799999995]],[[-78.5577601,35.93108610000001],[-78.55782510000002,35.93098119999999]],[[-78.7238375,35.83505799999999],[-78.723155,35.83554899999999],[-78.7222179,35.8356699],[-78.7219348,35.8355162],[-78.721914,35.835340499999994],[-78.72244,35.8350546],[-78.72196120000001,35.834884299999985],[-78.7216308,35.8344066],[-78.7203262,35.83421560000001]],[[-78.5527029,35.93932019999999],[-78.5528862,35.93738369999999]],[[-78.557297,35.9323782],[-78.5580713,35.93270119999999],[-78.55847530000001,35.932709],[-78.5585862,35.932583300000005],[-78.5586507,35.93228249999999],[-78.5584228,35.9319417],[-78.5576681,35.931593199999995],[-78.5577601,35.93108610000001]],[[-78.5525639,35.9437361],[-78.5525037,35.942472699999996]],[[-78.7302288,35.82481669999999],[-78.7303962,35.82517489999999]],[[-78.7261376,35.829663999999994],[-78.7260046,35.8305121],[-78.7251576,35.8309228],[-78.7246586,35.8316262]],[[-78.7303962,35.82517489999999],[-78.7303689,35.82527949999999]],[[-78.7261336,35.80080699999999],[-78.7260304,35.80119380000001]],[[-78.7260304,35.80119380000001],[-78.7259916,35.8018392]],[[-78.7203262,35.83421560000001],[-78.72005160000002,35.83417109999999]],[[-78.72005160000002,35.83417109999999],[-78.719593,35.8343412]],[[-78.5426743,35.96126209999999],[-78.5459748,35.95703879999999]],[[-78.5421087,35.9617037],[-78.5426743,35.96126209999999]],[[-78.7259916,35.8018392],[-78.7256678,35.8034721],[-78.7258958,35.8037125],[-78.7260825,35.80438550000001]],[[-78.7260825,35.80438550000001],[-78.7263348,35.8048785]],[[-78.5490374,35.95396829999999],[-78.5491647,35.9538921]],[[-78.5508878,35.951019800000005],[-78.5514957,35.948723699999995]],[[-78.7145437,35.79721419999999],[-78.7146103,35.7972175]],[[-78.7144814,35.7972112],[-78.7145437,35.79721419999999]],[[-78.7260274,35.79971359999999],[-78.7261336,35.80080699999999]],[[-78.72605650000001,35.79952329999999],[-78.7260376,35.799646899999985]],[[-78.7260681,35.79944759999999],[-78.72605650000001,35.79952329999999]],[[-78.7265518,35.79729689999999],[-78.72646240000002,35.7975856]],[[-78.72646240000002,35.7975856],[-78.7264326,35.797651800000004]],[[-78.7260376,35.799646899999985],[-78.7260274,35.79971359999999]],[[-78.7257032,35.80932979999999],[-78.7256344,35.809627500000005]],[[-78.725733,35.8092011],[-78.7257032,35.80932979999999]],[[-78.7258221,35.8088159],[-78.7257883,35.808962099999995]],[[-78.7258528,35.8086834],[-78.7258221,35.8088159]],[[-78.7258747,35.80858829999999],[-78.7258528,35.8086834]],[[-78.725919,35.80839700000001],[-78.7258747,35.80858829999999]],[[-78.7257575,35.809095199999994],[-78.725733,35.8092011]],[[-78.7257883,35.808962099999995],[-78.7257575,35.809095199999994]]]},"properties":{"name":"Richland Creek","kind":"stream"}},{"type":"Feature","geometry":{"type":"MultiLineString","coordinates":[[[-78.7537233,35.9374505],[-78.7541483,35.9380112],[-78.7547223,35.9383189],[-78.7549179,35.9386762],[-78.75535,35.938962100000005],[-78.7555926,35.94028600000001],[-78.755977,35.940747699999996],[-78.7560985,35.94134100000001],[-78.7560706,35.94208820000001],[-78.7557725,35.9426154],[-78.7557316,35.9435711],[-78.7562588,35.94378029999999],[-78.7562308,35.9441043],[-78.756481,35.94427460000001],[-78.7564738,35.9448406],[-78.7568384,35.945444900000005]],[[-78.7532718,35.9360495],[-78.7532377,35.936549400000004],[-78.7536967,35.9370878],[-78.7537233,35.9374505]],[[-78.6883347,35.79171310000001],[-78.6873477,35.79056369999999],[-78.68692950000002,35.7904875],[-78.6857411,35.7898537]],[[-78.6628847,35.77853709999999],[-78.6627186,35.7780515]],[[-78.6627186,35.7780515],[-78.6626552,35.777497]],[[-78.6560214,35.7747913],[-78.6559354,35.7735671]],[[-78.6626552,35.777497],[-78.6592867,35.77508129999999],[-78.65816670000001,35.7748214],[-78.6569034,35.77474279999999]],[[-78.6632378,35.7787339],[-78.6630239,35.778616700000015]],[[-78.6569034,35.77474279999999],[-78.6562996,35.77499410000001]],[[-78.6630239,35.778616700000015],[-78.6628847,35.77853709999999]],[[-78.6559354,35.7735671],[-78.6560796,35.773116],[-78.6559438,35.7728689],[-78.6551706,35.772573799999996],[-78.65353,35.7715271]],[[-78.6562996,35.77499410000001],[-78.6560982,35.77499060000001],[-78.6560214,35.7747913]],[[-78.6762178,35.783937],[-78.6723473,35.78235219999999]],[[-78.6723473,35.78235219999999],[-78.6712799,35.781939400000006]],[[-78.676764,35.78413200000001],[-78.6762178,35.783937]],[[-78.6712799,35.781939400000006],[-78.6696471,35.7810195],[-78.6687385,35.7806863],[-78.6685803,35.7804521],[-78.6682024,35.78043889999999],[-78.6679773,35.780127300000004],[-78.66752550000001,35.780225099999996],[-78.6666328,35.78013769999999],[-78.6660654,35.7795442],[-78.6643077,35.7790549],[-78.6636911,35.77907],[-78.6632378,35.7787339]],[[-78.6807899,35.7866502],[-78.679149,35.785418400000005]],[[-78.679149,35.785418400000005],[-78.6789444,35.785261099999985]],[[-78.6809853,35.78678829999999],[-78.6807899,35.7866502]],[[-78.6789444,35.785261099999985],[-78.676764,35.78413200000001]],[[-78.6841958,35.7888625],[-78.6840129,35.7887669]],[[-78.6840129,35.7887669],[-78.6828956,35.7881756],[-78.6809853,35.78678829999999]],[[-78.639838,35.758610600000004],[-78.6384458,35.7574223],[-78.6384149,35.7572194]],[[-78.64016600000001,35.758865700000015],[-78.639838,35.758610600000004]],[[-78.6430754,35.7658418],[-78.6429255,35.7657286]],[[-78.6429255,35.7657286],[-78.6427573,35.7651464],[-78.6432506,35.76360960000002],[-78.6429602,35.76302059999999],[-78.6425244,35.7626463],[-78.6424464,35.76228540000001],[-78.6427052,35.76216219999999],[-78.6425141,35.7616334],[-78.6421301,35.76098160000001],[-78.64016600000001,35.758865700000015]],[[-78.6484209,35.7698865],[-78.6481809,35.76976719999999]],[[-78.6464641,35.766967400000006],[-78.64622760000002,35.7667847],[-78.64581,35.7668064],[-78.6453514,35.7664053],[-78.6438756,35.7664267],[-78.6430754,35.7658418]],[[-78.65353,35.7715271],[-78.6532962,35.7713737]],[[-78.6532962,35.7713737],[-78.6517499,35.7705269],[-78.6484209,35.7698865]],[[-78.6854775,35.7896442],[-78.6852024,35.789326100000004],[-78.6841958,35.7888625]],[[-78.6857411,35.7898537],[-78.6854775,35.7896442]],[[-78.6481809,35.76976719999999],[-78.647646,35.769129400000004],[-78.6475694,35.76834610000001],[-78.6468538,35.7675127]],[[-78.6468538,35.7675127],[-78.6464641,35.766967400000006]]]},"properties":{"name":"Rocky Branch","kind":"stream"}},{"type":"Feature","geometry":{"type":"MultiLineString","coordinates":[[[-78.5479181,35.8276406],[-78.5468184,35.8274866],[-78.546407,35.8275854]],[[-78.5401413,35.8278094],[-78.539689,35.827672]],[[-78.5631615,35.82235719999999],[-78.5628578,35.822495],[-78.5623991,35.822379500000004],[-78.5615228,35.8226212],[-78.56065940000002,35.822659699999996]],[[-78.548464,35.82774499999999],[-78.5479181,35.8276406]],[[-78.546407,35.8275854],[-78.5460226,35.82765679999999]],[[-78.5676909,35.8219561],[-78.5657253,35.821939599999986],[-78.5648736,35.82208079999999]],[[-78.56065940000002,35.822659699999996],[-78.5581955,35.8230573],[-78.5574755,35.8230384],[-78.5571315,35.82320870000001],[-78.5550275,35.824686299999996],[-78.554966,35.82542780000001],[-78.5543318,35.82665270000001]],[[-78.539689,35.827672],[-78.5394731,35.827706799999994]],[[-78.5460226,35.82765679999999],[-78.543331,35.8277935],[-78.5425417,35.828156]],[[-78.5515191,35.8280476],[-78.5499407,35.8281517],[-78.5489907,35.8276958],[-78.548464,35.82774499999999]],[[-78.5543318,35.82665270000001],[-78.5527874,35.8268723],[-78.5525243,35.827037100000005],[-78.5521471,35.8277015],[-78.5515191,35.8280476]]]},"properties":{"name":"Rocky Creek","kind":"stream"}},{"type":"Feature","geometry":{"type":"MultiLineString","coordinates":[[[-78.7007889,35.82582010000001],[-78.7009423,35.8264746],[-78.7001034,35.82792439999999],[-78.6986866,35.8284993],[-78.6982548,35.82944969999999],[-78.6974039,35.82934019999999],[-78.6971869,35.829608999999984],[-78.6964811,35.82976909999999]],[[-78.6964811,35.82976909999999],[-78.6957268,35.82981839999999]],[[-78.6943641,35.8302293],[-78.6941828,35.83039320000001]],[[-78.6941828,35.83039320000001],[-78.6931172,35.8311404]],[[-78.6957268,35.82981839999999],[-78.6954185,35.8302772],[-78.6949162,35.830054],[-78.6943641,35.8302293]],[[-78.6931172,35.8311404],[-78.69247670000001,35.83130229999999]],[[-78.69247670000001,35.83130229999999],[-78.6914753,35.831702099999994]]]},"properties":{"name":"Sals Creek","kind":"stream"}},{"type":"Feature","geometry":{"type":"MultiLineString","coordinates":[[[-78.7148198,35.775940399999996],[-78.7137157,35.775771]],[[-78.70016980000001,35.7665246],[-78.6991841,35.7657045],[-78.6985954,35.764610999999995],[-78.6976237,35.764579399999995],[-78.6970215,35.76518780000001],[-78.6962395,35.7652757]],[[-78.7111866,35.77445960000001],[-78.7102752,35.77411850000001],[-78.7099182,35.7738108],[-78.7092165,35.77305839999999],[-78.7084077,35.771723599999994],[-78.7074312,35.771076699999995]],[[-78.71608,35.777003500000006],[-78.7148198,35.775940399999996]],[[-78.7033276,35.768677700000005],[-78.7030687,35.76837759999999]],[[-78.717572,35.783285199999995],[-78.7179325,35.7810801],[-78.717905,35.78002320000001],[-78.7173828,35.77853379999999],[-78.7166908,35.7777826]],[[-78.7034241,35.7687791],[-78.7033276,35.768677700000005]],[[-78.7064573,35.77061769999999],[-78.7044078,35.7696102]],[[-78.7030687,35.76837759999999],[-78.7028097,35.768155]],[[-78.7044078,35.7696102],[-78.7034241,35.7687791]],[[-78.7165556,35.77764429999999],[-78.71608,35.777003500000006]],[[-78.7166908,35.7777826],[-78.7165556,35.77764429999999]],[[-78.7074312,35.771076699999995],[-78.7072854,35.771006]],[[-78.7072854,35.771006],[-78.7064573,35.77061769999999]],[[-78.7137157,35.775771],[-78.7134505,35.7757933],[-78.7132424,35.77548600000001]],[[-78.7132424,35.77548600000001],[-78.7127568,35.7750876]],[[-78.7127568,35.7750876],[-78.7114419,35.7745809]],[[-78.7114419,35.7745809],[-78.7111866,35.77445960000001]],[[-78.7028097,35.768155],[-78.7014639,35.7672474],[-78.7008234,35.766989300000006]],[[-78.7008234,35.766989300000006],[-78.7006285,35.766627099999994]],[[-78.7006285,35.766627099999994],[-78.7002736,35.7665247]],[[-78.7002736,35.7665247],[-78.70016980000001,35.7665246]]]},"properties":{"name":"Simmons Branch","kind":"stream"}},{"type":"Feature","geometry":{"type":"MultiLineString","coordinates":[[[-78.5345802,35.918064399999984],[-78.53471120000002,35.9173134],[-78.5345817,35.9150721],[-78.5358035,35.91223980000001],[-78.5367012,35.9107906],[-78.5374886,35.910131799999995],[-78.5381343,35.90993019999999],[-78.5388701,35.9092602]],[[-78.5388701,35.9092602],[-78.5390738,35.9091782]]]},"properties":{"name":"Smith Creek","kind":"stream"}},{"type":"Feature","geometry":{"type":"MultiLineString","coordinates":[[[-78.6651374,35.80535569999999],[-78.6654855,35.805892799999995],[-78.6654791,35.8063544],[-78.6648036,35.8069891],[-78.66496930000001,35.807355099999995],[-78.6643575,35.8076222],[-78.66377620000002,35.8083128],[-78.6642195,35.8097462],[-78.6641076,35.8103368]],[[-78.6670206,35.798832],[-78.6664084,35.800366499999996]],[[-78.6701263,35.793148900000006],[-78.6693751,35.7941137],[-78.669452,35.794494099999994],[-78.6692666,35.794640199999996]],[[-78.6692666,35.794640199999996],[-78.6691818,35.7948056]],[[-78.6612241,35.815609499999994],[-78.6609036,35.816269]],[[-78.6613004,35.8154942],[-78.6612241,35.815609499999994]],[[-78.6654849,35.8026319],[-78.6654279,35.8027614]],[[-78.6663341,35.80055529999999],[-78.6658516,35.80134880000001],[-78.6654849,35.8026319]],[[-78.6664084,35.800366499999996],[-78.6663341,35.80055529999999]],[[-78.6691818,35.7948056],[-78.6680493,35.7961153],[-78.6679778,35.79677389999999]],[[-78.6679778,35.79677389999999],[-78.66795,35.7969673]],[[-78.66795,35.7969673],[-78.6678082,35.797404799999995]],[[-78.6678082,35.797404799999995],[-78.6677573,35.797504999999994]],[[-78.6677573,35.797504999999994],[-78.6676693,35.797654]],[[-78.6676693,35.797654],[-78.6676172,35.797742400000004]],[[-78.6676172,35.797742400000004],[-78.6670206,35.798832]],[[-78.6654279,35.8027614],[-78.6650014,35.80409519999999],[-78.6651281,35.8052569]],[[-78.6651281,35.8052569],[-78.6651374,35.80535569999999]],[[-78.6640499,35.81043410000001],[-78.6628606,35.8120106],[-78.6624956,35.81330160000001],[-78.6613004,35.8154942]],[[-78.6641076,35.8103368],[-78.6640499,35.81043410000001]]]},"properties":{"name":"Southeast Prong Beaverdam Creek","kind":"stream"}},{"type":"Feature","geometry":{"type":"MultiLineString","coordinates":[[[-78.6686254,35.8151474],[-78.6676274,35.8151483],[-78.666428,35.81545189999999]],[[-78.6852523,35.797228499999996],[-78.68450990000001,35.7972968],[-78.683171,35.797723500000004],[-78.681037,35.79896670000001],[-78.6796213,35.7995325],[-78.6789266,35.79964770000001],[-78.6777599,35.8009336]],[[-78.6649241,35.8157397],[-78.6642421,35.8159222],[-78.6626967,35.8159932]],[[-78.6763637,35.802800500000004],[-78.6745427,35.80456920000001],[-78.6743267,35.805668],[-78.6739421,35.80655230000001],[-78.6736587,35.80873319999999],[-78.6737125,35.80947479999999],[-78.6731637,35.811415],[-78.6718173,35.8128679],[-78.6709414,35.81337680000001]],[[-78.6611491,35.8161714],[-78.6609036,35.816269]],[[-78.6612873,35.81612470000001],[-78.6611491,35.8161714]],[[-78.6709414,35.81337680000001],[-78.6705942,35.8134291]],[[-78.6705942,35.8134291],[-78.6698646,35.8138119],[-78.6692155,35.8147515],[-78.6686254,35.8151474]],[[-78.6775028,35.8011612],[-78.6763637,35.802800500000004]],[[-78.6777599,35.8009336],[-78.6775028,35.8011612]],[[-78.6625331,35.815947300000005],[-78.6624938,35.8159363],[-78.6622976,35.8159896],[-78.6620403,35.81599630000001],[-78.6612873,35.81612470000001]],[[-78.6626967,35.8159932],[-78.6625331,35.815947300000005]],[[-78.666428,35.81545189999999],[-78.6650904,35.81569540000001]],[[-78.6650904,35.81569540000001],[-78.6650013,35.81572129999999]],[[-78.6650013,35.81572129999999],[-78.6649241,35.8157397]]]},"properties":{"name":"Southwest Prong Beaverdam Creek","kind":"stream"}},{"type":"Feature","geometry":{"type":"MultiLineString","coordinates":[[[-78.7411539,35.7476857],[-78.7440919,35.7481211],[-78.7445698,35.7482786],[-78.7447072,35.748512500000004],[-78.7453923,35.74892669999999],[-78.7461242,35.74878840000001]],[[-78.7401833,35.7476776],[-78.740408,35.74766960000001]],[[-78.7390615,35.747748900000005],[-78.7401833,35.7476776]],[[-78.7405707,35.74769769999999],[-78.7407354,35.747704999999996]],[[-78.7407354,35.747704999999996],[-78.7411539,35.7476857]],[[-78.740408,35.74766960000001],[-78.7405707,35.74769769999999]]]},"properties":{"name":"Speight Branch","kind":"stream"}},{"type":"Feature","geometry":{"type":"LineString","coordinates":[[-78.6265876,35.8558217],[-78.6261995,35.8558792]]},"properties":{"name":"Stream to Big Branch","kind":"stream"}},{"type":"Feature","geometry":{"type":"MultiLineString","coordinates":[[[-78.7521721,35.8631509],[-78.7520489,35.8628733],[-78.7522978,35.862115100000004],[-78.7524265,35.860737799999995],[-78.7531647,35.8596804],[-78.7535766,35.8586926],[-78.75341360000002,35.85817089999999],[-78.7531904,35.8582892],[-78.7528986,35.8581987],[-78.752787,35.8573501],[-78.752993,35.85599359999999],[-78.7528385,35.85565269999999],[-78.751757,35.854908300000005],[-78.7489847,35.85451880000001],[-78.7458776,35.8533222],[-78.745603,35.853558799999995],[-78.7453197,35.854393599999995],[-78.7453499,35.8553344],[-78.745189,35.855899199999996],[-78.74447,35.856473599999994],[-78.743852,35.85643879999999],[-78.7434658,35.8556121],[-78.7430281,35.85507530000001],[-78.7426504,35.8549362],[-78.7415029,35.855886399999996],[-78.7405354,35.8564377],[-78.7394598,35.85746879999999],[-78.7381357,35.85735700000001],[-78.7380499,35.85758659999999],[-78.73699420000001,35.8576214],[-78.736565,35.85745439999999],[-78.7360672,35.8578231],[-78.7355951,35.85746830000001],[-78.7340244,35.8570509],[-78.7329172,35.85691880000001],[-78.73173270000001,35.856084],[-78.7318357,35.8537396],[-78.7316812,35.8536353],[-78.7290291,35.854310100000006],[-78.7279905,35.85365609999999],[-78.7261108,35.85328049999998],[-78.7259477,35.8530996],[-78.7259907,35.852647399999995],[-78.7263683,35.85232739999999],[-78.7262567,35.85199349999999],[-78.7267546,35.85171520000001],[-78.7269348,35.8508178],[-78.7264284,35.8504143],[-78.7264885,35.84998290000001],[-78.7260937,35.849982899999986],[-78.7257761,35.84973250000001],[-78.7257418,35.84945419999999],[-78.7259821,35.8492594],[-78.7258705,35.84880720000001],[-78.7260164,35.84861930000001],[-78.726746,35.8485289],[-78.7270292,35.8482993],[-78.7270646,35.8477506],[-78.7259468,35.8470389],[-78.7257933,35.8459199],[-78.7247548,35.8453539]],[[-78.7644392,35.9050875],[-78.7648526,35.904295700000006],[-78.7648452,35.902821]],[[-78.75841710000002,35.91953870000001],[-78.7586409,35.9190664],[-78.7590593,35.91879190000001],[-78.7592288,35.9181327]],[[-78.7626443,35.909877599999994],[-78.7627178,35.90929189999999],[-78.7635006,35.90893989999999]],[[-78.7611502,35.913096100000004],[-78.7613666,35.91227229999999],[-78.7621334,35.9114263]],[[-78.7583691,35.92161949999999],[-78.7584498,35.9211208],[-78.758275,35.92082400000001],[-78.758383,35.92054399999999],[-78.7586054,35.9205001],[-78.7587751,35.91981359999999],[-78.75841710000002,35.91953870000001]],[[-78.7622744,35.910574],[-78.7624215,35.9100478],[-78.7626443,35.909877599999994]],[[-78.764996,35.9015733],[-78.7656253,35.90072140000001]],[[-78.7542861,35.92640920000001],[-78.7546846,35.92585989999999],[-78.7560157,35.92474539999999],[-78.7560902,35.9243774],[-78.7565633,35.9239836],[-78.757372,35.9227189]],[[-78.7596893,35.9155786],[-78.7592848,35.91536949999998],[-78.7596901,35.914842300000004],[-78.760075,35.9146668],[-78.7602578,35.91418350000001],[-78.7600221,35.9138317],[-78.7611502,35.913096100000004]],[[-78.7485269,35.937216299999996],[-78.7483555,35.9348388]],[[-78.7537577,35.92752389999999],[-78.7542861,35.92640920000001]],[[-78.7592288,35.9181327],[-78.7592497,35.91762750000001],[-78.7589798,35.9171163]],[[-78.7589798,35.9171163],[-78.7590947,35.9164352],[-78.7596893,35.9155786]],[[-78.7497206,35.9329757],[-78.750992,35.9320986],[-78.7511619,35.93134059999999],[-78.7522436,35.92936360000001],[-78.7530486,35.9281828],[-78.7537577,35.92752389999999]],[[-78.7649559,35.902167600000006],[-78.764996,35.9015733]],[[-78.7635006,35.90893989999999],[-78.7630685,35.908083700000006]],[[-78.7630685,35.908083700000006],[-78.7639911,35.9075071],[-78.7639089,35.90720280000001],[-78.7643554,35.906049499999995]],[[-78.7648452,35.902821],[-78.7648505,35.9024789]],[[-78.7656253,35.90072140000001],[-78.7677499,35.89753579999999],[-78.767838,35.896986600000005],[-78.7673563,35.89611519999998]],[[-78.7648505,35.9024789],[-78.7649559,35.902167600000006]],[[-78.7621334,35.9114263],[-78.7622285,35.9111965]],[[-78.7622285,35.9111965],[-78.7622744,35.910574]],[[-78.7693655,35.8857017],[-78.7692322,35.88636679999999],[-78.7689232,35.886492],[-78.7689833,35.8874725],[-78.7686364,35.88847810000001]],[[-78.7686364,35.88847810000001],[-78.7686184,35.8886519]],[[-78.7686184,35.8886519],[-78.7682451,35.89042080000001],[-78.7683138,35.890601600000004],[-78.7684597,35.89042769999999],[-78.7689575,35.8905529],[-78.7687343,35.891144],[-78.7684597,35.8945858],[-78.7680992,35.8953785],[-78.7673563,35.89611519999998]],[[-78.7673563,35.89611519999998],[-78.7671894,35.896268499999984]],[[-78.7581885,35.921818800000004],[-78.7583691,35.92161949999999]],[[-78.757372,35.9227189],[-78.7581885,35.921818800000004]],[[-78.7643554,35.906049499999995],[-78.7644392,35.9050875]],[[-78.7483367,35.9347292],[-78.7488729,35.933547799999985],[-78.7497206,35.9329757]],[[-78.7483555,35.9348388],[-78.7483367,35.9347292]]]},"properties":{"name":"Sycamore Creek","kind":"stream"}},{"type":"Feature","geometry":{"type":"MultiLineString","coordinates":[[[-78.5260273,35.9103279],[-78.5273049,35.909021],[-78.5276297,35.907472199999994],[-78.52921,35.9060225]],[[-78.5314171,35.90488589999998],[-78.5321989,35.904779199999986],[-78.5350975,35.9053483],[-78.5352589,35.90515799999999],[-78.5351444,35.9047239],[-78.5353727,35.90449789999999]],[[-78.52921,35.9060225],[-78.5303039,35.9053361],[-78.5314171,35.90488589999998]]]},"properties":{"name":"Toms Creek","kind":"stream"}},{"type":"Feature","geometry":{"type":"MultiLineString","coordinates":[[[-78.7316896,35.87937809999999],[-78.7326829,35.8784493],[-78.7320735,35.878010200000006],[-78.7320903,35.87764030000001]],[[-78.7249057,35.8596206],[-78.7257693,35.8582196],[-78.7258127,35.85730199999999],[-78.7255587,35.8571028],[-78.7248442,35.8569578],[-78.7243942,35.8566174],[-78.723069,35.85620959999999],[-78.7228329,35.8560668],[-78.722723,35.8557287]],[[-78.7311575,35.866425],[-78.7298815,35.8643049],[-78.7285179,35.863354900000004],[-78.726695,35.86277330000001],[-78.7254872,35.86181239999999]],[[-78.7333693,35.87484030000001],[-78.7333612,35.8744147]],[[-78.7320568,35.8698965],[-78.7308685,35.8684357],[-78.7311575,35.866425]],[[-78.7329771,35.876641899999996],[-78.732835,35.87588939999999],[-78.733288,35.875147999999996]],[[-78.733288,35.875147999999996],[-78.73347,35.8749446],[-78.7333693,35.87484030000001]],[[-78.7342847,35.890181199999994],[-78.7335917,35.8890459],[-78.7323492,35.888183899999994]],[[-78.7254872,35.86181239999999],[-78.7250668,35.8610882],[-78.7252437,35.86054339999998],[-78.7249057,35.8596206]],[[-78.722723,35.8557287],[-78.7224739,35.8556067],[-78.7225373,35.855352599999996],[-78.7230501,35.8549837],[-78.72352040000001,35.8547264],[-78.7246361,35.8546066],[-78.7248908,35.853549699999995],[-78.7243154,35.85211120000001],[-78.7228237,35.85185409999998],[-78.7229845,35.85141089999999],[-78.7235617,35.8508729],[-78.72360120000002,35.85065680000001],[-78.7229347,35.8484518],[-78.7233268,35.848128499999994],[-78.7251236,35.84788979999999],[-78.7255633,35.84727989999999],[-78.7259468,35.8470389]],[[-78.7333612,35.8744147],[-78.7333685,35.8743697]],[[-78.7326864,35.887332300000004],[-78.7326256,35.8866677],[-78.7324617,35.886445],[-78.7320053,35.88633370000001],[-78.7318168,35.8859054],[-78.7322908,35.88558139999999],[-78.7324467,35.8846664]],[[-78.734453,35.8923159],[-78.7344299,35.891413099999994],[-78.7346595,35.8908583],[-78.7342961,35.890346300000004]],[[-78.7327698,35.8875483],[-78.7326864,35.887332300000004]],[[-78.7342961,35.890346300000004],[-78.7342847,35.890181199999994]],[[-78.7323492,35.888183899999994],[-78.7327698,35.8875483]],[[-78.7333685,35.8743697],[-78.7333842,35.874280600000006]],[[-78.7324975,35.87724550000001],[-78.7325861,35.87685640000001],[-78.7329771,35.876641899999996]],[[-78.7320903,35.87764030000001],[-78.7324975,35.87724550000001]]]},"properties":{"name":"Turkey Creek","kind":"stream"}},{"type":"Feature","geometry":{"type":"MultiLineString","coordinates":[[[-78.7373552,35.9220427],[-78.7369334,35.92237839999999]],[[-78.7369334,35.92237839999999],[-78.7369813,35.92319139999999],[-78.7366302,35.92402680000001],[-78.736556,35.9246913],[-78.7360163,35.92538369999998],[-78.7355572,35.9255927],[-78.7339165,35.9258021],[-78.7327011,35.9265935],[-78.731391,35.92713239999999],[-78.7305871,35.92709419999999],[-78.7301079,35.9272592]]]},"properties":{"name":"Upper Barton Creek","kind":"stream"}},{"type":"Feature","geometry":{"type":"MultiLineString","coordinates":[[[-78.5682423,35.745764399999985],[-78.5666332,35.74673030000001],[-78.5657326,35.74710240000001],[-78.5636956,35.7468104],[-78.5634516,35.746874899999995],[-78.5631599,35.74745479999999],[-78.5624334,35.74711030000001],[-78.5614746,35.7473837],[-78.5611082,35.7477689],[-78.5605154,35.7479972],[-78.5587898,35.7482508]],[[-78.6025351,35.76255140000001],[-78.6023279,35.7624144]],[[-78.6023279,35.7624144],[-78.6021142,35.76224380000001],[-78.6021103,35.7613572],[-78.6014037,35.7613626],[-78.6014078,35.7610037],[-78.6008924,35.760893499999995],[-78.6009199,35.76053579999999],[-78.6006117,35.7601577],[-78.5995748,35.76029909999998],[-78.5989092,35.760015199999984],[-78.59880950000002,35.75960709999999],[-78.59835420000002,35.759543199999996],[-78.5985041,35.75906930000001],[-78.5979373,35.7582256]],[[-78.5874778,35.759639899999996],[-78.5861509,35.76044220000001],[-78.5854636,35.7604807],[-78.5850055,35.7601896]],[[-78.6384149,35.7572194],[-78.6378634,35.75698839999998],[-78.6377614,35.756634299999995],[-78.6374753,35.75642920000001],[-78.63678680000001,35.7562727],[-78.6363169,35.75635059999999]],[[-78.7050313,35.76174220000001],[-78.70423340000002,35.76220399999999],[-78.7025872,35.76167],[-78.7010231,35.7614244],[-78.6985712,35.7618421]],[[-78.5850055,35.7601896],[-78.5844654,35.7593054],[-78.5838053,35.758783799999996],[-78.5830167,35.75838280000001],[-78.58262,35.75833899999999],[-78.5814263,35.7573229],[-78.580395,35.75680599999999],[-78.580321,35.756389000000006],[-78.5797536,35.756436900000004]],[[-78.6235456,35.757957],[-78.6226029,35.7577764],[-78.6203454,35.7579463],[-78.6185057,35.7578647]],[[-78.6084397,35.762995800000006],[-78.6075169,35.76272689999999],[-78.6049954,35.76272779999999]],[[-78.7283461,35.770158399999985],[-78.7279679,35.7701807],[-78.7270817,35.769921499999995],[-78.7257715,35.7699863]],[[-78.6049954,35.76272779999999],[-78.6033917,35.76290409999999],[-78.6029801,35.7625416],[-78.6025351,35.76255140000001]],[[-78.6589004,35.759158],[-78.6586689,35.7590438],[-78.6575938,35.7593171],[-78.6560628,35.75901329999999],[-78.6555678,35.7584149],[-78.6552303,35.758326699999984],[-78.6544608,35.7575301],[-78.6540904,35.7574035],[-78.6531445,35.7559067],[-78.6525232,35.7556389],[-78.6524759,35.7554795]],[[-78.5587898,35.7482508],[-78.5573818,35.74880599999999],[-78.5551477,35.749419499999995],[-78.55453310000001,35.7493772],[-78.5536415,35.7496066],[-78.5509447,35.749469000000005],[-78.550631,35.7499873],[-78.5501649,35.750013800000005],[-78.549917,35.7503891],[-78.549574,35.750425],[-78.5493786,35.750700200000004],[-78.5490999,35.750442299999996],[-78.5478887,35.7499863],[-78.5475455,35.750095999999985],[-78.5472893,35.75038059999999],[-78.5462687,35.750371699999995]],[[-78.5725602,35.7474094],[-78.571842,35.7471867],[-78.571784,35.746992600000006],[-78.5711365,35.74670749999999],[-78.57088700000001,35.746327799999996],[-78.569791,35.746472999999995],[-78.56949980000002,35.746376700000006],[-78.5688093,35.7456661],[-78.5684297,35.7458705],[-78.5682423,35.745764399999985]],[[-78.722962,35.769223399999994],[-78.722382,35.7687062],[-78.7223,35.7679964]],[[-78.5979373,35.7582256],[-78.59770800000001,35.757549999999995],[-78.596623,35.757028],[-78.596002,35.756452]],[[-78.5747559,35.7530098],[-78.5742118,35.75248989999999],[-78.5745099,35.752361199999996],[-78.5744488,35.7520266],[-78.5739351,35.75194070000001],[-78.5737291,35.7514462],[-78.5735399,35.7516233],[-78.5731668,35.75146410000001],[-78.5731563,35.7507346],[-78.5726499,35.750301199999996],[-78.572577,35.7500322],[-78.5722045,35.75007230000001],[-78.5718571,35.7497642],[-78.5718136,35.749630999999994],[-78.5723635,35.7490837],[-78.5723089,35.74859479999999],[-78.5720248,35.7482103],[-78.5727785,35.7477839],[-78.5725602,35.7474094]],[[-78.596002,35.756452],[-78.595004,35.7563905]],[[-78.6287948,35.7576457],[-78.6244774,35.75780579999999],[-78.6235456,35.757957]],[[-78.757883,35.7846876],[-78.7574575,35.78460889999999],[-78.7561502,35.78294919999999],[-78.753475,35.7812724],[-78.7531255,35.7802668],[-78.7525598,35.779629400000005],[-78.7523916,35.779014],[-78.7525004,35.7780526],[-78.7522762,35.7776629],[-78.7515466,35.77728689999999],[-78.7515295,35.776743800000006],[-78.7512462,35.77656270000001],[-78.75077420000001,35.77664629999999],[-78.7505338,35.7760474],[-78.7500618,35.7762981],[-78.7494352,35.7761031],[-78.7483623,35.77632589999999],[-78.74684650000002,35.7757104]],[[-78.6524759,35.7554795],[-78.6513799,35.75486109999999],[-78.6507423,35.7542145],[-78.6492937,35.754200600000004]],[[-78.6347002,35.7566293],[-78.6335005,35.7569092],[-78.6328874,35.7572276],[-78.6325898,35.757157400000004],[-78.6314985,35.75750200000001],[-78.6287948,35.7576457]],[[-78.576499,35.75346699999999],[-78.5758943,35.753520900000005],[-78.5747559,35.7530098]],[[-78.6890888,35.769342300000005],[-78.688778,35.7695718],[-78.6873356,35.7694949],[-78.6860556,35.7683797],[-78.68579870000002,35.76797309999999]],[[-78.6185057,35.7578647],[-78.6180479,35.7588992]],[[-78.5320621,35.7508822],[-78.5317019,35.7508189]],[[-78.667388,35.7605958],[-78.6651528,35.75926830000001],[-78.6649477,35.75901339999999],[-78.6643289,35.75880649999999]],[[-78.6720357,35.7622051],[-78.6691526,35.76169269999999],[-78.667388,35.7605958]],[[-78.6125914,35.7631807],[-78.6106975,35.7637804],[-78.60959930000001,35.7633195],[-78.6090199,35.762781299999986],[-78.6087435,35.76276489999999],[-78.6084397,35.762995800000006]],[[-78.6749597,35.762738899999995],[-78.674467,35.7626735]],[[-78.7367517,35.77290159999999],[-78.7363781,35.7725953],[-78.7360317,35.7719797],[-78.7355286,35.76998579999999],[-78.7355087,35.76965959999999],[-78.7357515,35.7693561],[-78.7348636,35.76917829999999],[-78.7345936,35.7688764],[-78.733717,35.76871189999999],[-78.7331849,35.7688714],[-78.7319898,35.768507799999995],[-78.731624,35.7685672],[-78.7291807,35.7692464],[-78.7283461,35.770158399999985]],[[-78.6973579,35.7634023],[-78.6968257,35.763765000000014],[-78.6965229,35.76507229999999],[-78.6962395,35.7652757]],[[-78.762492,35.78653039999998],[-78.7611845,35.7858245],[-78.7602275,35.78564839999999],[-78.7599499,35.7852792],[-78.7595591,35.785102300000005],[-78.757883,35.7846876]],[[-78.5426292,35.74869640000001],[-78.5417689,35.7479997],[-78.5412317,35.748156200000004],[-78.54106370000001,35.7485188],[-78.5402886,35.748661199999994],[-78.5399452,35.7486342],[-78.5399181,35.748409599999995],[-78.5395201,35.7482054],[-78.5393027,35.7478342],[-78.538651,35.7482607],[-78.53821940000002,35.748225299999994],[-78.5377889,35.7484213],[-78.5375234,35.74842930000001],[-78.5371972,35.7482208],[-78.5370196,35.7486095],[-78.5367248,35.7487211],[-78.5369588,35.7490875],[-78.5350356,35.74939200000001],[-78.5343105,35.74928789999999],[-78.5338153,35.74979319999999],[-78.5338792,35.7505566],[-78.533733,35.75082770000001],[-78.5328214,35.75097600000001],[-78.5320621,35.7508822]],[[-78.6768813,35.76521769999998],[-78.6753502,35.76375769999999],[-78.6754696,35.76297619999999],[-78.6752714,35.76277669999999],[-78.6749597,35.762738899999995]],[[-78.74524030000002,35.77340939999999],[-78.7445793,35.7727835],[-78.7428801,35.7721525],[-78.7417809,35.7719827]],[[-78.595004,35.7563905],[-78.594136,35.75698],[-78.591696,35.75715600000001],[-78.590814,35.75741999999999],[-78.5897294,35.75899669999998],[-78.5883946,35.75916739999999],[-78.5874778,35.759639899999996]],[[-78.74684650000002,35.7757104],[-78.7457942,35.77510110000001],[-78.74524030000002,35.77340939999999]],[[-78.7402202,35.77220559999999],[-78.7370553,35.77302559999999]],[[-78.6962395,35.7652757],[-78.6944928,35.7656804]],[[-78.6139195,35.76218719999999],[-78.61317060000002,35.762471899999994],[-78.6134877,35.76279590000001],[-78.6134407,35.7629278],[-78.6125914,35.7631807]],[[-78.6638971,35.7585507],[-78.662238,35.75827029999999],[-78.6594819,35.75885759999999],[-78.6589004,35.759158]],[[-78.6643289,35.75880649999999],[-78.6638971,35.7585507]],[[-78.6457154,35.75384210000001],[-78.6448925,35.75445869999999],[-78.6447386,35.75657419999999],[-78.6445547,35.75690149999999],[-78.6441094,35.7569882],[-78.643692,35.75674059999999],[-78.6407872,35.7569697]],[[-78.6488216,35.7542137],[-78.64747,35.75386100000001],[-78.6457154,35.75384210000001]],[[-78.6492937,35.754200600000004],[-78.6488216,35.7542137]],[[-78.6910189,35.768144],[-78.6905984,35.7683361],[-78.6901913,35.769035900000006],[-78.6887202,35.769237],[-78.6883072,35.76915429999999],[-78.6873925,35.7685014],[-78.6868588,35.7685928],[-78.6869044,35.7680988],[-78.6859139,35.767852299999994]],[[-78.674467,35.7626735],[-78.6720357,35.7622051]],[[-78.6404332,35.75689320000001],[-78.63997230000001,35.7567843],[-78.639609,35.7572013],[-78.6392185,35.75708929999999],[-78.6384149,35.7572194]],[[-78.6407872,35.7569697],[-78.6404332,35.75689320000001]],[[-78.7417809,35.7719827],[-78.7402202,35.77220559999999]],[[-78.5780988,35.756889799999996],[-78.5776331,35.75644989999999]],[[-78.5781745,35.7570315],[-78.5780988,35.756889799999996]],[[-78.5776331,35.75644989999999],[-78.5771966,35.755825800000004],[-78.5769579,35.7548055],[-78.5764144,35.7544034],[-78.57682040000002,35.75365879999999],[-78.576499,35.75346699999999]],[[-78.577169,35.753247],[-78.576499,35.75346699999999]],[[-78.5797536,35.756436900000004],[-78.5794717,35.7566639],[-78.5781745,35.7570315]],[[-78.6143433,35.762107599999986],[-78.6139195,35.76218719999999]],[[-78.6180479,35.7588992],[-78.6177992,35.7600254],[-78.6171932,35.7608882],[-78.6158675,35.76188090000001],[-78.6154863,35.7618188],[-78.6143433,35.762107599999986]],[[-78.5462687,35.750371699999995],[-78.5455283,35.75020479999999],[-78.5452305,35.750340499999986],[-78.54458880000001,35.7501],[-78.5442471,35.7496737],[-78.5433281,35.7494063],[-78.542912,35.74880069999998],[-78.5426292,35.74869640000001]],[[-78.6941722,35.765563199999995],[-78.6938968,35.7655155],[-78.693122,35.7657419],[-78.6925863,35.7667471],[-78.6928641,35.767009599999994],[-78.6928561,35.767253399999994],[-78.6919627,35.767796999999995],[-78.6910189,35.768144]],[[-78.6944928,35.7656804],[-78.6941722,35.765563199999995]],[[-78.7370553,35.77302559999999],[-78.7367517,35.77290159999999]],[[-78.6363169,35.75635059999999],[-78.635814,35.7564028]],[[-78.635814,35.7564028],[-78.6347002,35.7566293]]]},"properties":{"name":"Walnut Creek","kind":"stream"}},{"type":"Feature","geometry":{"type":"MultiLineString","coordinates":[[[-78.6397908,35.74466],[-78.6398199,35.745299499999994],[-78.6388796,35.7471051]],[[-78.6365074,35.7309892],[-78.6361435,35.73171959999999],[-78.6361764,35.73224699999999],[-78.6373477,35.734181499999984]],[[-78.6401326,35.7398515],[-78.6400701,35.7423338]],[[-78.6375849,35.7349195],[-78.6376369,35.73508489999999]],[[-78.6376369,35.73508489999999],[-78.6384976,35.7364724],[-78.6401326,35.7398515]],[[-78.6372366,35.7496733],[-78.6371896,35.7498652]],[[-78.6389388,35.7474461],[-78.63903360000002,35.74778369999999],[-78.6388434,35.74827160000001],[-78.6385903,35.74816119999999],[-78.6385119,35.7483181],[-78.637944,35.74848600000001],[-78.6378375,35.74881659999999],[-78.6373237,35.749295499999995],[-78.6372366,35.7496733]],[[-78.63736990000001,35.734343599999995],[-78.6375849,35.7349195]],[[-78.6373477,35.734181499999984],[-78.63736990000001,35.734343599999995]],[[-78.6398438,35.7427984],[-78.639709,35.7439796]],[[-78.6364235,35.73055339999999],[-78.6365074,35.7309892]],[[-78.6400701,35.7423338],[-78.6398438,35.7427984]],[[-78.639709,35.7439796],[-78.6397908,35.74466]],[[-78.6388796,35.7471051],[-78.6389388,35.7474461]]]},"properties":{"name":"Wildcat Branch","kind":"stream"}}]}