{"type":"FeatureCollection","features":[{"type":"Feature","properties":{"step":1},"geometry":{"type":"MultiPolygon","coordinates":[[[[-122.51166,37.76954],[-122.51146,37.76887],[-122.51209,37.76837],[-122.51189,37.7677],[-122.51252,37.76719],[-122.51232,37.76652],[-122.51147,37.76636],[-122.51126,37.76569],[-122.5119,37.76518],[-122.5117,37.76451],[-122.51233,37.764],[-122.51213,37.76333],[-122.51276,37.76283],[-122.51256,37.76216],[-122.51171,37.76199],[-122.5115,37.76132],[-122.51214,37.76082],[-122.51193,37.76015],[-122.51109,37.75998],[-122.51088,37.75931],[-122.51152,37.75881],[-122.51131,37.75814],[-122.51047,37.75797],[-122.51026,37.7573],[-122.5109,37.7568],[-122.51069,37.75613],[-122.51133,37.75562],[-122.51112,37.75495],[-122.51028,37.75479],[-122.51007,37.75412],[-122.51071,37.75361],[-122.5105,37.75294],[-122.50965,37.75278],[-122.50945,37.75211],[-122.51009,37.7516],[-122.50988,37.75093],[-122.51052,37.75042],[-122.51031,37.74975],[-122.50946,37.74959],[-122.50926,37.74892],[-122.50989,37.74841],[-122.50969,37.74774],[-122.50884,37.74758],[-122.50863,37.74691],[-122.50927,37.7464],[-122.50907,37.74573],[-122.5097,37.74523],[-122.5095,37.74456],[-122.50865,37.74439],[-122.50844,37.74372],[-122.50908,37.74322],[-122.50887,37.74255],[-122.50803,37.74238],[-122.50782,37.74171],[-122.50846,37.74121],[-122.50825,37.74054],[-122.50889,37.74003],[-122.50868,37.73936],[-122.50784,37.7392],[-122.50763,37.73853],[-122.50827,37.73802],[-122.50806,37.73735],[-122.5087,37.73684],[-122.50849,37.73617],[-122.50765,37.73601],[-122.50744,37.73534],[-122.5066,37.73517],[-122.50639,37.7345],[-122.50703,37.734],[-122.50682,37.73333],[-122.50746,37.73282],[-122.50725,37.73215],[-122.50789,37.73164],[-122.50768,37.73097],[-122.50832,37.73047],[-122.50811,37.7298],[-122.50727,37.72963],[-122.50706,37.72896],[-122.50621,37.7288],[-122.50601,37.72813],[-122.50664,37.72762],[-122.50749,37.72779],[-122.50813,37.72728],[-122.50792,37.72661],[-122.50708,37.72645],[-122.50687,37.72578],[-122.50602,37.72561],[-122.50539,37.72612],[-122.50559,37.72679],[-122.50495,37.7273],[-122.50516,37.72797],[-122.50452,37.72847],[-122.50473,37.72914],[-122.50409,37.72965],[-122.5043,37.73032],[-122.50366,37.73083],[-122.50282,37.73066],[-122.50261,37.72999],[-122.50176,37.72983],[-122.50113,37.73034],[-122.50028,37.73017],[-122.49964,37.73068],[-122.4988,37.73052],[-122.49816,37.73102],[-122.49837,37.73169],[-122.49773,37.7322],[-122.49794,37.73287],[-122.4973,37.73338],[-122.49645,37.73321],[-122.49625,37.73254],[-122.4954,37.73238],[-122.49476,37.73288],[-122.49392,37.73272],[-122.49371,37.73205],[-122.49286,37.73189],[-122.49223,37.73239],[-122.49243,37.73306],[-122.49179,37.73357],[-122.49095,37.73341],[-122.49031,37.73391],[-122.49052,37.73458],[-122.48988,37.73509],[-122.49009,37.73576],[-122.49093,37.73592],[-122.49114,37.73659],[-122.4905,37.7371],[-122.49071,37.73777],[-122.49007,37.73828],[-122.49028,37.73895],[-122.48964,37.73945],[-122.48985,37.74012],[-122.48921,37.74063],[-122.48942,37.7413],[-122.49026,37.74146],[-122.49047,37.74214],[-122.48983,37.74264],[-122.49004,37.74331],[-122.4894,37.74382],[-122.48961,37.74449],[-122.49045,37.74465],[-122.49066,37.74532],[-122.49002,37.74583],[-122.49023,37.7465],[-122.48959,37.74701],[-122.4898,37.74768],[-122.49064,37.74784],[-122.49085,37.74851],[-122.49169,37.74867],[-122.4919,37.74934],[-122.49126,37.74985],[-122.49147,37.75052],[-122.49232,37.75068],[-122.49252,37.75135],[-122.49188,37.75186],[-122.49209,37.75253],[-122.49294,37.75269],[-122.49314,37.75336],[-122.49399,37.75353],[-122.4942,37.7542],[-122.49356,37.7547],[-122.49377,37.75537],[-122.49313,37.75588],[-122.49333,37.75655],[-122.49418,37.75671],[-122.49439,37.75738],[-122.49523,37.75755],[-122.49544,37.75822],[-122.4948,37.75872],[-122.49501,37.75939],[-122.49585,37.75956],[-122.49606,37.76023],[-122.49691,37.76039],[-122.49711,37.76106],[-122.49796,37.76122],[-122.49817,37.7619],[-122.49753,37.7624],[-122.49774,37.76307],[-122.49858,37.76324],[-122.49879,37.76391],[-122.49963,37.76407],[-122.49984,37.76474],[-122.50069,37.7649],[-122.50089,37.76557],[-122.50026,37.76608],[-122.50046,37.76675],[-122.50131,37.76691],[-122.50152,37.76758],[-122.50236,37.76775],[-122.50257,37.76842],[-122.50341,37.76858],[-122.50362,37.76925],[-122.50298,37.76976],[-122.50319,37.77043],[-122.50404,37.77059],[-122.50424,37.77126],[-122.50509,37.77142],[-122.5053,37.77209],[-122.50614,37.77226],[-122.50635,37.77293],[-122.50719,37.77309],[-122.5074,37.77376],[-122.50825,37.77392],[-122.50846,37.77459],[-122.5093,37.77476],[-122.50994,37.77425],[-122.51078,37.77441],[-122.51099,37.77508],[-122.51184,37.77525],[-122.51248,37.77474],[-122.51227,37.77407],[-122.51291,37.77356],[-122.5127,37.77289],[-122.51185,37.77273],[-122.51165,37.77206],[-122.51228,37.77155],[-122.51208,37.77088],[-122.51272,37.77038],[-122.51251,37.76971],[-122.51166,37.76954]]],[[[-122.49448,37.7114],[-122.49469,37.71208],[-122.49405,37.71258],[-122.49426,37.71325],[-122.4951,37.71342],[-122.49531,37.71409],[-122.49615,37.71425],[-122.49636,37.71492],[-122.49572,37.71543],[-122.49593,37.7161],[-122.49678,37.71626],[-122.49741,37.71575],[-122.49826,37.71592],[-122.49847,37.71659],[-122.49931,37.71675],[-122.49952,37.71742],[-122.50036,37.71759],[-122.50057,37.71826],[-122.50142,37.71842],[-122.50205,37.71791],[-122.5029,37.71808],[-122.50311,37.71875],[-122.50395,37.71891],[-122.50459,37.7184],[-122.50543,37.71857],[-122.50607,37.71806],[-122.50587,37.71739],[-122.50502,37.71723],[-122.50438,37.71773],[-122.50354,37.71757],[-122.50333,37.7169],[-122.50397,37.71639],[-122.50481,37.71656],[-122.50545,37.71605],[-122.50524,37.71538],[-122.5044,37.71522],[-122.50376,37.71572],[-122.50292,37.71556],[-122.50271,37.71489],[-122.50335,37.71438],[-122.50419,37.71455],[-122.50483,37.71404],[-122.50462,37.71337],[-122.50378,37.71321],[-122.50314,37.71371],[-122.50229,37.71355],[-122.50209,37.71288],[-122.50124,37.71271],[-122.50103,37.71204],[-122.50019,37.71188],[-122.49998,37.71121],[-122.50062,37.7107],[-122.50041,37.71003],[-122.49957,37.70987],[-122.49936,37.7092],[-122.49852,37.70904],[-122.49831,37.70837],[-122.49746,37.7082],[-122.49683,37.70871],[-122.49598,37.70854],[-122.49577,37.70787],[-122.49493,37.70771],[-122.49429,37.70822],[-122.49345,37.70805],[-122.49281,37.70856],[-122.49301,37.70923],[-122.49238,37.70974],[-122.49258,37.71041],[-122.49343,37.71057],[-122.49364,37.71124],[-122.49448,37.7114]]],[[[-122.48582,37.7091],[-122.48646,37.70859],[-122.48625,37.70792],[-122.48541,37.70776],[-122.48477,37.70826],[-122.48498,37.70893],[-122.48582,37.7091]]],[[[-122.50295,37.71052],[-122.50359,37.71002],[-122.50338,37.70935],[-122.50253,37.70918],[-122.5019,37.70969],[-122.5021,37.71036],[-122.50295,37.71052]]],[[[-122.50606,37.72058],[-122.50669,37.72007],[-122.50649,37.7194],[-122.50564,37.71924],[-122.505,37.71974],[-122.50521,37.72041],[-122.50606,37.72058]]],[[[-122.50668,37.72259],[-122.50732,37.72208],[-122.50711,37.72141],[-122.50626,37.72125],[-122.50563,37.72176],[-122.50583,37.72243],[-122.50668,37.72259]]]]}},{"type":"Feature","properties":{"step":2},"geometry":{"type":"MultiPolygon","coordinates":[[[[-122.47786,37.76049],[-122.47806,37.76116],[-122.47743,37.76166],[-122.47763,37.76233],[-122.47848,37.7625],[-122.47869,37.76317],[-122.47953,37.76333],[-122.47974,37.764],[-122.4791,37.76451],[-122.47931,37.76518],[-122.48015,37.76534],[-122.48036,37.76601],[-122.48121,37.76617],[-122.48141,37.76684],[-122.48077,37.76735],[-122.48098,37.76802],[-122.48183,37.76818],[-122.48203,37.76885],[-122.48288,37.76902],[-122.48309,37.76969],[-122.48393,37.76985],[-122.48414,37.77052],[-122.48499,37.77069],[-122.48519,37.77136],[-122.48455,37.77186],[-122.48476,37.77253],[-122.48561,37.7727],[-122.48581,37.77337],[-122.48666,37.77353],[-122.48687,37.7742],[-122.48771,37.77436],[-122.48792,37.77503],[-122.48877,37.7752],[-122.48897,37.77587],[-122.48982,37.77603],[-122.49003,37.7767],[-122.49087,37.77686],[-122.49108,37.77753],[-122.49192,37.7777],[-122.49213,37.77837],[-122.49149,37.77887],[-122.4917,37.77954],[-122.49255,37.77971],[-122.49275,37.78038],[-122.4936,37.78054],[-122.49381,37.78121],[-122.49465,37.78137],[-122.49486,37.78204],[-122.4957,37.78221],[-122.49591,37.78288],[-122.49676,37.78304],[-122.4974,37.78253],[-122.49824,37.7827],[-122.49888,37.78219],[-122.49973,37.78235],[-122.50036,37.78185],[-122.50121,37.78201],[-122.50185,37.7815],[-122.50269,37.78167],[-122.50333,37.78116],[-122.50418,37.78132],[-122.50482,37.78082],[-122.50566,37.78098],[-122.50587,37.78165],[-122.50671,37.78181],[-122.50735,37.78131],[-122.5082,37.78147],[-122.50884,37.78096],[-122.50968,37.78113],[-122.51032,37.78062],[-122.51117,37.78078],[-122.5118,37.78028],[-122.51265,37.78044],[-122.51329,37.77993],[-122.51308,37.77926],[-122.51372,37.77876],[-122.51351,37.77809],[-122.51267,37.77792],[-122.51246,37.77725],[-122.5131,37.77675],[-122.51289,37.77608],[-122.51204,37.77592],[-122.51184,37.77525],[-122.51099,37.77508],[-122.51035,37.77559],[-122.50951,37.77543],[-122.5093,37.77476],[-122.50846,37.77459],[-122.50825,37.77392],[-122.5074,37.77376],[-122.50719,37.77309],[-122.50635,37.77293],[-122.50614,37.77226],[-122.5053,37.77209],[-122.50509,37.77142],[-122.50424,37.77126],[-122.50404,37.77059],[-122.50319,37.77043],[-122.50298,37.76976],[-122.50362,37.76925],[-122.50341,37.76858],[-122.50257,37.76842],[-122.50236,37.76775],[-122.50152,37.76758],[-122.50131,37.76691],[-122.50046,37.76675],[-122.50026,37.76608],[-122.50089,37.76557],[-122.50069,37.7649],[-122.49984,37.76474],[-122.49963,37.76407],[-122.49879,37.76391],[-122.49858,37.76324],[-122.49774,37.76307],[-122.49753,37.7624],[-122.49817,37.7619],[-122.49796,37.76122],[-122.49711,37.76106],[-122.49691,37.76039],[-122.49606,37.76023],[-122.49585,37.75956],[-122.49501,37.75939],[-122.4948,37.75872],[-122.49544,37.75822],[-122.49523,37.75755],[-122.49439,37.75738],[-122.49418,37.75671],[-122.49333,37.75655],[-122.49313,37.75588],[-122.49377,37.75537],[-122.49356,37.7547],[-122.4942,37.7542],[-122.49399,37.75353],[-122.49314,37.75336],[-122.49294,37.75269],[-122.49209,37.75253],[-122.49188,37.75186],[-122.49252,37.75135],[-122.49232,37.75068],[-122.49147,37.75052],[-122.49126,37.74985],[-122.4919,37.74934],[-122.49169,37.74867],[-122.49085,37.74851],[-122.49064,37.74784],[-122.4898,37.74768],[-122.48959,37.74701],[-122.49023,37.7465],[-122.49002,37.74583],[-122.49066,37.74532],[-122.49045,37.74465],[-122.48961,37.74449],[-122.4894,37.74382],[-122.49004,37.74331],[-122.48983,37.74264],[-122.49047,37.74214],[-122.49026,37.74146],[-122.48942,37.7413],[-122.48921,37.74063],[-122.48985,37.74012],[-122.48964,37.73945],[-122.49028,37.73895],[-122.49007,37.73828],[-122.49071,37.73777],[-122.4905,37.7371],[-122.49114,37.73659],[-122.49093,37.73592],[-122.49009,37.73576],[-122.48988,37.73509],[-122.49052,37.73458],[-122.49031,37.73391],[-122.49095,37.73341],[-122.49179,37.73357],[-122.49243,37.73306],[-122.49223,37.73239],[-122.49138,37.73223],[-122.49074,37.73274],[-122.4899,37.73257],[-122.48926,37.73308],[-122.48841,37.73292],[-122.48778,37.73342],[-122.48693,37.73326],[-122.48629,37.73377],[-122.4865,37.73444],[-122.48586,37.73494],[-122.48607,37.73561],[-122.48691,37.73578],[-122.48755,37.73527],[-122.4884,37.73543],[-122.4886,37.7361],[-122.48797,37.73661],[-122.48712,37.73645],[-122.48648,37.73695],[-122.48564,37.73679],[-122.485,37.7373],[-122.48415,37.73713],[-122.48352,37.73764],[-122.48372,37.73831],[-122.48308,37.73882],[-122.48329,37.73949],[-122.48265,37.73999],[-122.48286,37.74066],[-122.48371,37.74083],[-122.48391,37.7415],[-122.48327,37.742],[-122.48348,37.74267],[-122.48284,37.74318],[-122.48305,37.74385],[-122.48241,37.74436],[-122.48262,37.74503],[-122.48198,37.74553],[-122.48219,37.7462],[-122.48155,37.74671],[-122.48176,37.74738],[-122.4826,37.74754],[-122.48281,37.74821],[-122.48365,37.74838],[-122.48386,37.74905],[-122.48471,37.74921],[-122.48535,37.7487],[-122.48619,37.74887],[-122.4864,37.74954],[-122.48576,37.75004],[-122.48597,37.75071],[-122.48533,37.75122],[-122.48554,37.75189],[-122.4849,37.7524],[-122.48405,37.75223],[-122.48341,37.75274],[-122.48257,37.75258],[-122.48236,37.75191],[-122.48152,37.75174],[-122.48131,37.75107],[-122.48195,37.75057],[-122.48174,37.7499],[-122.48238,37.74939],[-122.48217,37.74872],[-122.48133,37.74856],[-122.48069,37.74906],[-122.48089,37.74973],[-122.48026,37.75024],[-122.48046,37.75091],[-122.47982,37.75142],[-122.48003,37.75209],[-122.47939,37.75259],[-122.47855,37.75243],[-122.47791,37.75294],[-122.47812,37.75361],[-122.47748,37.75411],[-122.47768,37.75478],[-122.47705,37.75529],[-122.47725,37.75596],[-122.47662,37.75647],[-122.47682,37.75714],[-122.47767,37.7573],[-122.47787,37.75797],[-122.47724,37.75848],[-122.47744,37.75915],[-122.47681,37.75965],[-122.47701,37.76032],[-122.47786,37.76049]]],[[[-122.37546,37.72233],[-122.37525,37.72166],[-122.37589,37.72116],[-122.37569,37.72049],[-122.37484,37.72032],[-122.37463,37.71965],[-122.37379,37.71949],[-122.37358,37.71882],[-122.37274,37.71865],[-122.3721,37.71916],[-122.37125,37.71899],[-122.37105,37.71832],[-122.3702,37.71816],[-122.36999,37.71749],[-122.36915,37.71732],[-122.36851,37.71783],[-122.36766,37.71766],[-122.36746,37.71699],[-122.36661,37.71683],[-122.3664,37.71616],[-122.36556,37.71599],[-122.36492,37.7165],[-122.36407,37.71633],[-122.36343,37.71684],[-122.36364,37.71751],[-122.363,37.71802],[-122.36321,37.71869],[-122.36405,37.71885],[-122.36426,37.71952],[-122.36362,37.72003],[-122.36278,37.71986],[-122.36257,37.71919],[-122.36172,37.71903],[-122.36108,37.71953],[-122.36024,37.71937],[-122.36003,37.7187],[-122.35919,37.71853],[-122.35855,37.71904],[-122.35875,37.71971],[-122.3596,37.71988],[-122.35981,37.72055],[-122.36065,37.72071],[-122.36129,37.72021],[-122.36214,37.72037],[-122.36234,37.72104],[-122.36319,37.72121],[-122.36339,37.72188],[-122.36276,37.72238],[-122.36296,37.72305],[-122.36232,37.72356],[-122.36253,37.72423],[-122.36189,37.72474],[-122.3621,37.72541],[-122.36146,37.72591],[-122.36061,37.72575],[-122.35997,37.72625],[-122.36018,37.72693],[-122.35954,37.72743],[-122.35975,37.7281],[-122.36059,37.72827],[-122.3608,37.72894],[-122.36164,37.7291],[-122.36185,37.72977],[-122.3627,37.72994],[-122.36334,37.72943],[-122.36313,37.72876],[-122.36377,37.72825],[-122.36356,37.72758],[-122.3642,37.72708],[-122.36399,37.72641],[-122.36463,37.7259],[-122.36443,37.72523],[-122.36358,37.72507],[-122.36337,37.72439],[-122.36401,37.72389],[-122.36486,37.72405],[-122.36507,37.72472],[-122.36591,37.72489],[-122.36655,37.72438],[-122.3674,37.72455],[-122.3676,37.72522],[-122.36845,37.72538],[-122.36909,37.72488],[-122.36993,37.72504],[-122.37057,37.72454],[-122.37142,37.7247],[-122.37163,37.72537],[-122.37247,37.72554],[-122.37311,37.72503],[-122.37396,37.72519],[-122.37416,37.72586],[-122.37501,37.72603],[-122.37565,37.72552],[-122.37649,37.72569],[-122.37713,37.72518],[-122.37798,37.72535],[-122.37862,37.72484],[-122.37946,37.725],[-122.3801,37.7245],[-122.38095,37.72466],[-122.38159,37.72416],[-122.38138,37.72349],[-122.38202,37.72298],[-122.38181,37.72231],[-122.38097,37.72214],[-122.38033,37.72265],[-122.37948,37.72249],[-122.37884,37.72299],[-122.37905,37.72366],[-122.37841,37.72417],[-122.37756,37.724],[-122.37693,37.72451],[-122.37608,37.72435],[-122.37587,37.72368],[-122.37651,37.72317],[-122.37631,37.7225],[-122.37546,37.72233]]],[[[-122.50176,37.72983],[-122.50261,37.72999],[-122.50282,37.73066],[-122.50366,37.73083],[-122.5043,37.73032],[-122.50409,37.72965],[-122.50473,37.72914],[-122.50452,37.72847],[-122.50516,37.72797],[-122.50495,37.7273],[-122.50559,37.72679],[-122.50539,37.72612],[-122.50602,37.72561],[-122.50582,37.72494],[-122.50645,37.72444],[-122.50625,37.72377],[-122.5054,37.7236],[-122.50519,37.72293],[-122.50583,37.72243],[-122.50563,37.72176],[-122.50478,37.72159],[-122.50457,37.72092],[-122.50521,37.72041],[-122.505,37.71974],[-122.50416,37.71958],[-122.50395,37.71891],[-122.50311,37.71875],[-122.5029,37.71808],[-122.50205,37.71791],[-122.50142,37.71842],[-122.50057,37.71826],[-122.50036,37.71759],[-122.49952,37.71742],[-122.49888,37.71793],[-122.49909,37.7186],[-122.49845,37.71911],[-122.49866,37.71978],[-122.4995,37.71994],[-122.49971,37.72061],[-122.50055,37.72077],[-122.50076,37.72144],[-122.50012,37.72195],[-122.50033,37.72262],[-122.50118,37.72278],[-122.50138,37.72345],[-122.50223,37.72362],[-122.50244,37.72429],[-122.5018,37.72479],[-122.502,37.72547],[-122.50137,37.72597],[-122.50157,37.72664],[-122.50242,37.72681],[-122.50263,37.72748],[-122.50199,37.72798],[-122.50114,37.72782],[-122.5005,37.72833],[-122.50071,37.729],[-122.50007,37.7295],[-122.50028,37.73017],[-122.50113,37.73034],[-122.50176,37.72983]]],[[[-122.38206,37.71794],[-122.3827,37.71744],[-122.38249,37.71677],[-122.38313,37.71626],[-122.38292,37.71559],[-122.38356,37.71508],[-122.38336,37.71441],[-122.38251,37.71425],[-122.3823,37.71358],[-122.38294,37.71307],[-122.38274,37.7124],[-122.38337,37.71189],[-122.38317,37.71122],[-122.38381,37.71072],[-122.3836,37.71005],[-122.38424,37.70954],[-122.38403,37.70887],[-122.38319,37.7087],[-122.38255,37.70921],[-122.3817,37.70905],[-122.3815,37.70838],[-122.38065,37.70821],[-122.38001,37.70872],[-122.37917,37.70855],[-122.37853,37.70906],[-122.37873,37.70973],[-122.37958,37.70989],[-122.37979,37.71056],[-122.38063,37.71073],[-122.38084,37.7114],[-122.3802,37.71191],[-122.37935,37.71174],[-122.37871,37.71225],[-122.37892,37.71292],[-122.37828,37.71342],[-122.37849,37.7141],[-122.37785,37.7146],[-122.377,37.71444],[-122.37636,37.71494],[-122.37657,37.71561],[-122.37593,37.71612],[-122.37614,37.71679],[-122.37698,37.71696],[-122.37762,37.71645],[-122.37847,37.71661],[-122.37868,37.71728],[-122.37952,37.71745],[-122.37973,37.71812],[-122.38057,37.71828],[-122.38078,37.71896],[-122.38163,37.71912],[-122.38226,37.71861],[-122.38206,37.71794]]],[[[-122.45849,37.80587],[-122.45913,37.80537],[-122.45997,37.80553],[-122.46061,37.80503],[-122.46146,37.80519],[-122.4621,37.80468],[-122.46189,37.80401],[-122.46104,37.80385],[-122.46041,37.80436],[-122.45956,37.80419],[-122.45892,37.8047],[-122.45808,37.80453],[-122.45744,37.80504],[-122.45659,37.80488],[-122.45595,37.80538],[-122.45616,37.80605],[-122.457,37.80622],[-122.45764,37.80571],[-122.45849,37.80587]]],[[[-122.48232,37.72606],[-122.48296,37.72556],[-122.48275,37.72489],[-122.48191,37.72472],[-122.4817,37.72405],[-122.48086,37.72389],[-122.48022,37.7244],[-122.47937,37.72423],[-122.47874,37.72474],[-122.47894,37.72541],[-122.47979,37.72557],[-122.48043,37.72507],[-122.48127,37.72523],[-122.48148,37.7259],[-122.48232,37.72606]]],[[[-122.37704,37.7094],[-122.37768,37.70889],[-122.37748,37.70822],[-122.37663,37.70806],[-122.37599,37.70856],[-122.37515,37.7084],[-122.37451,37.70891],[-122.37471,37.70958],[-122.37556,37.70974],[-122.3762,37.70924],[-122.37704,37.7094]]],[[[-122.35892,37.72542],[-122.35956,37.72491],[-122.3604,37.72508],[-122.36104,37.72457],[-122.36084,37.7239],[-122.35999,37.72374],[-122.35935,37.72424],[-122.35851,37.72408],[-122.35787,37.72458],[-122.35807,37.72525],[-122.35892,37.72542]]],[[[-122.47711,37.71434],[-122.47775,37.71383],[-122.47754,37.71316],[-122.4767,37.713],[-122.47606,37.71351],[-122.47522,37.71334],[-122.47458,37.71385],[-122.47478,37.71452],[-122.47563,37.71468],[-122.47627,37.71418],[-122.47711,37.71434]]],[[[-122.47965,37.71483],[-122.48029,37.71433],[-122.48113,37.71449],[-122.48177,37.71398],[-122.48156,37.71331],[-122.48072,37.71315],[-122.48008,37.71366],[-122.47923,37.71349],[-122.4786,37.714],[-122.4788,37.71467],[-122.47965,37.71483]]],[[[-122.48367,37.71498],[-122.48431,37.71448],[-122.48515,37.71464],[-122.48579,37.71413],[-122.48558,37.71346],[-122.48474,37.7133],[-122.4841,37.7138],[-122.48325,37.71364],[-122.48262,37.71415],[-122.48282,37.71482],[-122.48367,37.71498]]],[[[-122.48505,37.72974],[-122.48569,37.72924],[-122.48548,37.72857],[-122.48464,37.7284],[-122.48443,37.72773],[-122.48358,37.72757],[-122.48294,37.72808],[-122.48315,37.72875],[-122.484,37.72891],[-122.4842,37.72958],[-122.48505,37.72974]]],[[[-122.50744,37.73534],[-122.50808,37.73483],[-122.50787,37.73416],[-122.50851,37.73365],[-122.5083,37.73298],[-122.50746,37.73282],[-122.50682,37.73333],[-122.50703,37.734],[-122.50639,37.7345],[-122.5066,37.73517],[-122.50744,37.73534]]],[[[-122.36127,37.72272],[-122.36191,37.72222],[-122.3617,37.72155],[-122.36086,37.72138],[-122.36022,37.72189],[-122.36042,37.72256],[-122.36127,37.72272]]],[[[-122.47725,37.72508],[-122.47789,37.72458],[-122.47768,37.72391],[-122.47684,37.72374],[-122.4762,37.72425],[-122.47641,37.72492],[-122.47725,37.72508]]],[[[-122.48486,37.72656],[-122.4855,37.72605],[-122.48529,37.72538],[-122.48445,37.72522],[-122.48381,37.72572],[-122.48401,37.72639],[-122.48486,37.72656]]]]}},{"type":"Feature","properties":{"step":3},"geometry":{"type":"MultiPolygon","coordinates":[[[[-122.47178,37.75112],[-122.47199,37.75179],[-122.47135,37.7523],[-122.47156,37.75297],[-122.4724,37.75313],[-122.47261,37.7538],[-122.47197,37.75431],[-122.47218,37.75498],[-122.47303,37.75514],[-122.47323,37.75581],[-122.47259,37.75632],[-122.4728,37.75699],[-122.47216,37.75749],[-122.47132,37.75733],[-122.47111,37.75666],[-122.47175,37.75615],[-122.47154,37.75548],[-122.4707,37.75532],[-122.47006,37.75583],[-122.47026,37.7565],[-122.46963,37.757],[-122.46983,37.75767],[-122.46919,37.75818],[-122.4694,37.75885],[-122.47025,37.75901],[-122.47045,37.75968],[-122.46982,37.76019],[-122.47002,37.76086],[-122.46938,37.76137],[-122.46959,37.76204],[-122.46895,37.76254],[-122.46916,37.76321],[-122.46852,37.76372],[-122.46873,37.76439],[-122.46809,37.7649],[-122.4683,37.76557],[-122.46766,37.76607],[-122.46787,37.76674],[-122.46723,37.76725],[-122.46743,37.76792],[-122.4668,37.76843],[-122.46595,37.76826],[-122.46531,37.76877],[-122.46552,37.76944],[-122.46488,37.76994],[-122.46509,37.77061],[-122.46445,37.77112],[-122.46466,37.77179],[-122.46402,37.7723],[-122.46422,37.77297],[-122.46359,37.77347],[-122.46379,37.77414],[-122.46464,37.77431],[-122.46485,37.77498],[-122.46569,37.77514],[-122.4659,37.77581],[-122.46526,37.77632],[-122.46547,37.77699],[-122.46631,37.77715],[-122.46652,37.77782],[-122.46736,37.77799],[-122.46757,37.77866],[-122.46842,37.77882],[-122.46862,37.77949],[-122.46947,37.77965],[-122.46968,37.78032],[-122.46904,37.78083],[-122.46925,37.7815],[-122.47009,37.78166],[-122.4703,37.78233],[-122.47114,37.7825],[-122.47135,37.78317],[-122.4722,37.78333],[-122.4724,37.784],[-122.47325,37.78416],[-122.47346,37.78483],[-122.47282,37.78534],[-122.47303,37.78601],[-122.47387,37.78617],[-122.47408,37.78684],[-122.47493,37.78701],[-122.47513,37.78768],[-122.47598,37.78784],[-122.47619,37.78851],[-122.47703,37.78867],[-122.47724,37.78934],[-122.4766,37.78985],[-122.47681,37.79052],[-122.47765,37.79068],[-122.47786,37.79135],[-122.47722,37.79186],[-122.47743,37.79253],[-122.47827,37.79269],[-122.47891,37.79219],[-122.47871,37.79152],[-122.47934,37.79101],[-122.47914,37.79034],[-122.47978,37.78983],[-122.48062,37.79],[-122.48083,37.79067],[-122.48167,37.79083],[-122.48188,37.7915],[-122.48124,37.79201],[-122.48145,37.79268],[-122.4823,37.79284],[-122.4825,37.79351],[-122.48186,37.79402],[-122.48207,37.79469],[-122.48292,37.79485],[-122.48356,37.79434],[-122.48335,37.79367],[-122.48399,37.79317],[-122.48378,37.7925],[-122.48442,37.79199],[-122.48526,37.79216],[-122.4859,37.79165],[-122.4857,37.79098],[-122.48485,37.79082],[-122.48464,37.79015],[-122.48528,37.78964],[-122.48613,37.7898],[-122.48677,37.7893],[-122.48761,37.78946],[-122.48825,37.78895],[-122.4891,37.78912],[-122.48973,37.78861],[-122.48953,37.78794],[-122.49017,37.78743],[-122.49101,37.7876],[-122.49165,37.78709],[-122.4925,37.78725],[-122.49313,37.78675],[-122.49398,37.78691],[-122.49462,37.78641],[-122.49546,37.78657],[-122.4961,37.78606],[-122.49695,37.78623],[-122.49716,37.7869],[-122.498,37.78706],[-122.49864,37.78655],[-122.49949,37.78672],[-122.50012,37.78621],[-122.50097,37.78637],[-122.50118,37.78704],[-122.50202,37.78721],[-122.50266,37.7867],[-122.50351,37.78686],[-122.50414,37.78636],[-122.50394,37.78569],[-122.50458,37.78518],[-122.50437,37.78451],[-122.50352,37.78435],[-122.50332,37.78368],[-122.50395,37.78317],[-122.50375,37.7825],[-122.50439,37.78199],[-122.50523,37.78216],[-122.50587,37.78165],[-122.50566,37.78098],[-122.50482,37.78082],[-122.50418,37.78132],[-122.50333,37.78116],[-122.50269,37.78167],[-122.50185,37.7815],[-122.50121,37.78201],[-122.50036,37.78185],[-122.49973,37.78235],[-122.49888,37.78219],[-122.49824,37.7827],[-122.4974,37.78253],[-122.49676,37.78304],[-122.49591,37.78288],[-122.4957,37.78221],[-122.49486,37.78204],[-122.49465,37.78137],[-122.49381,37.78121],[-122.4936,37.78054],[-122.49275,37.78038],[-122.49255,37.77971],[-122.4917,37.77954],[-122.49149,37.77887],[-122.49065,37.77871],[-122.49044,37.77804],[-122.48959,37.77788],[-122.48939,37.77721],[-122.49003,37.7767],[-122.48982,37.77603],[-122.48897,37.77587],[-122.48877,37.7752],[-122.48792,37.77503],[-122.48771,37.77436],[-122.48687,37.7742],[-122.48666,37.77353],[-122.48581,37.77337],[-122.48561,37.7727],[-122.48476,37.77253],[-122.48455,37.77186],[-122.48519,37.77136],[-122.48499,37.77069],[-122.48414,37.77052],[-122.48393,37.76985],[-122.48309,37.76969],[-122.48288,37.76902],[-122.48203,37.76885],[-122.48183,37.76818],[-122.48098,37.76802],[-122.48077,37.76735],[-122.48141,37.76684],[-122.48121,37.76617],[-122.48036,37.76601],[-122.48015,37.76534],[-122.47931,37.76518],[-122.4791,37.76451],[-122.47974,37.764],[-122.47953,37.76333],[-122.47869,37.76317],[-122.47848,37.7625],[-122.47763,37.76233],[-122.47743,37.76166],[-122.47806,37.76116],[-122.47786,37.76049],[-122.47701,37.76032],[-122.47681,37.75965],[-122.47744,37.75915],[-122.47724,37.75848],[-122.47787,37.75797],[-122.47767,37.7573],[-122.47682,37.75714],[-122.47662,37.75647],[-122.47725,37.75596],[-122.47705,37.75529],[-122.47768,37.75478],[-122.47748,37.75411],[-122.47812,37.75361],[-122.47791,37.75294],[-122.47855,37.75243],[-122.47939,37.75259],[-122.48003,37.75209],[-122.47982,37.75142],[-122.48046,37.75091],[-122.48026,37.75024],[-122.48089,37.74973],[-122.48069,37.74906],[-122.48133,37.74856],[-122.48112,37.74789],[-122.48027,37.74772],[-122.47963,37.74823],[-122.47879,37.74807],[-122.47858,37.74739],[-122.47922,37.74689],[-122.48007,37.74705],[-122.4807,37.74655],[-122.48155,37.74671],[-122.48219,37.7462],[-122.48198,37.74553],[-122.48262,37.74503],[-122.48241,37.74436],[-122.48305,37.74385],[-122.48284,37.74318],[-122.48348,37.74267],[-122.48327,37.742],[-122.48391,37.7415],[-122.48371,37.74083],[-122.48286,37.74066],[-122.48265,37.73999],[-122.48329,37.73949],[-122.48308,37.73882],[-122.48372,37.73831],[-122.48352,37.73764],[-122.48267,37.73747],[-122.48203,37.73798],[-122.48119,37.73782],[-122.48055,37.73832],[-122.4797,37.73816],[-122.47906,37.73867],[-122.47822,37.7385],[-122.47758,37.73901],[-122.47674,37.73885],[-122.47653,37.73818],[-122.47568,37.73801],[-122.47504,37.73852],[-122.47525,37.73919],[-122.4761,37.73935],[-122.4763,37.74002],[-122.47567,37.74053],[-122.47587,37.7412],[-122.47523,37.74171],[-122.47544,37.74238],[-122.4748,37.74288],[-122.47501,37.74355],[-122.47437,37.74406],[-122.47458,37.74473],[-122.47394,37.74524],[-122.47415,37.74591],[-122.47351,37.74641],[-122.47372,37.74708],[-122.47308,37.74759],[-122.47328,37.74826],[-122.47265,37.74877],[-122.47285,37.74944],[-122.47221,37.74994],[-122.47242,37.75061],[-122.47178,37.75112]],[[-122.47237,37.75816],[-122.47322,37.75833],[-122.47342,37.759],[-122.47278,37.7595],[-122.47194,37.75934],[-122.47173,37.75867],[-122.47237,37.75816]]],[[[-122.46931,37.8023],[-122.46995,37.80179],[-122.46975,37.80112],[-122.4689,37.80096],[-122.46869,37.80029],[-122.46933,37.79978],[-122.46912,37.79911],[-122.46828,37.79895],[-122.46807,37.79828],[-122.46723,37.79812],[-122.46702,37.79745],[-122.46617,37.79728],[-122.46597,37.79661],[-122.46512,37.79645],[-122.46491,37.79578],[-122.46407,37.79562],[-122.46343,37.79612],[-122.46364,37.79679],[-122.463,37.7973],[-122.46215,37.79713],[-122.46151,37.79764],[-122.46067,37.79748],[-122.46003,37.79798],[-122.45918,37.79782],[-122.45854,37.79833],[-122.45875,37.799],[-122.45811,37.7995],[-122.45832,37.80017],[-122.45768,37.80068],[-122.45789,37.80135],[-122.45725,37.80186],[-122.4564,37.80169],[-122.45619,37.80102],[-122.45535,37.80086],[-122.45514,37.80019],[-122.45429,37.80002],[-122.45409,37.79935],[-122.45473,37.79885],[-122.45452,37.79818],[-122.45367,37.79801],[-122.45303,37.79852],[-122.45324,37.79919],[-122.4526,37.7997],[-122.45281,37.80037],[-122.45217,37.80087],[-122.45132,37.80071],[-122.45112,37.80004],[-122.45027,37.79988],[-122.45006,37.79921],[-122.44922,37.79904],[-122.44858,37.79955],[-122.44773,37.79938],[-122.44753,37.79871],[-122.44668,37.79855],[-122.44604,37.79906],[-122.44625,37.79973],[-122.44561,37.80023],[-122.44476,37.80007],[-122.44412,37.80058],[-122.44433,37.80125],[-122.44369,37.80175],[-122.4439,37.80242],[-122.44326,37.80293],[-122.44347,37.8036],[-122.44283,37.8041],[-122.44198,37.80394],[-122.44134,37.80445],[-122.44155,37.80512],[-122.44091,37.80562],[-122.44112,37.80629],[-122.44196,37.80646],[-122.44217,37.80713],[-122.44302,37.80729],[-122.44366,37.80678],[-122.44345,37.80611],[-122.44409,37.80561],[-122.44493,37.80577],[-122.44557,37.80527],[-122.44642,37.80543],[-122.44706,37.80492],[-122.44791,37.80509],[-122.44811,37.80576],[-122.44747,37.80626],[-122.44663,37.8061],[-122.44599,37.80661],[-122.44514,37.80644],[-122.4445,37.80695],[-122.44471,37.80762],[-122.44556,37.80778],[-122.4462,37.80728],[-122.44704,37.80744],[-122.44768,37.80693],[-122.44853,37.8071],[-122.44917,37.80659],[-122.45001,37.80675],[-122.45065,37.80625],[-122.4515,37.80641],[-122.45214,37.80591],[-122.45298,37.80607],[-122.45362,37.80556],[-122.45447,37.80573],[-122.45511,37.80522],[-122.45595,37.80538],[-122.45659,37.80488],[-122.45744,37.80504],[-122.45808,37.80453],[-122.45892,37.8047],[-122.45956,37.80419],[-122.46041,37.80436],[-122.46104,37.80385],[-122.46189,37.80401],[-122.4621,37.80468],[-122.46294,37.80485],[-122.46358,37.80434],[-122.46443,37.8045],[-122.46464,37.80517],[-122.46548,37.80534],[-122.46612,37.80483],[-122.46697,37.80499],[-122.46717,37.80566],[-122.46802,37.80583],[-122.46823,37.8065],[-122.46907,37.80666],[-122.46928,37.80733],[-122.47013,37.80749],[-122.47076,37.80699],[-122.47056,37.80632],[-122.46971,37.80616],[-122.4695,37.80549],[-122.46866,37.80532],[-122.46845,37.80465],[-122.46909,37.80415],[-122.46888,37.80348],[-122.46804,37.80331],[-122.46783,37.80264],[-122.46847,37.80214],[-122.46931,37.8023]],[[-122.45978,37.80235],[-122.45894,37.80218],[-122.45873,37.80151],[-122.45937,37.80101],[-122.45916,37.80034],[-122.4598,37.79983],[-122.46065,37.79999],[-122.46129,37.79949],[-122.46213,37.79965],[-122.46277,37.79914],[-122.46362,37.79931],[-122.46426,37.7988],[-122.4651,37.79897],[-122.46574,37.79846],[-122.46659,37.79862],[-122.46679,37.79929],[-122.46616,37.7998],[-122.46636,37.80047],[-122.46572,37.80098],[-122.46488,37.80081],[-122.46467,37.80014],[-122.46382,37.79998],[-122.46319,37.80048],[-122.46339,37.80115],[-122.46424,37.80132],[-122.46445,37.80199],[-122.46529,37.80215],[-122.4655,37.80282],[-122.46486,37.80333],[-122.46401,37.80316],[-122.46381,37.80249],[-122.46296,37.80233],[-122.46232,37.80284],[-122.46148,37.80267],[-122.46127,37.802],[-122.46042,37.80184],[-122.45978,37.80235]],[[-122.44898,37.8034],[-122.44834,37.80391],[-122.44749,37.80375],[-122.44728,37.80308],[-122.44792,37.80257],[-122.44877,37.80273],[-122.44898,37.8034]]],[[[-122.39164,37.71035],[-122.39228,37.70984],[-122.39208,37.70917],[-122.39123,37.70901],[-122.39059,37.70951],[-122.38975,37.70935],[-122.38954,37.70868],[-122.38869,37.70851],[-122.38805,37.70902],[-122.38721,37.70886],[-122.38657,37.70936],[-122.38678,37.71003],[-122.38614,37.71054],[-122.38529,37.71037],[-122.38509,37.7097],[-122.38424,37.70954],[-122.3836,37.71005],[-122.38381,37.71072],[-122.38317,37.71122],[-122.38337,37.71189],[-122.38274,37.7124],[-122.38294,37.71307],[-122.3823,37.71358],[-122.38251,37.71425],[-122.38336,37.71441],[-122.38356,37.71508],[-122.38292,37.71559],[-122.38313,37.71626],[-122.38249,37.71677],[-122.3827,37.71744],[-122.38206,37.71794],[-122.38226,37.71861],[-122.38163,37.71912],[-122.38183,37.71979],[-122.38268,37.71996],[-122.38288,37.72063],[-122.38225,37.72113],[-122.38245,37.7218],[-122.3833,37.72197],[-122.3835,37.72264],[-122.38286,37.72314],[-122.38202,37.72298],[-122.38138,37.72349],[-122.38159,37.72416],[-122.38095,37.72466],[-122.3801,37.7245],[-122.37946,37.725],[-122.37862,37.72484],[-122.37798,37.72535],[-122.37713,37.72518],[-122.37649,37.72569],[-122.37565,37.72552],[-122.37501,37.72603],[-122.37416,37.72586],[-122.37396,37.72519],[-122.37311,37.72503],[-122.37247,37.72554],[-122.37163,37.72537],[-122.37142,37.7247],[-122.37057,37.72454],[-122.36993,37.72504],[-122.36909,37.72488],[-122.36845,37.72538],[-122.3676,37.72522],[-122.3674,37.72455],[-122.36655,37.72438],[-122.36591,37.72489],[-122.36612,37.72556],[-122.36548,37.72607],[-122.36463,37.7259],[-122.36399,37.72641],[-122.3642,37.72708],[-122.36356,37.72758],[-122.36377,37.72825],[-122.36313,37.72876],[-122.36334,37.72943],[-122.3627,37.72994],[-122.3629,37.73061],[-122.36375,37.73077],[-122.36395,37.73144],[-122.3648,37.73161],[-122.36544,37.7311],[-122.36629,37.73127],[-122.36649,37.73194],[-122.36734,37.7321],[-122.36798,37.7316],[-122.36882,37.73176],[-122.36903,37.73243],[-122.36987,37.7326],[-122.37008,37.73327],[-122.37093,37.73343],[-122.37157,37.73293],[-122.37136,37.73225],[-122.372,37.73175],[-122.37284,37.73191],[-122.37348,37.73141],[-122.37328,37.73074],[-122.37243,37.73057],[-122.37223,37.7299],[-122.37138,37.72974],[-122.37074,37.73024],[-122.36989,37.73008],[-122.36926,37.73058],[-122.36841,37.73042],[-122.3682,37.72975],[-122.36736,37.72958],[-122.36715,37.72891],[-122.36631,37.72875],[-122.36567,37.72925],[-122.36482,37.72909],[-122.36461,37.72842],[-122.36525,37.72791],[-122.36505,37.72724],[-122.36569,37.72674],[-122.36653,37.7269],[-122.36717,37.7264],[-122.36802,37.72656],[-122.36866,37.72605],[-122.3695,37.72622],[-122.36971,37.72689],[-122.37055,37.72705],[-122.37119,37.72655],[-122.37204,37.72671],[-122.37268,37.72621],[-122.37352,37.72637],[-122.37373,37.72704],[-122.37458,37.72721],[-122.37521,37.7267],[-122.37606,37.72686],[-122.37627,37.72753],[-122.37711,37.7277],[-122.37775,37.72719],[-122.3786,37.72736],[-122.3788,37.72803],[-122.37965,37.72819],[-122.38029,37.72769],[-122.38113,37.72785],[-122.38177,37.72735],[-122.38262,37.72751],[-122.38283,37.72818],[-122.38367,37.72835],[-122.38431,37.72784],[-122.3841,37.72717],[-122.38474,37.72666],[-122.38454,37.72599],[-122.38518,37.72549],[-122.38497,37.72481],[-122.38561,37.72431],[-122.3854,37.72364],[-122.38604,37.72313],[-122.38583,37.72246],[-122.38647,37.72195],[-122.38627,37.72128],[-122.38542,37.72112],[-122.38521,37.72045],[-122.38585,37.71994],[-122.38565,37.71927],[-122.38629,37.71877],[-122.38713,37.71893],[-122.38777,37.71842],[-122.38756,37.71775],[-122.3882,37.71725],[-122.388,37.71658],[-122.38715,37.71641],[-122.38694,37.71574],[-122.38758,37.71523],[-122.38738,37.71456],[-122.38653,37.7144],[-122.38632,37.71373],[-122.38548,37.71356],[-122.38484,37.71407],[-122.38399,37.71391],[-122.38379,37.71324],[-122.38443,37.71273],[-122.38527,37.71289],[-122.38591,37.71239],[-122.3857,37.71172],[-122.38634,37.71121],[-122.38719,37.71137],[-122.38783,37.71087],[-122.38867,37.71103],[-122.38931,37.71053],[-122.39016,37.71069],[-122.3908,37.71019],[-122.39164,37.71035]],[[-122.382,37.7255],[-122.38264,37.72499],[-122.38348,37.72516],[-122.38369,37.72583],[-122.38305,37.72633],[-122.38221,37.72617],[-122.382,37.7255]]],[[[-122.39818,37.77025],[-122.39733,37.77008],[-122.39669,37.77059],[-122.39584,37.77042],[-122.39564,37.76975],[-122.39479,37.76959],[-122.39458,37.76892],[-122.39374,37.76875],[-122.39353,37.76808],[-122.39269,37.76792],[-122.39205,37.76843],[-122.3912,37.76826],[-122.39099,37.76759],[-122.39015,37.76743],[-122.38994,37.76676],[-122.3891,37.76659],[-122.38846,37.7671],[-122.38761,37.76693],[-122.38697,37.76744],[-122.38613,37.76728],[-122.38549,37.76778],[-122.38569,37.76845],[-122.38505,37.76896],[-122.38526,37.76963],[-122.38462,37.77013],[-122.38483,37.77081],[-122.38567,37.77097],[-122.38588,37.77164],[-122.38673,37.7718],[-122.38693,37.77247],[-122.38629,37.77298],[-122.38545,37.77282],[-122.38481,37.77332],[-122.38396,37.77316],[-122.38376,37.77249],[-122.38291,37.77232],[-122.38227,37.77283],[-122.38248,37.7735],[-122.38184,37.77401],[-122.38204,37.77468],[-122.38289,37.77484],[-122.38353,37.77433],[-122.38438,37.7745],[-122.38501,37.77399],[-122.38586,37.77416],[-122.38607,37.77483],[-122.38543,37.77533],[-122.38563,37.776],[-122.38648,37.77617],[-122.38669,37.77684],[-122.38753,37.777],[-122.38817,37.7765],[-122.38902,37.77666],[-122.38966,37.77616],[-122.3905,37.77632],[-122.39071,37.77699],[-122.39156,37.77715],[-122.3922,37.77665],[-122.39304,37.77681],[-122.39368,37.77631],[-122.39453,37.77647],[-122.39517,37.77596],[-122.39601,37.77613],[-122.39665,37.77562],[-122.3975,37.77579],[-122.39814,37.77528],[-122.39898,37.77544],[-122.39962,37.77494],[-122.40047,37.7751],[-122.40111,37.7746],[-122.4009,37.77393],[-122.40154,37.77342],[-122.40133,37.77275],[-122.40049,37.77259],[-122.40028,37.77192],[-122.40092,37.77141],[-122.40071,37.77074],[-122.39987,37.77057],[-122.39923,37.77108],[-122.39838,37.77092],[-122.39818,37.77025]]],[[[-122.37344,37.81901],[-122.37408,37.8185],[-122.37387,37.81783],[-122.37302,37.81767],[-122.37282,37.817],[-122.37197,37.81683],[-122.37176,37.81616],[-122.37092,37.816],[-122.37028,37.8165],[-122.36943,37.81634],[-122.36879,37.81685],[-122.369,37.81752],[-122.36836,37.81802],[-122.36856,37.81869],[-122.36941,37.81886],[-122.36962,37.81953],[-122.37046,37.81969],[-122.37067,37.82036],[-122.37152,37.82053],[-122.37172,37.8212],[-122.37257,37.82136],[-122.37278,37.82203],[-122.37214,37.82254],[-122.37234,37.82321],[-122.37319,37.82337],[-122.3734,37.82404],[-122.37424,37.82421],[-122.37445,37.82488],[-122.3753,37.82504],[-122.3755,37.82571],[-122.37635,37.82587],[-122.37656,37.82654],[-122.37592,37.82705],[-122.37612,37.82772],[-122.37697,37.82788],[-122.37718,37.82855],[-122.37802,37.82872],[-122.37866,37.82821],[-122.37846,37.82754],[-122.3791,37.82704],[-122.37889,37.82637],[-122.37804,37.8262],[-122.37784,37.82553],[-122.37848,37.82503],[-122.37827,37.82436],[-122.37742,37.82419],[-122.37722,37.82352],[-122.37637,37.82336],[-122.37616,37.82269],[-122.3768,37.82218],[-122.3766,37.82151],[-122.37575,37.82135],[-122.37554,37.82068],[-122.3747,37.82051],[-122.37449,37.81984],[-122.37364,37.81968],[-122.37344,37.81901]]],[[[-122.3809,37.75807],[-122.38111,37.75874],[-122.38195,37.7589],[-122.38216,37.75957],[-122.38152,37.76008],[-122.38173,37.76075],[-122.38257,37.76091],[-122.38278,37.76158],[-122.38214,37.76209],[-122.38129,37.76193],[-122.38066,37.76243],[-122.38086,37.7631],[-122.38171,37.76327],[-122.38235,37.76276],[-122.38319,37.76292],[-122.38383,37.76242],[-122.38468,37.76258],[-122.38489,37.76325],[-122.38573,37.76342],[-122.38637,37.76291],[-122.38616,37.76224],[-122.3868,37.76173],[-122.3866,37.76106],[-122.38575,37.7609],[-122.38554,37.76023],[-122.3847,37.76007],[-122.38449,37.75939],[-122.38365,37.75923],[-122.38344,37.75856],[-122.38408,37.75805],[-122.38387,37.75738],[-122.38451,37.75688],[-122.3843,37.75621],[-122.38346,37.75604],[-122.38325,37.75537],[-122.38241,37.75521],[-122.38177,37.75571],[-122.38197,37.75638],[-122.38133,37.75689],[-122.38154,37.75756],[-122.3809,37.75807]]],[[[-122.41071,37.73612],[-122.41135,37.73562],[-122.41115,37.73495],[-122.4103,37.73478],[-122.40966,37.73529],[-122.40882,37.73512],[-122.40818,37.73563],[-122.40838,37.7363],[-122.40774,37.73681],[-122.40795,37.73748],[-122.40731,37.73798],[-122.40647,37.73782],[-122.40583,37.73833],[-122.40603,37.739],[-122.4054,37.7395],[-122.40455,37.73934],[-122.40391,37.73984],[-122.40412,37.74052],[-122.40496,37.74068],[-122.40517,37.74135],[-122.40602,37.74151],[-122.40665,37.74101],[-122.4075,37.74117],[-122.40814,37.74067],[-122.40793,37.74],[-122.40709,37.73983],[-122.40688,37.73916],[-122.40752,37.73865],[-122.40836,37.73882],[-122.409,37.73831],[-122.4088,37.73764],[-122.40944,37.73714],[-122.41028,37.7373],[-122.41092,37.73679],[-122.41071,37.73612]]],[[[-122.35657,37.72811],[-122.35678,37.72878],[-122.35762,37.72895],[-122.35783,37.72962],[-122.35867,37.72979],[-122.35888,37.73046],[-122.35973,37.73062],[-122.36037,37.73011],[-122.36121,37.73028],[-122.36185,37.72977],[-122.36164,37.7291],[-122.3608,37.72894],[-122.36059,37.72827],[-122.35975,37.7281],[-122.35954,37.72743],[-122.36018,37.72693],[-122.35997,37.72625],[-122.35913,37.72609],[-122.35849,37.7266],[-122.35764,37.72643],[-122.357,37.72694],[-122.35721,37.72761],[-122.35657,37.72811]]],[[[-122.51222,37.78162],[-122.51286,37.78111],[-122.51265,37.78044],[-122.5118,37.78028],[-122.51117,37.78078],[-122.51032,37.78062],[-122.50968,37.78113],[-122.50884,37.78096],[-122.5082,37.78147],[-122.50841,37.78214],[-122.50925,37.7823],[-122.50946,37.78297],[-122.5103,37.78314],[-122.51094,37.78263],[-122.51179,37.78279],[-122.51243,37.78229],[-122.51222,37.78162]]],[[[-122.36443,37.72523],[-122.36507,37.72472],[-122.36486,37.72405],[-122.36401,37.72389],[-122.36337,37.72439],[-122.36358,37.72507],[-122.36443,37.72523]]],[[[-122.3796,37.7616],[-122.38024,37.76109],[-122.38004,37.76042],[-122.37919,37.76026],[-122.37855,37.76076],[-122.37876,37.76143],[-122.3796,37.7616]]]]}}]}