{"type":"FeatureCollection","features":[{"type":"Feature","properties":{"step":3},"geometry":{"type":"Polygon","coordinates":[[[-78.692,35.78281],[-78.684,35.78381],[-78.677,35.78481],[-78.671,35.78441],[-78.665,35.78321],[-78.656,35.78211],[-78.656,35.77689],[-78.665,35.77799],[-78.671,35.77919],[-78.677,35.77959],[-78.684,35.77859],[-78.692,35.77759],[-78.692,35.78281]]]}},{"type":"Feature","properties":{"step":2},"geometry":{"type":"Polygon","coordinates":[[[-78.692,35.78173],[-78.684,35.78273],[-78.677,35.78373],[-78.671,35.78333],[-78.665,35.78213],[-78.656,35.78103],[-78.656,35.77797],[-78.665,35.77907],[-78.671,35.78027],[-78.677,35.78067],[-78.684,35.77967],[-78.692,35.77867],[-78.692,35.78173]]]}},{"type":"Feature","properties":{"step":1},"geometry":{"type":"Polygon","coordinates":[[[-78.692,35.78101],[-78.684,35.78201],[-78.677,35.78301],[-78.671,35.78261],[-78.665,35.78141],[-78.656,35.78031],[-78.656,35.77869],[-78.665,35.77979],[-78.671,35.78099],[-78.677,35.78139],[-78.684,35.78039],[-78.692,35.77939],[-78.692,35.78101]]]}}]}
