{"type":"FeatureCollection","features":[{"type":"Feature","geometry":{"type":"MultiPolygon","coordinates":[[[[-122.49631625087277,37.70088656077045],[-122.49785322063553,37.70087032446757],[-122.49819000000001,37.701434],[-122.49819800000002,37.701617],[-122.497923,37.702147],[-122.497878,37.702913999999986],[-122.497656,37.703398],[-122.49786200000001,37.70420299999999],[-122.49853400000002,37.705454],[-122.498671,37.70648400000001],[-122.499083,37.707300999999994],[-122.499113,37.70844499999999],[-122.498915,37.70891399999999],[-122.49939600000002,37.70966199999999],[-122.49922800000002,37.709986],[-122.50024999999998,37.71027200000001],[-122.50061600000001,37.710554],[-122.500731,37.710822],[-122.500441,37.711012],[-122.500365,37.711203],[-122.50054000000002,37.711344],[-122.501227,37.711546],[-122.501562,37.712045999999994],[-122.50118900000001,37.712889],[-122.50132600000002,37.713021999999995],[-122.502394,37.713216999999986],[-122.50255400000002,37.713328],[-122.50275999999998,37.71362500000001],[-122.50292100000001,37.714189999999995],[-122.503256,37.71448700000001],[-122.50369900000001,37.71537599999999],[-122.50381300000001,37.71636800000001],[-122.504012,37.716684],[-122.504309,37.7181],[-122.50523200000002,37.720587],[-122.50509500000001,37.72094899999999],[-122.504721,37.721262],[-122.50478200000002,37.721357],[-122.505537,37.72161700000001],[-122.50623900000001,37.72404599999999],[-122.50592600000002,37.724802],[-122.506354,37.72534300000001],[-122.50662099999998,37.727258],[-122.506598,37.727358],[-122.506415,37.727383999999994],[-122.50592600000002,37.72678499999999],[-122.505697,37.72696100000001],[-122.505697,37.727239],[-122.505995,37.727804000000006],[-122.506064,37.72847900000001],[-122.50667400000002,37.729009000000005],[-122.50675800000002,37.729188],[-122.50674300000001,37.72999299999999],[-122.50690300000001,37.730318],[-122.507185,37.73037500000001],[-122.506933,37.727121],[-122.50698700000001,37.72635399999999],[-122.506781,37.725809000000005],[-122.506773,37.724847999999994],[-122.506399,37.723455],[-122.506102,37.721666],[-122.505934,37.721308],[-122.505652,37.721090000000004],[-122.50568999999999,37.720247],[-122.505324,37.718546],[-122.50492700000001,37.717043000000004],[-122.504469,37.71587199999999],[-122.504355,37.715185],[-122.50353100000001,37.712832000000006],[-122.503325,37.711565],[-122.502913,37.710871],[-122.50261499999999,37.70968899999999],[-122.501799,37.708342],[-122.501784,37.707881],[-122.501929,37.707724],[-122.50190600000002,37.70715199999999],[-122.501776,37.706584],[-122.501425,37.70606899999999],[-122.50136399999998,37.705499999999994],[-122.50115099999998,37.705161000000004],[-122.501067,37.70438599999999],[-122.500731,37.703662],[-122.500517,37.70233],[-122.500311,37.701845999999996],[-122.5001257142018,37.700926940625614],[-122.50032907622105,37.70092698939696],[-122.500776,37.701667],[-122.501033,37.70266900000001],[-122.50110100000002,37.703245999999986],[-122.501013,37.70335099999999],[-122.501262,37.704339],[-122.501915,37.70554499999999],[-122.502124,37.706737],[-122.502337,37.707321],[-122.50288800000001,37.70822400000001],[-122.50320300000001,37.709026],[-122.50389400000002,37.71266099999999],[-122.50418299999998,37.71324799999999],[-122.50475599999999,37.71502100000001],[-122.50482199999999,37.715630999999995],[-122.505072,37.7161],[-122.50540700000002,37.71803700000001],[-122.50614600000002,37.72015899999998],[-122.50623500000002,37.72124],[-122.50648599999998,37.72162100000001],[-122.5067,37.72312],[-122.50704099999999,37.723752999999995],[-122.507075,37.72466000000001],[-122.507403,37.726421],[-122.507444,37.727671],[-122.507236,37.728624999999994],[-122.507415,37.72938800000001],[-122.507616,37.72960299999999],[-122.508192,37.73435299999999],[-122.508261,37.736245],[-122.508183,37.736606999999985],[-122.50829900000001,37.738271],[-122.50818400000001,37.73988799999999],[-122.508316,37.741111999999994],[-122.50861400000001,37.742225],[-122.508993,37.744885],[-122.508892,37.745575],[-122.509087,37.74593200000001],[-122.509185,37.746457],[-122.50929800000002,37.748470999999995],[-122.509504,37.749267999999994],[-122.50989299999999,37.749936],[-122.510029,37.750377000000015],[-122.51020599999998,37.752339000000006],[-122.510702,37.755345],[-122.511053,37.75906400000001],[-122.51161000000002,37.760951999999996],[-122.51202199999999,37.763042999999996],[-122.51203,37.76842500000001],[-122.512221,37.77040099999999],[-122.51227399999999,37.772636],[-122.51247200000002,37.77455499999999],[-122.512732,37.77566899999999],[-122.51320499999999,37.77661100000001],[-122.51321100000001,37.77745999999999],[-122.51201500000002,37.77679],[-122.511267,37.776835999999996],[-122.511992,37.777412],[-122.512411,37.778087],[-122.51306,37.778614],[-122.51337299999999,37.779285000000016],[-122.512892,37.779625],[-122.512885,37.780212],[-122.513022,37.780563],[-122.512602,37.781997],[-122.51184700000002,37.782489],[-122.510512,37.782867],[-122.50950500000002,37.78341600000001],[-122.509291,37.783446999999995],[-122.50921499999998,37.78336300000001],[-122.508993,37.782619000000004],[-122.508703,37.782245],[-122.50823000000001,37.781906],[-122.50787200000002,37.781791],[-122.506895,37.781825999999995],[-122.506033,37.78234399999999],[-122.504988,37.782466],[-122.50452200000001,37.78266899999999],[-122.504339,37.782813999999995],[-122.504339,37.783042],[-122.50456,37.783412],[-122.504545,37.78359899999999],[-122.504202,37.783729],[-122.503988,37.78390499999999],[-122.503988,37.78401899999999],[-122.504423,37.78433199999999],[-122.504751,37.784441999999984],[-122.505079,37.784727999999994],[-122.50501100000001,37.785185999999996],[-122.50482700000002,37.78555999999999],[-122.503782,37.786604999999994],[-122.50209600000001,37.78703200000001],[-122.501737,37.78697900000001],[-122.50108100000001,37.786411],[-122.50086800000001,37.786410999999994],[-122.50054000000002,37.78649800000001],[-122.49996700000001,37.786872],[-122.499212,37.787078],[-122.49852500000001,37.787051999999996],[-122.497404,37.786654999999996],[-122.49649600000001,37.786490999999984],[-122.495161,37.786525],[-122.494657,37.78661300000001],[-122.493795,37.78695999999999],[-122.49278799999999,37.78722299999999],[-122.49152099999999,37.787372],[-122.49023200000002,37.788097],[-122.48937,37.78873],[-122.48799700000001,37.788764],[-122.487707,37.78885199999999],[-122.48673800000002,37.789516000000006],[-122.486059,37.790118],[-122.484518,37.792235999999995],[-122.48359500000001,37.79394099999999],[-122.48335,37.794630999999995],[-122.48308900000002,37.79494700000001],[-122.481176,37.79249399999999],[-122.48126799999999,37.79177399999999],[-122.481191,37.790774],[-122.48053499999999,37.790145],[-122.48032100000002,37.790060999999994],[-122.47978,37.79009500000001],[-122.4792,37.790351],[-122.479531,37.791287000000004],[-122.47761900000002,37.792513],[-122.477436,37.790132],[-122.47593,37.78842300000001],[-122.47604900000002,37.78807799999999],[-122.47601099999999,37.78773399999999],[-122.47567499999998,37.787021],[-122.47473700000002,37.78654],[-122.47432999999998,37.786608000000015],[-122.47082899999998,37.782636000000004],[-122.463434,37.773464999999995],[-122.46345,37.773348],[-122.46949800000002,37.762964],[-122.469773,37.756797999999996],[-122.470505,37.754785],[-122.471128,37.75631400000001],[-122.47182199999999,37.757054],[-122.47186000000002,37.75736599999999],[-122.471677,37.757884999999995],[-122.471646,37.758373],[-122.471829,37.758742999999996],[-122.47205099999998,37.758972],[-122.47234100000001,37.75899899999999],[-122.472699,37.758942],[-122.47298099999999,37.758679],[-122.47298099999999,37.757794000000004],[-122.47333200000001,37.756817],[-122.473363,37.75612999999999],[-122.472997,37.75567300000001],[-122.47263800000002,37.755417],[-122.472127,37.754647],[-122.472157,37.753758],[-122.472333,37.75312799999999],[-122.47182199999999,37.752586999999984],[-122.47140400000002,37.752313],[-122.476032,37.74013200000001],[-122.474844,37.738441],[-122.47567499999998,37.738544999999995],[-122.47878800000001,37.738153],[-122.48018400000001,37.738057],[-122.481176,37.73779],[-122.48245000000001,37.73716799999999],[-122.48320499999998,37.737023],[-122.48373899999999,37.73705799999999],[-122.48452500000002,37.737413],[-122.48499,37.737481],[-122.48545600000001,37.737371],[-122.486967,37.73676],[-122.487668,37.73660799999999],[-122.488866,37.736722],[-122.490049,37.737046],[-122.49019399999999,37.73669499999999],[-122.48992700000001,37.73596299999999],[-122.48933200000002,37.735639],[-122.488653,37.735437000000005],[-122.487691,37.73538700000001],[-122.486837,37.735547],[-122.48616499999999,37.735536],[-122.485891,37.73544000000001],[-122.485807,37.735116],[-122.486097,37.73458599999999],[-122.48718000000001,37.73382300000001],[-122.488775,37.733369],[-122.49142200000001,37.732438],[-122.494077,37.732445999999996],[-122.497053,37.733216999999996],[-122.49741899999998,37.732881000000006],[-122.49745,37.73267499999999],[-122.496992,37.73216],[-122.49684700000002,37.731946],[-122.496885,37.731846999999995],[-122.49809000000002,37.731526999999986],[-122.49849500000002,37.731313],[-122.49866999999999,37.730958],[-122.498548,37.729951],[-122.49899099999999,37.73073300000001],[-122.499296,37.730706999999995],[-122.501028,37.72883799999999],[-122.50134800000001,37.728323],[-122.50181400000001,37.727232],[-122.501799,37.726938],[-122.501524,37.726808],[-122.50100500000002,37.726873],[-122.50095200000001,37.726457],[-122.500677,37.72607999999999],[-122.500593,37.725729],[-122.501524,37.725954],[-122.50203500000002,37.725851],[-122.502325,37.72556099999999],[-122.502325,37.72508800000001],[-122.501715,37.724172],[-122.50099000000002,37.722177],[-122.499365,37.720499000000004],[-122.49832700000002,37.719210000000004],[-122.498465,37.718591999999994],[-122.49906000000001,37.71810299999998],[-122.499113,37.717539],[-122.498663,37.71707],[-122.497954,37.716581000000005],[-122.496367,37.715898999999986],[-122.495924,37.715464000000004],[-122.495428,37.71438799999999],[-122.494635,37.71357199999999],[-122.49413099999998,37.712095999999995],[-122.49371900000001,37.711473999999995],[-122.492895,37.710722],[-122.492735,37.710394],[-122.492819,37.71001699999999],[-122.493239,37.70933],[-122.493376,37.708665999999994],[-122.493811,37.708128],[-122.493834,37.70794099999999],[-122.493597,37.707449],[-122.49433,37.706613999999995],[-122.494261,37.70623599999999],[-122.49387200000001,37.705596],[-122.49395600000001,37.705145],[-122.49415400000001,37.704817],[-122.49388700000002,37.70414199999999],[-122.49396400000002,37.70377200000001],[-122.49584100000001,37.702155],[-122.49631625087277,37.70088656077045]],[[-122.511267,37.776835999999996],[-122.510603,37.77515],[-122.51019900000001,37.77482599999999],[-122.50979400000001,37.77481800000001],[-122.509771,37.775276000000005],[-122.509939,37.775596],[-122.510878,37.776607],[-122.511267,37.776835999999996]],[[-122.485875,37.749817],[-122.485799,37.748429],[-122.48544,37.748859999999986],[-122.48544,37.748772],[-122.485028,37.74856199999999],[-122.48377,37.748627000000006],[-122.48377,37.748444],[-122.48364000000001,37.74833399999999],[-122.48348000000001,37.748307],[-122.48328899999998,37.748429],[-122.482938,37.748135000000005],[-122.48203,37.74795999999999],[-122.481488,37.74762],[-122.48119800000002,37.746644],[-122.480786,37.746464],[-122.47958900000002,37.74675],[-122.479192,37.747216],[-122.47923800000001,37.747635],[-122.47945900000002,37.747856999999996],[-122.48090799999999,37.74798599999999],[-122.481618,37.748414],[-122.48183899999998,37.748833],[-122.48180100000002,37.74920300000001],[-122.48209900000002,37.751450000000006],[-122.482022,37.75144999999999],[-122.481954,37.75182000000001],[-122.481992,37.75199200000001],[-122.48221300000002,37.75219],[-122.483007,37.752217],[-122.483686,37.75212899999999],[-122.484983,37.751862],[-122.485814,37.751488],[-122.485936,37.751305],[-122.485974,37.750847],[-122.48570000000001,37.750153],[-122.485875,37.749817]],[[-122.502088,37.73426599999999],[-122.502172,37.733911],[-122.501989,37.733830999999995],[-122.501463,37.73399499999999],[-122.50133300000002,37.73412499999999],[-122.502165,37.734636],[-122.50223300000002,37.734520999999994],[-122.502088,37.73426599999999]],[[-122.49930400000001,37.73252600000001],[-122.499044,37.732812],[-122.49944799999999,37.73305599999999],[-122.49944100000002,37.73259899999999],[-122.49930400000001,37.73252600000001]],[[-122.484716,37.78946599999999],[-122.48476899999999,37.79024],[-122.485113,37.790813],[-122.48538699999999,37.790411999999996],[-122.485914,37.790061],[-122.484716,37.78946599999999]],[[-122.51193100000002,37.77971200000001],[-122.51212900000002,37.77935000000001],[-122.512701,37.77904899999999],[-122.512572,37.778709],[-122.512396,37.778560000000006],[-122.511748,37.778652],[-122.511496,37.778823],[-122.51142,37.778999000000006],[-122.51129,37.78063200000001],[-122.511366,37.780803000000006],[-122.511656,37.781001999999994],[-122.511801,37.781002],[-122.51197699999999,37.780826],[-122.51193100000002,37.77971200000001]],[[-122.49236100000002,37.778575999999994],[-122.49232200000002,37.778090999999996],[-122.49195600000002,37.777832000000004],[-122.49080399999998,37.77738200000001],[-122.48989600000002,37.777129999999985],[-122.48964500000001,37.77715999999999],[-122.489217,37.77747299999999],[-122.48920200000002,37.777893],[-122.490346,37.778960999999995],[-122.490781,37.779041],[-122.491682,37.77901],[-122.492078,37.778892000000006],[-122.49236100000002,37.778575999999994]]],[[[-122.484274,37.70824700000001],[-122.483824,37.707819],[-122.483137,37.707388],[-122.484167,37.707300999999994],[-122.484389,37.70720499999999],[-122.484526,37.70684700000001],[-122.484495,37.706461],[-122.48419799999999,37.705592],[-122.483954,37.705228999999996],[-122.483504,37.70368799999999],[-122.48353400000002,37.703058999999996],[-122.48329514890435,37.70096582706037],[-122.48420129650633,37.70096363765506],[-122.485152,37.702853000000005],[-122.4849,37.703085],[-122.484785,37.70335300000001],[-122.485121,37.70392499999999],[-122.485144,37.70429099999999],[-122.48557900000002,37.70510699999999],[-122.485556,37.706244],[-122.48582299999998,37.70693099999999],[-122.485731,37.70785399999999],[-122.48583,37.70821999999999],[-122.485968,37.708357],[-122.487265,37.708727],[-122.487814,37.70907400000001],[-122.488325,37.71009699999999],[-122.488226,37.71093199999999],[-122.487547,37.70958900000001],[-122.48708900000001,37.709112],[-122.48638700000001,37.70880699999999],[-122.486067,37.708735],[-122.485846,37.708784],[-122.485533,37.70903599999999],[-122.48557100000001,37.70962],[-122.48487700000001,37.70937200000001],[-122.484739,37.70923799999999],[-122.484274,37.70824700000001]]],[[[-122.51440299999999,37.77987999999999],[-122.514424,37.78000399999999],[-122.51434300000001,37.780125],[-122.514327,37.77997899999998],[-122.51440299999999,37.77987999999999]]],[[[-122.392694,37.706086000000006],[-122.392622,37.705563],[-122.392406,37.705271],[-122.392348,37.704911],[-122.39309499999999,37.70294199999999],[-122.393072,37.702208999999996],[-122.3928423145705,37.70107373054847],[-122.39516391375494,37.7011100949851],[-122.394184,37.704316],[-122.393701,37.706356],[-122.393315,37.706052],[-122.393071,37.706308],[-122.392903,37.706308],[-122.392694,37.706086000000006]]],[[[-122.477339,37.71368999999999],[-122.479261,37.71390299999999],[-122.48022300000001,37.713846],[-122.48113800000002,37.713633],[-122.48187100000001,37.713732],[-122.48525799999999,37.713797],[-122.485762,37.713862],[-122.48573899999998,37.71409400000001],[-122.485891,37.714288999999994],[-122.482756,37.714396],[-122.481092,37.714167],[-122.480017,37.71459399999999],[-122.47953599999998,37.714659],[-122.477919,37.714296000000004],[-122.477209,37.714414999999995],[-122.476354,37.714762],[-122.476057,37.714665999999994],[-122.475195,37.714040999999995],[-122.474417,37.713204999999995],[-122.476156,37.713301],[-122.477339,37.71368999999999]]],[[[-122.38339400000001,37.720284],[-122.381909,37.71938000000001],[-122.381366,37.71879],[-122.381069,37.718663],[-122.380856,37.718801],[-122.380594,37.718807],[-122.379741,37.71831000000001],[-122.37992800000002,37.71797499999999],[-122.37982,37.71784799999999],[-122.37923,37.71782300000001],[-122.376321,37.716253],[-122.37620000000001,37.71610799999999],[-122.37741200000002,37.71441599999999],[-122.37878800000001,37.713231],[-122.37968900000001,37.71212500000001],[-122.380059,37.711461],[-122.380123,37.71104299999999],[-122.380048,37.710685999999995],[-122.37885700000001,37.70997700000001],[-122.378667,37.709623],[-122.37831300000002,37.709284],[-122.37831300000002,37.708896],[-122.378025,37.708686],[-122.377865,37.70865199999999],[-122.37699200000002,37.708954999999996],[-122.376385,37.709707],[-122.37609800000001,37.709754999999994],[-122.37558400000002,37.70966599999999],[-122.37464499999999,37.709066],[-122.37446200000001,37.70874900000001],[-122.37598199999998,37.708393999999984],[-122.378931,37.708494],[-122.37935500000002,37.708428000000005],[-122.380441,37.708800000000004],[-122.38204500000002,37.708966999999994],[-122.38237200000002,37.709123],[-122.384681,37.709334000000005],[-122.38531900000001,37.709599000000004],[-122.38576900000001,37.710119],[-122.386143,37.71022200000001],[-122.38650200000001,37.710069000000004],[-122.386738,37.709798],[-122.388112,37.708817999999994],[-122.389042,37.70918799999999],[-122.38959900000002,37.70962699999998],[-122.38980499999998,37.709649999999996],[-122.390362,37.709318],[-122.39057600000001,37.70932100000001],[-122.39154,37.70967900000001],[-122.392297,37.70914999999999],[-122.39194700000002,37.709783],[-122.39156000000001,37.710030999999994],[-122.391507,37.70981400000001],[-122.39111000000001,37.710229000000005],[-122.389668,37.710561],[-122.38923300000002,37.71045399999999],[-122.388958,37.710637],[-122.388554,37.71063000000001],[-122.38740200000001,37.711015],[-122.38687600000002,37.71146900000001],[-122.385388,37.71238499999999],[-122.38522,37.71265199999999],[-122.38478499999998,37.712926],[-122.384617,37.713528999999994],[-122.384899,37.71390999999999],[-122.38523500000001,37.713914],[-122.38555600000001,37.71412399999999],[-122.385914,37.71416599999999],[-122.386242,37.714673],[-122.38683700000001,37.714932999999995],[-122.38713500000001,37.7152],[-122.38820100000001,37.71677700000001],[-122.387493,37.719201999999996],[-122.38592200000001,37.719476],[-122.385136,37.720143],[-122.384884,37.72026199999999],[-122.38437300000001,37.720315],[-122.384182,37.720555000000004],[-122.38429700000002,37.720815],[-122.385098,37.72077699999999],[-122.385762,37.721044],[-122.386726,37.721832],[-122.38613199999999,37.723727999999994],[-122.385449,37.72338200000001],[-122.38375499999998,37.722249000000005],[-122.382794,37.721748999999996],[-122.38277800000002,37.721552],[-122.38339400000001,37.720632],[-122.38339400000001,37.720284]]],[[[-122.47776600000002,37.724270999999995],[-122.47872700000002,37.724329],[-122.480665,37.724249],[-122.48233600000002,37.72446199999999],[-122.483122,37.724897],[-122.483404,37.724954],[-122.485326,37.726369],[-122.4848,37.726926],[-122.48424299999999,37.726839],[-122.48328899999998,37.726141000000005],[-122.48266400000001,37.725854],[-122.479215,37.724958],[-122.47752900000002,37.72485499999999],[-122.47495000000002,37.72375600000001],[-122.476263,37.72388200000001],[-122.47776600000002,37.724270999999995]]],[[[-122.482267,37.727697],[-122.482458,37.727525],[-122.48294600000001,37.727562999999996],[-122.484968,37.72851699999999],[-122.48520400000001,37.72854],[-122.485899,37.728349],[-122.48600500000002,37.72871899999999],[-122.484914,37.729268],[-122.483404,37.72934500000001],[-122.48336600000002,37.729206999999995],[-122.484007,37.728891],[-122.484052,37.728677000000005],[-122.48390000000002,37.72858900000001],[-122.48296099999999,37.728486],[-122.482717,37.728364],[-122.482519,37.72820399999999],[-122.482267,37.727697]]],[[[-122.410176,37.736592],[-122.40899300000001,37.737462],[-122.40858100000001,37.738026000000005],[-122.407383,37.738983999999995],[-122.407254,37.73927],[-122.40733,37.739739],[-122.40793300000001,37.739922],[-122.408009,37.740154999999994],[-122.406445,37.741509],[-122.406231,37.741966999999995],[-122.406127,37.742577],[-122.40400000000001,37.74013200000001],[-122.408931,37.735729000000006],[-122.411913,37.73516000000001],[-122.411648,37.735550999999994],[-122.41045799999999,37.736000999999995],[-122.410176,37.736592]]],[[[-122.387536,37.77674],[-122.387352,37.776601],[-122.38731200000001,37.776366999999986],[-122.387144,37.776361],[-122.38709600000001,37.77614599999999],[-122.38521899999999,37.776333999999984],[-122.38508999999999,37.775335],[-122.38698700000002,37.775144],[-122.386931,37.774364999999996],[-122.381831,37.77465],[-122.381533,37.77192599999999],[-122.38179,37.771892],[-122.38462200000001,37.77334299999999],[-122.38493,37.773403999999985],[-122.38676800000002,37.773289],[-122.386604,37.77284800000001],[-122.38676800000002,37.772791],[-122.386604,37.772129],[-122.38644,37.771939],[-122.386488,37.77174099999999],[-122.385959,37.771011],[-122.385881,37.770705],[-122.38577700000002,37.770726],[-122.385768,37.771857999999995],[-122.38558900000001,37.77191100000001],[-122.38568,37.77144500000001],[-122.385574,37.771437],[-122.385433,37.771662000000006],[-122.385433,37.77148],[-122.385717,37.770635000000006],[-122.38367900000001,37.769896],[-122.38364000000001,37.769553],[-122.38370500000002,37.76948],[-122.38533399999999,37.77025],[-122.38562200000001,37.770216],[-122.38508199999998,37.768885999999995],[-122.385047,37.768516999999996],[-122.385362,37.767873000000016],[-122.385381,37.767447000000004],[-122.38526700000001,37.767268],[-122.385383,37.767104999999994],[-122.38566000000002,37.767076999999986],[-122.38566100000001,37.766836],[-122.38580200000001,37.76681899999999],[-122.385947,37.766283],[-122.38643299999998,37.765701],[-122.38654,37.765132],[-122.38644,37.764454],[-122.386623,37.764378],[-122.386599,37.76427699999999],[-122.38688,37.76388],[-122.386575,37.76689],[-122.39019700000001,37.76699500000001],[-122.396667,37.770496],[-122.39959499999999,37.77053699999999],[-122.401951,37.773465],[-122.398812,37.775609999999986],[-122.396667,37.77533300000001],[-122.392994,37.777136999999996],[-122.390166,37.777184999999996],[-122.39029399999998,37.77714000000001],[-122.389929,37.776904],[-122.390112,37.776506],[-122.389932,37.776614],[-122.387536,37.77674]]],[[[-122.46146099999999,37.797854],[-122.462537,37.79681999999999],[-122.46293400000002,37.796675],[-122.46314799999999,37.79644299999999],[-122.463575,37.79621399999999],[-122.464261,37.79595100000001],[-122.464365,37.79578399999999],[-122.46997200000001,37.79957199999999],[-122.469419,37.80013900000001],[-122.469274,37.80065399999999],[-122.469892,37.80076499999999],[-122.47030899999999,37.80064399999999],[-122.470289,37.801915],[-122.46943400000002,37.80214200000001],[-122.469274,37.802298],[-122.46755,37.802886],[-122.467962,37.803148999999976],[-122.46905300000002,37.804434],[-122.46935000000002,37.80580799999999],[-122.47021299999999,37.80674],[-122.47128700000002,37.808735],[-122.470319,37.80836300000001],[-122.469488,37.807865],[-122.468872,37.80703599999999],[-122.467855,37.80651600000001],[-122.467266,37.80600799999999],[-122.46674499999999,37.80581000000001],[-122.466238,37.805193],[-122.464429,37.804884],[-122.463003,37.80491399999999],[-122.46222600000002,37.805017],[-122.461748,37.80494800000001],[-122.459765,37.805284],[-122.457433,37.80546],[-122.45570100000002,37.80584199999999],[-122.453794,37.806078],[-122.45039900000002,37.806211999999995],[-122.44928500000002,37.806673],[-122.44833399999999,37.806881],[-122.44755300000001,37.807314000000005],[-122.446508,37.80749],[-122.44452399999999,37.807581],[-122.444127,37.80755500000001],[-122.444039,37.807432999999996],[-122.44748400000002,37.80646599999999],[-122.447401,37.805887],[-122.447195,37.805407],[-122.44250900000002,37.806013],[-122.44252999999999,37.80653099999999],[-122.44261700000001,37.806596],[-122.443168,37.80653699999999],[-122.443143,37.806647],[-122.44146700000002,37.80691499999999],[-122.44018599999998,37.80697200000001],[-122.443255,37.80338600000001],[-122.44666700000002,37.798038],[-122.44669799999998,37.79872399999999],[-122.44738500000001,37.798804000000004],[-122.449338,37.799258],[-122.45184099999999,37.80067699999999],[-122.452382,37.800729999999994],[-122.45267199999999,37.800673],[-122.453031,37.800383000000004],[-122.45342000000001,37.79949800000001],[-122.453412,37.798667],[-122.454259,37.797961],[-122.454931,37.79868599999998],[-122.45464799999999,37.800089],[-122.454732,37.800921],[-122.45487699999998,37.801176999999996],[-122.45541900000002,37.80151999999999],[-122.455671,37.801577],[-122.45757800000001,37.80168],[-122.45825699999999,37.799761],[-122.45911899999999,37.799066999999994],[-122.459264,37.79843799999998],[-122.45947800000002,37.798152],[-122.460119,37.797689999999996],[-122.460485,37.79754500000001],[-122.46059200000002,37.79725900000001],[-122.46087400000002,37.796943],[-122.461019,37.79693900000001],[-122.46124,37.797109999999996],[-122.461347,37.797713],[-122.46146099999999,37.797854]],[[-122.46453599999998,37.802092],[-122.46334600000002,37.80163799999998],[-122.462636,37.801084999999986],[-122.462636,37.80099700000001],[-122.46281199999999,37.800769],[-122.465337,37.800444],[-122.465955,37.800269],[-122.46616900000001,37.800124],[-122.466527,37.799491],[-122.466482,37.79883499999999],[-122.465864,37.798438000000004],[-122.464788,37.798583],[-122.46424600000002,37.79875799999999],[-122.462911,37.799453],[-122.46230100000001,37.79962400000001],[-122.461835,37.799628],[-122.461576,37.799544000000004],[-122.461141,37.79905999999999],[-122.46059899999999,37.799262],[-122.45970700000001,37.80004],[-122.459165,37.800672999999996],[-122.45877600000001,37.801276000000016],[-122.45850899999999,37.802035],[-122.458814,37.802222],[-122.460691,37.80203899999999],[-122.46145400000002,37.802352],[-122.461996,37.802461999999984],[-122.46207200000002,37.80260700000001],[-122.46239200000001,37.802718],[-122.46319299999999,37.80282799999999],[-122.46391100000001,37.802767],[-122.46449000000001,37.80288199999998],[-122.464887,37.802763999999996],[-122.465116,37.80255],[-122.46453599999998,37.802092]],[[-122.44846099999998,37.80289699999999],[-122.448644,37.80269500000001],[-122.44858300000001,37.802424],[-122.448278,37.802209999999995],[-122.447591,37.801959000000004],[-122.44730100000001,37.802186999999996],[-122.44730900000002,37.803103],[-122.447454,37.803645],[-122.447675,37.80384699999999],[-122.448285,37.80381599999999],[-122.44872,37.80343899999999],[-122.44875100000002,37.803183],[-122.44842999999999,37.80309899999999],[-122.44846099999998,37.80289699999999]]],[[[-122.42042999999998,37.853902],[-122.41990530533816,37.853382527178056],[-122.42047042302815,37.85339276135493],[-122.42143,37.85401200000001],[-122.42095700000002,37.854035],[-122.42042999999998,37.853902]]],[[[-122.362789,37.723358999999995],[-122.360058,37.721654],[-122.36029999999998,37.72140099999999],[-122.363056,37.72303499999999],[-122.363918,37.72217599999999],[-122.35924500000002,37.71943],[-122.359175,37.719290999999984],[-122.359977,37.718525000000014],[-122.362789,37.720143],[-122.36375799999999,37.71906700000001],[-122.36262900000001,37.718422999999994],[-122.36274300000001,37.71826599999999],[-122.358661,37.715879],[-122.358763,37.715782],[-122.36269,37.71808300000001],[-122.36392599999999,37.716744],[-122.359991,37.71447],[-122.36011,37.71437499999999],[-122.36400100000002,37.716617],[-122.364389,37.716314],[-122.36457400000002,37.716481],[-122.36480300000001,37.716528999999994],[-122.36534000000002,37.71587000000001],[-122.36575700000002,37.716004000000005],[-122.365948,37.71608799999999],[-122.36641299999998,37.716828],[-122.36774799999999,37.717698],[-122.36954099999998,37.717908],[-122.36983100000002,37.718083],[-122.370121,37.71851100000001],[-122.370586,37.71878499999999],[-122.371797,37.71901600000001],[-122.372563,37.71902299999999],[-122.37375300000001,37.718892000000004],[-122.37413400000001,37.71897999999999],[-122.37427200000002,37.71963600000001],[-122.37557600000001,37.720693],[-122.375637,37.72109700000001],[-122.375958,37.72174199999999],[-122.375927,37.722405],[-122.376019,37.722676],[-122.37647600000001,37.72329],[-122.37673700000002,37.723445],[-122.37668999999998,37.723805],[-122.377049,37.72426699999999],[-122.37809400000002,37.72410300000001],[-122.379002,37.72383599999999],[-122.379429,37.72328999999999],[-122.379468,37.723041999999985],[-122.379813,37.722975],[-122.37983000000001,37.72277999999999],[-122.380085,37.722588],[-122.38038300000001,37.72198999999999],[-122.38075100000002,37.721812],[-122.38109100000001,37.721846],[-122.38176700000001,37.722212999999996],[-122.38274599999998,37.722505],[-122.38378999999999,37.72313100000001],[-122.38401200000001,37.723493999999995],[-122.38451499999998,37.723651],[-122.38518000000002,37.72411499999999],[-122.38589200000001,37.72425900000001],[-122.384306,37.727771],[-122.383869,37.727849000000006],[-122.383045,37.727883],[-122.380345,37.727711],[-122.378765,37.727463],[-122.377606,37.727101],[-122.37694199999999,37.72733399999999],[-122.37611000000001,37.727463],[-122.37482800000001,37.727318000000004],[-122.374531,37.7272],[-122.37417999999998,37.72719599999999],[-122.373196,37.726654999999994],[-122.37255499999999,37.72643],[-122.37204400000002,37.72655199999999],[-122.37134899999998,37.727147],[-122.370983,37.72704399999999],[-122.370007,37.726441],[-122.36941100000001,37.726273],[-122.36851900000002,37.72655899999999],[-122.368244,37.726566999999996],[-122.366756,37.72614],[-122.36591000000001,37.726609],[-122.36475,37.727879],[-122.36436100000002,37.728447],[-122.36439100000001,37.72891700000001],[-122.364826,37.728978],[-122.36639,37.72893599999999],[-122.36821400000001,37.72981699999999],[-122.36859500000001,37.730076],[-122.368824,37.730411999999994],[-122.369335,37.730317],[-122.370182,37.729878],[-122.370533,37.729867000000006],[-122.37134899999998,37.73003799999999],[-122.372631,37.730477],[-122.37324899999999,37.730546],[-122.37365300000002,37.730702],[-122.374105,37.73105699999999],[-122.371867,37.731998000000004],[-122.37106000000001,37.733383999999994],[-122.370844,37.73323599999999],[-122.370594,37.733274],[-122.37077100000002,37.733167],[-122.36959100000001,37.732409],[-122.36961000000001,37.732237],[-122.369388,37.73203899999999],[-122.368758,37.731973],[-122.3686,37.73203899999999],[-122.3686,37.73215599999999],[-122.36835,37.732259000000006],[-122.367609,37.73193599999998],[-122.36742400000001,37.73193599999998],[-122.36677,37.73234899999999],[-122.365651,37.731621999999994],[-122.364846,37.732603999999995],[-122.365177,37.732167],[-122.363745,37.73144700000001],[-122.363732,37.73133599999999],[-122.362936,37.73223600000001],[-122.362736,37.732106],[-122.36349100000001,37.731236],[-122.36286900000002,37.730844],[-122.362072,37.73172900000001],[-122.36186,37.731619],[-122.362667,37.730782],[-122.362074,37.730386],[-122.36214800000002,37.730275],[-122.36202599999999,37.730235],[-122.362067,37.73015999999999],[-122.3611,37.730084],[-122.36091100000002,37.729988],[-122.360721,37.730145],[-122.36070700000002,37.730296],[-122.360013,37.730383999999994],[-122.358953,37.729857],[-122.359043,37.729671999999994],[-122.36229300000001,37.728874999999995],[-122.36232000000001,37.728602999999985],[-122.362171,37.728500999999994],[-122.35777999999999,37.729475],[-122.35757099999998,37.729329],[-122.357883,37.7291],[-122.359318,37.72879799999999],[-122.36031700000001,37.728489],[-122.360453,37.728339],[-122.36042499999999,37.72819999999999],[-122.35998,37.728229000000006],[-122.357285,37.728837],[-122.35704400000002,37.728698],[-122.357761,37.726365],[-122.35795999999999,37.726182],[-122.36168999999998,37.72526200000001],[-122.36131000000002,37.724214],[-122.35796999999998,37.72499499999999],[-122.357872,37.724681],[-122.361447,37.72393100000001],[-122.361918,37.724278000000005],[-122.362066,37.72423500000001],[-122.36487,37.726099000000005],[-122.36512400000001,37.726068000000005],[-122.365168,37.725918],[-122.36506999999999,37.725772],[-122.36529899999998,37.72578100000001],[-122.36539100000002,37.72570099999999],[-122.365231,37.725445],[-122.362446,37.723774999999996],[-122.36271999999998,37.723503],[-122.362789,37.723358999999995]],[[-122.38231300000001,37.725411],[-122.382633,37.725854],[-122.38294600000002,37.72605200000001],[-122.383549,37.72612099999999],[-122.384106,37.72591099999999],[-122.38400699999998,37.725201],[-122.38375499999998,37.724942000000006],[-122.383381,37.72478900000001],[-122.38318300000002,37.72474399999999],[-122.38273300000002,37.724858000000005],[-122.38249600000002,37.724778],[-122.38212999999999,37.72480500000001],[-122.38231300000001,37.725411]]],[[[-122.36759200000002,37.738223],[-122.36832499999998,37.738081],[-122.368172,37.73834399999999],[-122.367573,37.738369999999996],[-122.36759200000002,37.738223]]],[[[-122.376151,37.752114],[-122.37603200000001,37.751143],[-122.378026,37.752075999999995],[-122.37682700000002,37.75213599999999],[-122.376151,37.752114]]],[[[-122.38297700000001,37.75444799999998],[-122.38291,37.75371899999998],[-122.38304600000001,37.753752],[-122.38325599999999,37.754552999999994],[-122.38297700000001,37.75444799999998]]],[[[-122.380795,37.76049400000001],[-122.380543,37.760536],[-122.380741,37.762668],[-122.38070000000002,37.76325599999998],[-122.380396,37.760223999999994],[-122.37952,37.760285],[-122.379789,37.763511],[-122.37953900000001,37.76351799999999],[-122.379231,37.759973],[-122.38109,37.759837],[-122.381301,37.759792],[-122.38127199999998,37.759594],[-122.38134900000001,37.759594],[-122.38128600000002,37.759343999999984],[-122.38145100000001,37.75859],[-122.38137400000001,37.758163],[-122.381512,37.75755999999999],[-122.381423,37.757465],[-122.381301,37.75594099999999],[-122.38103100000001,37.75580399999999],[-122.38096200000001,37.755272],[-122.38338,37.75502199999999],[-122.383468,37.75535599999999],[-122.383381,37.755419999999994],[-122.38339600000002,37.75597699999999],[-122.384113,37.757663],[-122.38419,37.758953],[-122.384632,37.75938],[-122.385046,37.759508],[-122.38646599999998,37.762719],[-122.38595199999999,37.763214],[-122.38562400000002,37.763271],[-122.38544100000001,37.763102999999994],[-122.385296,37.76247400000001],[-122.38473599999999,37.762145000000004],[-122.38430300000002,37.762167],[-122.38441400000002,37.763332000000005],[-122.38411100000002,37.762266],[-122.38327300000002,37.762327],[-122.383302,37.762548],[-122.383633,37.76249500000001],[-122.383686,37.76284400000001],[-122.38372400000002,37.76391900000001],[-122.383457,37.764022],[-122.38334300000001,37.76400700000001],[-122.38327,37.76384],[-122.383129,37.762471999999995],[-122.38235,37.76248699999999],[-122.38250500000001,37.76433099999999],[-122.38234299999999,37.76434999999999],[-122.382138,37.762429999999995],[-122.381907,37.76243],[-122.38188900000002,37.762629],[-122.38171800000002,37.762603],[-122.381672,37.76282800000001],[-122.38166,37.764629],[-122.381252,37.764629],[-122.38096200000001,37.76080699999999],[-122.38093199999999,37.76060799999999],[-122.380795,37.76049400000001]]],[[[-122.38681,37.763495999999996],[-122.386669,37.763297],[-122.386669,37.763179],[-122.38681,37.763495999999996]]],[[[-122.384698,37.766686],[-122.38470800000002,37.766747],[-122.384332,37.766845999999994],[-122.384101,37.76680799999998],[-122.384082,37.766975000000016],[-122.38369700000001,37.76692999999999],[-122.383611,37.76701399999999],[-122.38336100000001,37.767024],[-122.383293,37.76695999999999],[-122.38358200000002,37.766884],[-122.38358200000002,37.766755],[-122.384698,37.766686]]],[[[-122.384098,37.767661],[-122.38491900000001,37.76756099999999],[-122.384939,37.767455],[-122.385044,37.767447],[-122.385044,37.76766799999999],[-122.384178,37.76772900000001],[-122.38411100000002,37.767835],[-122.384098,37.767661]]],[[[-122.38438799999999,37.768031],[-122.384765,37.767995],[-122.384804,37.768063000000005],[-122.384647,37.768085000000006],[-122.38438799999999,37.768031]]],[[[-122.36136200000001,37.80842799999999],[-122.36166,37.80884300000001],[-122.36152100000001,37.80915300000001],[-122.36116100000001,37.808793],[-122.36114900000001,37.80819100000001],[-122.361294,37.808164000000005],[-122.36136200000001,37.80842799999999]]],[[[-122.372053,37.81159000000001],[-122.37167800000002,37.81285599999999],[-122.371533,37.81221899999999],[-122.37163900000002,37.811803999999995],[-122.37195200000001,37.811247],[-122.372418,37.811182],[-122.37219200000001,37.811322],[-122.372053,37.81159000000001]]],[[[-122.369763,37.81304300000001],[-122.369756,37.813215],[-122.369126,37.812755],[-122.369595,37.812813999999996],[-122.369763,37.81304300000001]]],[[[-122.370432,37.814208],[-122.37006000000001,37.81355800000001],[-122.37090699999999,37.813630999999994],[-122.371403,37.813448],[-122.371632,37.81326099999999],[-122.371662,37.81349300000001],[-122.371365,37.81366499999999],[-122.37125,37.815099],[-122.374699,37.820188],[-122.374841,37.820257000000005],[-122.374905,37.820466999999994],[-122.37666,37.822846999999996],[-122.37911199999999,37.826645],[-122.379093,37.82703399999999],[-122.37842199999999,37.82871199999999],[-122.37649100000002,37.82697400000001],[-122.37333299999999,37.82346499999999],[-122.36828500000001,37.81715499999999],[-122.37112300000001,37.815999000000005],[-122.37058299999998,37.81483],[-122.370432,37.814208]]]]},"properties":{"cls":1,"src":1}},{"type":"Feature","geometry":{"type":"MultiPolygon","coordinates":[[[[-122.46977,37.741879],[-122.47045600000001,37.74086499999999],[-122.47147900000002,37.739793],[-122.473363,37.738693999999995],[-122.474439,37.738358],[-122.474844,37.738441],[-122.476032,37.74013200000001],[-122.47140400000002,37.752313],[-122.471135,37.751961],[-122.47105900000001,37.75150299999999],[-122.47118800000001,37.750821],[-122.471082,37.75028999999999],[-122.470685,37.749619],[-122.47038000000002,37.750077],[-122.470067,37.750038999999994],[-122.469914,37.749936],[-122.469808,37.749675999999994],[-122.469289,37.749405],[-122.468785,37.74878700000001],[-122.467854,37.748818],[-122.46761800000002,37.748974000000004],[-122.467503,37.749203],[-122.46753400000001,37.74993599999999],[-122.467984,37.75069499999999],[-122.46876200000001,37.751362],[-122.468968,37.752114],[-122.469296,37.75271300000001],[-122.470281,37.753537000000016],[-122.470357,37.75448299999999],[-122.470505,37.754785],[-122.469773,37.756797999999996],[-122.46949800000002,37.762964],[-122.463434,37.773464999999995],[-122.47082899999998,37.782636000000004],[-122.47432999999998,37.786608000000015],[-122.47456099999998,37.78788699999999],[-122.474714,37.788168999999996],[-122.475324,37.78862699999999],[-122.47569,37.788654],[-122.47593,37.78842300000001],[-122.477436,37.790132],[-122.47761900000002,37.792513],[-122.479531,37.791287000000004],[-122.479642,37.791495000000005],[-122.479612,37.791953],[-122.479185,37.79307500000001],[-122.479185,37.793361000000004],[-122.479444,37.793818],[-122.479696,37.794047],[-122.47991699999999,37.794101],[-122.480344,37.794101],[-122.480711,37.793899],[-122.48109999999998,37.79306299999999],[-122.481176,37.79249399999999],[-122.48308900000002,37.79494700000001],[-122.482458,37.796465999999995],[-122.481893,37.797328],[-122.48175600000002,37.797988],[-122.48168,37.797701999999994],[-122.481809,37.797168000000006],[-122.48171,37.79716],[-122.48164899999999,37.797],[-122.48193100000002,37.794397999999994],[-122.481443,37.796099999999996],[-122.48126799999999,37.797521999999994],[-122.48098500000002,37.798274],[-122.48070299999999,37.798593999999994],[-122.48043600000001,37.79860999999999],[-122.47965800000001,37.798114000000005],[-122.479116,37.798030000000004],[-122.478895,37.797801],[-122.47888699999999,37.797229],[-122.47842200000001,37.796859000000005],[-122.47759,37.796576],[-122.47682700000001,37.79658],[-122.47589599999999,37.796985],[-122.47552999999999,37.797332],[-122.475538,37.79761800000001],[-122.476369,37.798358],[-122.477094,37.798639999999985],[-122.477712,37.79918199999999],[-122.47782699999999,37.799639000000006],[-122.47764400000001,37.799955999999995],[-122.47692599999999,37.80033],[-122.47627800000001,37.79995999999999],[-122.475988,37.79999],[-122.47527100000002,37.80053999999999],[-122.47465300000002,37.800513],[-122.47421800000001,37.800345],[-122.473753,37.800402],[-122.47255499999999,37.80099700000001],[-122.471342,37.80147399999999],[-122.47095999999999,37.801801999999995],[-122.470289,37.801915],[-122.47030899999999,37.80064399999999],[-122.471403,37.800246],[-122.472097,37.799815],[-122.473234,37.798888],[-122.473516,37.79825499999999],[-122.473196,37.79802600000001],[-122.47276100000002,37.79803],[-122.471715,37.798323],[-122.470418,37.799132],[-122.46997200000001,37.79957199999999],[-122.464365,37.79578399999999],[-122.466489,37.794909],[-122.467718,37.79410099999999],[-122.468465,37.79335299999999],[-122.46939599999999,37.791862],[-122.4699,37.791456999999994],[-122.470472,37.791343],[-122.47090699999998,37.791137],[-122.470922,37.79020200000001],[-122.47190599999999,37.789149],[-122.47244000000002,37.788379],[-122.472608,37.787780000000005],[-122.472486,37.787456],[-122.47218100000002,37.78745599999999],[-122.471982,37.787635],[-122.47132600000002,37.787452],[-122.47067,37.78744400000001],[-122.470304,37.787501],[-122.47012800000002,37.787704],[-122.46951000000001,37.787307],[-122.468709,37.78728],[-122.46742000000002,37.78805799999999],[-122.46594000000002,37.788180000000004],[-122.464612,37.78887500000001],[-122.463453,37.78905400000001],[-122.463041,37.789355],[-122.461438,37.789634],[-122.46075200000001,37.789809],[-122.459783,37.79027500000001],[-122.45844800000002,37.790625999999996],[-122.457441,37.79077099999999],[-122.456685,37.791060000000016],[-122.456037,37.791465],[-122.455716,37.791781],[-122.45566299999999,37.792052000000005],[-122.45467100000002,37.79207499999999],[-122.454557,37.792018],[-122.45463300000002,37.79155599999999],[-122.45445000000001,37.79153000000001],[-122.45387,37.791877],[-122.45335100000001,37.79235],[-122.453008,37.79219299999999],[-122.45297000000001,37.791881],[-122.452863,37.79179299999999],[-122.45224500000002,37.791739],[-122.45188599999999,37.7918],[-122.45179500000002,37.7919],[-122.452001,37.79211299999999],[-122.452001,37.792373],[-122.451856,37.792514],[-122.45145900000001,37.79277299999999],[-122.450956,37.79280399999999],[-122.44994800000002,37.793155],[-122.44948300000001,37.793441],[-122.44948300000001,37.793555000000005],[-122.449262,37.793559],[-122.44842999999999,37.79318899999999],[-122.447377,37.792251],[-122.447377,37.791934000000005],[-122.44752200000002,37.79170499999999],[-122.448308,37.79098400000001],[-122.44971199999999,37.79014899999999],[-122.451512,37.789565],[-122.453786,37.789527],[-122.45544900000002,37.789747999999996],[-122.45609800000001,37.789691],[-122.456388,37.789573],[-122.45724200000001,37.78867999999999],[-122.45749400000001,37.78833699999999],[-122.457418,37.788135000000004],[-122.457273,37.788024],[-122.45622700000001,37.78771100000001],[-122.45435099999999,37.78749],[-122.453557,37.78729499999999],[-122.45315299999999,37.787237999999995],[-122.452214,37.78735600000001],[-122.450704,37.787738],[-122.450017,37.78799699999999],[-122.449231,37.78851600000001],[-122.44887300000002,37.788634],[-122.44768200000001,37.789439],[-122.44668300000001,37.790332],[-122.44589,37.79082400000001],[-122.445348,37.790999],[-122.444089,37.791289],[-122.441777,37.79147199999999],[-122.44003800000002,37.790877],[-122.43880900000002,37.790254999999995],[-122.438268,37.790141],[-122.437146,37.79020200000001],[-122.435742,37.79081200000001],[-122.434667,37.791788999999994],[-122.434422,37.79213599999999],[-122.434384,37.792421999999995],[-122.43417099999999,37.79247899999999],[-122.43337000000001,37.791709],[-122.43311,37.79102199999999],[-122.433179,37.79039300000001],[-122.43368199999999,37.789332],[-122.43370500000002,37.788241000000006],[-122.434392,37.78786699999999],[-122.434644,37.78755099999999],[-122.434461,37.78703600000001],[-122.43300300000001,37.78583799999999],[-122.430798,37.784904],[-122.43047,37.784678],[-122.429822,37.784479999999995],[-122.42764700000001,37.783057],[-122.426381,37.78269099999999],[-122.425694,37.782294],[-122.425008,37.782065],[-122.42439,37.781955],[-122.424031,37.781985],[-122.424031,37.78207299999999],[-122.423741,37.782188],[-122.42331400000002,37.78261899999999],[-122.423283,37.78342],[-122.423611,37.78407599999999],[-122.42444300000001,37.784934],[-122.42470200000001,37.78533500000001],[-122.424886,37.786277],[-122.424718,37.788054],[-122.424222,37.78914100000001],[-122.424275,37.79197999999999],[-122.42420699999998,37.792578],[-122.423779,37.793383],[-122.423787,37.794158],[-122.424115,37.79452799999999],[-122.42454200000002,37.794638],[-122.42555700000001,37.794467],[-122.42602200000002,37.79426099999999],[-122.426778,37.794172999999994],[-122.42902100000002,37.79427600000002],[-122.43039399999999,37.79461499999999],[-122.430936,37.794928],[-122.430867,37.795329],[-122.430653,37.795560999999985],[-122.429501,37.795877999999995],[-122.42849399999999,37.79642699999999],[-122.42777000000001,37.79666],[-122.42596900000001,37.796983999999995],[-122.42495400000001,37.79698799999999],[-122.424832,37.797095],[-122.42467199999999,37.797819999999994],[-122.42449700000002,37.798048999999985],[-122.42420699999998,37.798193],[-122.42352,37.798193],[-122.42277999999999,37.797663],[-122.42214700000001,37.79777],[-122.42204,37.79788799999999],[-122.421063,37.79798000000001],[-122.420163,37.79838000000001],[-122.419476,37.79841499999999],[-122.41908,37.7983],[-122.418248,37.797587],[-122.41763000000002,37.797621],[-122.41716500000001,37.797534],[-122.41676800000002,37.797282],[-122.41578400000002,37.79636599999999],[-122.41508200000001,37.79604199999999],[-122.41451700000002,37.79603099999999],[-122.413869,37.796317],[-122.41315100000001,37.796319999999994],[-122.41245,37.79574399999999],[-122.41241899999999,37.795065],[-122.41159500000002,37.795584],[-122.411198,37.79598899999999],[-122.409291,37.797083],[-122.407132,37.797835],[-122.40659,37.797881000000004],[-122.40571300000002,37.797766],[-122.40369100000001,37.79670600000001],[-122.403004,37.79659499999999],[-122.40250100000002,37.79662199999999],[-122.402035,37.79677099999999],[-122.40160000000002,37.79722799999999],[-122.401242,37.79777400000001],[-122.40103600000002,37.79860500000001],[-122.401074,37.799578000000004],[-122.401295,37.80041000000001],[-122.40155500000002,37.800608],[-122.40147800000001,37.800696],[-122.401593,37.801413],[-122.40184499999998,37.801783],[-122.402722,37.802611],[-122.403485,37.80386599999999],[-122.40392,37.804235999999996],[-122.40457599999999,37.804635999999995],[-122.405697,37.80497199999999],[-122.406529,37.805398999999994],[-122.406926,37.805712],[-122.40700199999999,37.80605499999999],[-122.407475,37.806540000000005],[-122.407872,37.806626999999985],[-122.408192,37.806509000000005],[-122.408772,37.806021],[-122.409016,37.805445],[-122.409772,37.805186],[-122.410351,37.804465],[-122.41052700000002,37.803664],[-122.410992,37.803144999999994],[-122.411023,37.802546],[-122.409756,37.801633999999986],[-122.40974900000002,37.801176],[-122.409421,37.800375],[-122.40941300000001,37.799086],[-122.40955,37.798628],[-122.41016099999999,37.797823],[-122.41106100000002,37.797019],[-122.41131300000002,37.796873999999995],[-122.411526,37.7969],[-122.411603,37.79741899999999],[-122.41138899999999,37.797961],[-122.41103,37.79833499999999],[-122.41082399999999,37.799426],[-122.41082399999999,37.79956700000001],[-122.41122099999998,37.800166],[-122.411481,37.800452],[-122.41264,37.801192],[-122.413945,37.801817],[-122.414227,37.801874],[-122.414487,37.802099999999996],[-122.414738,37.802561],[-122.414777,37.802958000000004],[-122.41503600000001,37.80358700000001],[-122.41528800000002,37.803988000000004],[-122.415509,37.804072000000005],[-122.416264,37.80395299999999],[-122.41648600000002,37.804068],[-122.41797299999999,37.805266],[-122.41924000000002,37.806635],[-122.41953,37.806833],[-122.419965,37.80685999999999],[-122.420071,37.806371999999996],[-122.420575,37.805739],[-122.420926,37.804995],[-122.42178800000002,37.804159000000006],[-122.422582,37.804072],[-122.42471000000002,37.802915999999996],[-122.42668600000002,37.80159200000001],[-122.427297,37.801302],[-122.428159,37.80115399999998],[-122.42786900000002,37.800580999999994],[-122.427174,37.799841],[-122.427106,37.799471],[-122.427319,37.799269],[-122.42807500000002,37.799264999999984],[-122.428441,37.799348999999985],[-122.429814,37.800459000000004],[-122.42992899999999,37.800889999999995],[-122.430287,37.801114999999996],[-122.43054700000002,37.80111499999999],[-122.430722,37.801001],[-122.43089800000001,37.800340999999996],[-122.430684,37.800169],[-122.43046300000002,37.799685],[-122.430425,37.799284],[-122.43067600000002,37.79908199999999],[-122.430928,37.79908200000001],[-122.43114200000001,37.799193],[-122.43176000000001,37.79985299999999],[-122.432126,37.799876],[-122.43314100000002,37.79964300000001],[-122.434308,37.799956],[-122.43456,37.80032200000001],[-122.434751,37.799994],[-122.435193,37.799741999999995],[-122.43576500000002,37.79975],[-122.43617000000002,37.79980299999999],[-122.43642099999998,37.799944],[-122.43678000000001,37.79994399999999],[-122.437177,37.799567],[-122.437238,37.798594],[-122.436803,37.79779700000001],[-122.43596400000001,37.796767],[-122.43584900000002,37.795882],[-122.436353,37.79539],[-122.436803,37.795203],[-122.437001,37.79521799999999],[-122.437505,37.795329],[-122.438268,37.795953999999995],[-122.438748,37.796698],[-122.439054,37.79759099999999],[-122.438901,37.79835799999999],[-122.438657,37.799215999999994],[-122.43807700000002,37.79999399999999],[-122.438123,37.800394999999995],[-122.438878,37.80033400000001],[-122.439275,37.80004399999998],[-122.43950399999999,37.799487],[-122.43995400000001,37.799295999999984],[-122.440457,37.799441],[-122.441037,37.79923500000001],[-122.44146500000001,37.798918],[-122.442006,37.798316],[-122.442403,37.798196999999995],[-122.44257800000001,37.79785400000001],[-122.442685,37.797166999999995],[-122.441991,37.796542],[-122.442166,37.795794],[-122.44234999999999,37.795649000000004],[-122.44405899999998,37.796037999999996],[-122.445417,37.795581],[-122.445813,37.795577],[-122.44635500000001,37.79588999999999],[-122.44653800000002,37.79614899999999],[-122.44669100000002,37.79692],[-122.44669100000002,37.79803400000001],[-122.443255,37.80338600000001],[-122.44018599999998,37.80697200000001],[-122.43777199999998,37.80727199999999],[-122.436071,37.807364],[-122.43569,37.807047],[-122.435646,37.80688299999999],[-122.43544300000002,37.806900999999996],[-122.43520099999999,37.80676499999999],[-122.43453700000002,37.806670000000004],[-122.434331,37.806509000000005],[-122.434224,37.806025],[-122.43366400000001,37.805594000000006],[-122.43264999999998,37.805733999999994],[-122.432548,37.805921999999995],[-122.43220799999999,37.80601599999999],[-122.432614,37.80849299999999],[-122.43234000000001,37.808462],[-122.432075,37.807251],[-122.43142700000001,37.807331000000005],[-122.431708,37.808636],[-122.431674,37.809078],[-122.431381,37.809114],[-122.43104000000001,37.8074],[-122.43062299999998,37.80741700000001],[-122.43034600000001,37.807478],[-122.430654,37.80914899999999],[-122.430225,37.80926199999999],[-122.42995,37.807878],[-122.42978199999999,37.807895],[-122.42966200000001,37.807032],[-122.428922,37.80628000000001],[-122.427777,37.806238],[-122.427129,37.806509],[-122.426724,37.807478],[-122.42606,37.807299],[-122.425541,37.806980999999986],[-122.424784,37.80668899999999],[-122.42430500000002,37.806627],[-122.423663,37.806713],[-122.422531,37.807349],[-122.421394,37.808193],[-122.421103,37.808553999999994],[-122.421136,37.808817],[-122.421413,37.809098],[-122.421386,37.80922299999999],[-122.42120700000001,37.809236999999996],[-122.42091899999998,37.80882299999999],[-122.420752,37.808842],[-122.42077700000002,37.80911],[-122.42068100000002,37.80902300000001],[-122.420484,37.80902900000001],[-122.420652,37.808845],[-122.42052799999999,37.80875399999999],[-122.420445,37.808313000000005],[-122.417924,37.808634],[-122.418005,37.808869],[-122.419797,37.808981],[-122.419802,37.809132999999996],[-122.418371,37.809096999999994],[-122.418304,37.80922999999999],[-122.41788299999999,37.80895799999998],[-122.41774599999998,37.80836699999999],[-122.417467,37.808384999999994],[-122.417377,37.80813999999999],[-122.416413,37.808308000000004],[-122.416334,37.80850399999999],[-122.416512,37.808581],[-122.41630400000001,37.808581],[-122.41629800000001,37.808911],[-122.41727099999999,37.80899300000001],[-122.417851,37.80953400000001],[-122.420247,37.811212999999995],[-122.42019200000001,37.811428],[-122.41895100000002,37.810822],[-122.418896,37.81086499999999],[-122.419169,37.811061],[-122.41909000000001,37.811133],[-122.419482,37.81144499999999],[-122.419347,37.811445000000006],[-122.419215,37.81158799999999],[-122.418998,37.81147200000001],[-122.41882899999999,37.811487],[-122.41538800000001,37.809171],[-122.415207,37.809231],[-122.41541599999998,37.809429],[-122.415098,37.809236],[-122.414807,37.809336],[-122.414789,37.809413],[-122.415287,37.809745],[-122.41518099999999,37.80983199999999],[-122.414608,37.80956499999999],[-122.413457,37.80925200000001],[-122.413384,37.80939599999999],[-122.41416000000001,37.809805000000004],[-122.41413600000001,37.81003400000001],[-122.413906,37.810036],[-122.41380200000002,37.809951],[-122.41388099999999,37.80987899999999],[-122.412651,37.809094],[-122.412403,37.809123],[-122.411924,37.809389],[-122.41286900000001,37.81052799999999],[-122.41273,37.810609],[-122.41141500000002,37.80904],[-122.41127,37.808939],[-122.410573,37.808848000000005],[-122.410531,37.809111],[-122.41041299999999,37.80916],[-122.410451,37.80936200000001],[-122.41127800000001,37.810857],[-122.41085499999998,37.811022],[-122.40940400000001,37.808778999999994],[-122.407949,37.808151],[-122.40763000000001,37.80824900000001],[-122.40749,37.80808999999999],[-122.40668,37.807848],[-122.406488,37.808061999999985],[-122.40682700000002,37.81005300000001],[-122.40622199999999,37.810108000000014],[-122.405989,37.80725699999999],[-122.40532600000002,37.806888],[-122.404385,37.80887400000001],[-122.404038,37.80870399999999],[-122.404725,37.807019999999994],[-122.403968,37.806597000000004],[-122.402788,37.80805699999999],[-122.40242399999998,37.80782099999998],[-122.403218,37.806902],[-122.403419,37.806521],[-122.40283700000002,37.80608099999999],[-122.40108,37.807579],[-122.40058599999999,37.807314000000005],[-122.40044,37.807188],[-122.40098299999998,37.80358399999999],[-122.40086599999998,37.80347199999999],[-122.40052500000002,37.80350500000001],[-122.39880200000002,37.804515],[-122.398648,37.804143999999994],[-122.399951,37.803288],[-122.39961000000001,37.80288699999999],[-122.397957,37.80379799999999],[-122.39785400000001,37.803716999999985],[-122.39778400000002,37.803385],[-122.39965200000002,37.802309],[-122.399731,37.80221399999999],[-122.39943200000002,37.801872],[-122.399216,37.801911],[-122.397243,37.803029],[-122.397015,37.80288899999999],[-122.396504,37.802176],[-122.39646600000002,37.801832000000005],[-122.398413,37.80072500000001],[-122.398014,37.800272],[-122.39602200000002,37.801404999999995],[-122.395741,37.80123399999999],[-122.39568600000001,37.801055],[-122.39768000000001,37.799905],[-122.39677900000001,37.798889],[-122.39627800000001,37.799079],[-122.396224,37.799003],[-122.39659599999999,37.79869099999999],[-122.395868,37.797945999999996],[-122.39566800000001,37.79796499999999],[-122.394088,37.79886499999999],[-122.39388700000002,37.798865000000006],[-122.393742,37.79872],[-122.393742,37.79860099999999],[-122.39546,37.797624],[-122.39546,37.797459],[-122.395136,37.797571],[-122.395003,37.79739999999999],[-122.39517800000002,37.797302],[-122.395169,37.797143999999996],[-122.39337600000002,37.798037],[-122.393231,37.798064000000004],[-122.39305500000002,37.797953],[-122.39386400000001,37.797328],[-122.394787,37.796783000000005],[-122.39469500000001,37.79666399999999],[-122.394213,37.79692699999999],[-122.393057,37.79563300000001],[-122.39207100000002,37.79604199999999],[-122.391667,37.796095],[-122.39145299999998,37.79580899999999],[-122.39145299999998,37.795640000000006],[-122.39240400000001,37.794861],[-122.392305,37.794742],[-122.392162,37.7948],[-122.39173500000001,37.794577],[-122.39194700000002,37.794381],[-122.391693,37.794062],[-122.39199300000001,37.793911],[-122.39162699999999,37.793576000000016],[-122.391727,37.793464],[-122.388829,37.79101],[-122.38894499999999,37.790924000000004],[-122.388629,37.790353],[-122.38811399999999,37.790533],[-122.388388,37.790339],[-122.388238,37.790037],[-122.38661,37.79067100000001],[-122.38632,37.790676999999995],[-122.38757000000001,37.789908],[-122.38737800000001,37.78941100000001],[-122.387262,37.78936],[-122.38554400000001,37.78978699999999],[-122.38545600000002,37.789736],[-122.38541799999999,37.789332],[-122.38683,37.789041999999995],[-122.38700500000002,37.788857],[-122.387187,37.78881199999999],[-122.38704500000001,37.788259999999994],[-122.38527300000001,37.788535],[-122.385207,37.788149999999995],[-122.387403,37.78774099999999],[-122.387428,37.787274000000004],[-122.38457900000002,37.787417000000005],[-122.38438799999999,37.785929],[-122.384621,37.785717],[-122.387382,37.785556],[-122.38759,37.78549],[-122.38766300000002,37.784934],[-122.385548,37.784978],[-122.38547,37.784715],[-122.387704,37.784417],[-122.38773500000002,37.783933],[-122.387371,37.78395100000001],[-122.387226,37.783770000000004],[-122.38578399999999,37.78383500000001],[-122.38563600000002,37.783782],[-122.38573299999999,37.783778999999996],[-122.385743,37.783545],[-122.386101,37.78344],[-122.38759199999998,37.78336],[-122.38774500000001,37.783287],[-122.38778600000002,37.782916],[-122.387449,37.78283500000001],[-122.38538,37.78288899999999],[-122.38503699999998,37.78279],[-122.38505400000001,37.78254100000001],[-122.387791,37.78232299999999],[-122.38777,37.78183000000001],[-122.385574,37.78195099999999],[-122.38553400000002,37.781612],[-122.38775000000001,37.781459000000005],[-122.387443,37.778406999999994],[-122.38535,37.77852000000001],[-122.38531900000001,37.77844799999998],[-122.387484,37.778327],[-122.389655,37.777483000000004],[-122.390166,37.777184999999996],[-122.392994,37.777136999999996],[-122.396667,37.77533300000001],[-122.398812,37.775609999999986],[-122.401951,37.773465],[-122.39959499999999,37.77053699999999],[-122.396667,37.770496],[-122.39019700000001,37.76699500000001],[-122.386575,37.76689],[-122.38689100000002,37.76380900000001],[-122.387094,37.763575],[-122.38681,37.763495999999996],[-122.386669,37.763179],[-122.386776,37.762721],[-122.38656199999998,37.762664],[-122.38646599999998,37.762719],[-122.385046,37.759508],[-122.385349,37.759552000000006],[-122.38654,37.759314999999994],[-122.387478,37.759254],[-122.387806,37.759285],[-122.38816499999999,37.75953599999999],[-122.388096,37.75994099999999],[-122.387776,37.76042899999999],[-122.387364,37.760788],[-122.38748600000001,37.761058],[-122.387852,37.761287],[-122.38803500000002,37.761573],[-122.388683,37.76157],[-122.38889700000001,37.761711000000005],[-122.38922500000001,37.76176799999999],[-122.390598,37.762565],[-122.39088799999999,37.762907999999996],[-122.39092699999999,37.763163999999996],[-122.390354,37.76388099999999],[-122.39039200000002,37.764368999999995],[-122.39050699999999,37.764541],[-122.391102,37.764846000000006],[-122.39187299999999,37.764221000000006],[-122.39352099999999,37.76375099999999],[-122.39349,37.76341200000001],[-122.39370400000001,37.76298100000001],[-122.3941,37.762664],[-122.39453500000002,37.762661],[-122.39474899999999,37.762805],[-122.394901,37.76331999999999],[-122.39548100000002,37.764346999999994],[-122.39599199999999,37.76466299999999],[-122.39714500000001,37.764572],[-122.39777800000002,37.76429699999999],[-122.39875400000001,37.762729],[-122.399365,37.76221399999999],[-122.399731,37.762214],[-122.400563,37.762496999999996],[-122.40161500000002,37.76360999999999],[-122.40221099999998,37.76353400000001],[-122.402836,37.763003999999995],[-122.40312600000001,37.76294300000001],[-122.403523,37.76299999999999],[-122.40370599999999,37.763168],[-122.40373600000001,37.763369999999995],[-122.403668,37.763457999999986],[-122.40337800000002,37.763488],[-122.40356100000001,37.76362900000001],[-122.40295100000002,37.764575],[-122.40299600000002,37.765178],[-122.40314099999999,37.765406999999996],[-122.40357600000002,37.765662999999996],[-122.40378999999999,37.765689],[-122.40418699999998,37.765628],[-122.40437,37.76551400000001],[-122.40514000000002,37.76546799999999],[-122.405484,37.76556699999999],[-122.40628500000001,37.766051999999995],[-122.40683399999999,37.767909],[-122.406842,37.76855400000001],[-122.40846700000002,37.768848],[-122.40925999999999,37.768584999999995],[-122.40994700000002,37.76864200000001],[-122.41012199999999,37.76861499999999],[-122.41079400000001,37.76804299999999],[-122.410931,37.767406],[-122.410801,37.76723],[-122.40953500000002,37.76640999999999],[-122.40942,37.766009999999994],[-122.409817,37.765978999999994],[-122.41026000000001,37.766094],[-122.41125100000001,37.765705000000004],[-122.411534,37.76511299999999],[-122.411457,37.764797],[-122.411328,37.764625],[-122.41110600000002,37.764534],[-122.411282,37.764083],[-122.411244,37.763748],[-122.410786,37.762752],[-122.409962,37.762855],[-122.40891700000002,37.762828000000006],[-122.408253,37.762569],[-122.40813100000001,37.76184000000001],[-122.40838300000001,37.76146700000001],[-122.408932,37.76095499999999],[-122.409184,37.760463],[-122.40916100000001,37.757461000000006],[-122.409832,37.756156999999995],[-122.410351,37.755855],[-122.410504,37.75503499999999],[-122.410862,37.754660999999984],[-122.41151100000002,37.754372],[-122.412014,37.754341],[-122.412381,37.75442900000001],[-122.413174,37.75471099999999],[-122.41339500000001,37.75487900000001],[-122.41408200000001,37.755050999999995],[-122.41530999999999,37.755703],[-122.417302,37.75698499999999],[-122.41791999999998,37.75712599999999],[-122.418927,37.757149],[-122.419217,37.75734700000001],[-122.41965100000002,37.757056999999996],[-122.420361,37.756225],[-122.42083400000001,37.755878],[-122.421185,37.755394],[-122.423184,37.75385700000001],[-122.424115,37.753532],[-122.424519,37.75351699999999],[-122.42470200000001,37.753696000000005],[-122.42469500000001,37.75385700000001],[-122.424267,37.754268999999994],[-122.42416799999998,37.75494799999999],[-122.42355,37.75510799999999],[-122.42272600000001,37.755543],[-122.42194800000001,37.756133999999996],[-122.420376,37.75782800000001],[-122.42001800000001,37.75871999999999],[-122.41994899999999,37.75955199999999],[-122.42010200000001,37.759834],[-122.42039200000002,37.760063],[-122.42093300000002,37.76009],[-122.42244400000001,37.759510000000006],[-122.423451,37.759308],[-122.42461100000001,37.759787999999986],[-122.42511399999998,37.760071],[-122.425664,37.76055499999999],[-122.42606,37.760727],[-122.42663200000001,37.760807],[-122.42721200000001,37.760776],[-122.428624,37.76126099999999],[-122.429753,37.761223],[-122.430478,37.761318],[-122.43147,37.761047],[-122.432446,37.76101299999999],[-122.43266,37.76110099999999],[-122.43284300000002,37.76147099999999],[-122.432782,37.76315999999999],[-122.43253800000001,37.763763],[-122.432286,37.76419399999999],[-122.431462,37.764911],[-122.43121,37.76499900000001],[-122.430195,37.765808],[-122.429951,37.765861],[-122.42954700000001,37.765007],[-122.429471,37.764576],[-122.429936,37.76359899999999],[-122.43076000000002,37.762626000000004],[-122.430867,37.762108],[-122.43079099999999,37.762024],[-122.428555,37.761692],[-122.428174,37.76167699999999],[-122.428052,37.761779999999995],[-122.427403,37.76183699999999],[-122.426571,37.761726],[-122.42606,37.76152799999999],[-122.424435,37.761432],[-122.42368000000002,37.762545999999986],[-122.421856,37.76441199999999],[-122.420331,37.76534599999999],[-122.41815600000001,37.765873],[-122.41815600000001,37.766059],[-122.417363,37.767005],[-122.41743899999999,37.76749399999999],[-122.417737,37.76789],[-122.418019,37.768150000000006],[-122.418347,37.768291000000005],[-122.41914,37.768344],[-122.41953700000002,37.76817300000001],[-122.42022400000002,37.767768],[-122.420727,37.767337000000005],[-122.421475,37.76659000000001],[-122.42223000000001,37.76563999999999],[-122.422627,37.765353999999995],[-122.422841,37.76532299999999],[-122.423024,37.765434],[-122.423024,37.76569299999999],[-122.423489,37.765747],[-122.424321,37.76554499999999],[-122.42511399999998,37.765514],[-122.42540400000001,37.765396],[-122.426159,37.765396],[-122.426922,37.765589999999996],[-122.428044,37.766189],[-122.429738,37.766493999999994],[-122.430104,37.76649400000001],[-122.430462,37.766375999999994],[-122.43165299999998,37.766543999999996],[-122.43342999999999,37.76635699999999],[-122.432675,37.76791300000001],[-122.432423,37.768260999999995],[-122.43198800000002,37.768432],[-122.429829,37.768755999999996],[-122.428456,37.768646],[-122.428128,37.768535],[-122.42664000000002,37.767452],[-122.426282,37.767341],[-122.425992,37.76734100000001],[-122.425526,37.767517],[-122.424771,37.767921],[-122.424016,37.76866899999999],[-122.423802,37.769557],[-122.42384000000001,37.76993099999999],[-122.424061,37.770270999999994],[-122.42442799999999,37.770500000000006],[-122.424679,37.77052599999999],[-122.425328,37.77103799999999],[-122.42555700000001,37.77243],[-122.426373,37.772769],[-122.42671600000001,37.77301],[-122.42819699999998,37.77357799999999],[-122.430897,37.774950999999994],[-122.43211100000002,37.77587799999999],[-122.43363600000002,37.776874],[-122.435292,37.77732400000001],[-122.43601700000002,37.777637],[-122.437322,37.777716999999996],[-122.43840499999999,37.77788499999999],[-122.43967100000002,37.778537],[-122.44101400000001,37.779418],[-122.441556,37.779532999999994],[-122.441541,37.779689],[-122.44184599999998,37.77990299999999],[-122.442426,37.78001299999999],[-122.44250200000002,37.780544],[-122.44347900000001,37.781241999999985],[-122.44283000000001,37.781673000000005],[-122.44251,37.78201999999999],[-122.44218199999999,37.782190999999976],[-122.44164700000002,37.782279],[-122.441174,37.782626],[-122.441213,37.782996],[-122.44136499999999,37.783111],[-122.44201399999999,37.78316399999999],[-122.444173,37.782667999999994],[-122.445111,37.782722],[-122.44562200000001,37.78309200000001],[-122.446233,37.783202],[-122.44645400000002,37.783374],[-122.446416,37.78377799999999],[-122.44620200000001,37.78414800000001],[-122.446134,37.784549],[-122.44653800000002,37.785064],[-122.44776600000002,37.785403],[-122.448812,37.785509999999995],[-122.449956,37.785979],[-122.450185,37.785945],[-122.450452,37.785663],[-122.45075700000001,37.785564],[-122.451139,37.784941999999994],[-122.451276,37.78548000000001],[-122.45161900000001,37.785594],[-122.45179500000002,37.785461000000005],[-122.45196300000002,37.78458700000001],[-122.452169,37.78522400000001],[-122.452512,37.785377000000004],[-122.45284,37.78515900000001],[-122.453061,37.784662999999995],[-122.45319100000002,37.78506000000001],[-122.453496,37.785335],[-122.453733,37.78526200000001],[-122.454038,37.784778],[-122.454274,37.785243],[-122.45454900000001,37.785258],[-122.454679,37.785098],[-122.45470200000001,37.78473599999999],[-122.45432,37.78384700000001],[-122.45454900000001,37.78338900000001],[-122.454442,37.78314099999999],[-122.453923,37.783266999999995],[-122.45370199999999,37.783641],[-122.45282500000002,37.783694],[-122.452115,37.783942],[-122.45188599999999,37.783923],[-122.451741,37.783584],[-122.451612,37.78351099999999],[-122.45093300000002,37.783382],[-122.45064299999999,37.78344599999999],[-122.449956,37.78404499999999],[-122.448476,37.783221],[-122.44796500000001,37.782767],[-122.447705,37.78210800000001],[-122.447591,37.780936000000004],[-122.447339,37.78065],[-122.446828,37.78059299999999],[-122.446218,37.78085600000001],[-122.445783,37.78080299999999],[-122.44549300000001,37.780601000000004],[-122.44492000000001,37.77946],[-122.444699,37.77848399999999],[-122.44146400000001,37.77658000000001],[-122.441174,37.77647],[-122.44084600000001,37.776469999999996],[-122.440091,37.776644999999995],[-122.439191,37.776679],[-122.43817600000001,37.776481000000004],[-122.436475,37.775688],[-122.435025,37.774375],[-122.433903,37.77366599999999],[-122.43221700000001,37.77305899999999],[-122.430646,37.772963999999995],[-122.428227,37.772559999999984],[-122.427609,37.77217400000001],[-122.42746399999999,37.771545],[-122.42796,37.77062600000001],[-122.428792,37.77004999999999],[-122.429578,37.769733],[-122.430699,37.76967200000001],[-122.43098900000001,37.76978299999998],[-122.43167600000001,37.76975199999999],[-122.432728,37.76884400000001],[-122.43372,37.76819600000001],[-122.434293,37.76793599999999],[-122.434872,37.767818],[-122.43538400000001,37.768359999999994],[-122.43604,37.769588],[-122.436978,37.77018699999999],[-122.437306,37.770214],[-122.43755800000001,37.770354999999995],[-122.44084600000001,37.77037],[-122.44304399999999,37.77013],[-122.444012,37.769756],[-122.44480600000001,37.768978],[-122.445233,37.768718],[-122.446393,37.76885600000001],[-122.447995,37.768801999999994],[-122.44797999999999,37.76968],[-122.44859799999999,37.770103],[-122.45047500000001,37.77027100000001],[-122.45163399999998,37.770263],[-122.45199300000002,37.770118000000004],[-122.452527,37.76922999999999],[-122.45284,37.76762399999999],[-122.45323699999999,37.767021],[-122.45380900000002,37.76658599999999],[-122.45438100000001,37.76598299999999],[-122.45441100000001,37.765411],[-122.45426600000002,37.765125],[-122.454442,37.764522],[-122.45477,37.764404],[-122.455235,37.76480500000001],[-122.455602,37.764862],[-122.45595999999999,37.76451500000001],[-122.456601,37.762852],[-122.457204,37.762417],[-122.45803500000001,37.762302],[-122.45897400000001,37.762381999999995],[-122.45976700000001,37.761776],[-122.46008800000001,37.761719],[-122.460233,37.761864],[-122.46024,37.76223399999999],[-122.460362,37.76236],[-122.460454,37.762318],[-122.460744,37.76203199999999],[-122.46124,37.761055],[-122.461774,37.760479000000004],[-122.462636,37.75992999999999],[-122.463086,37.759514],[-122.46336099999999,37.759525],[-122.463681,37.759239],[-122.46381100000002,37.757118],[-122.463498,37.753598],[-122.46334500000002,37.752968],[-122.462552,37.75220099999999],[-122.46207899999999,37.751915],[-122.461858,37.751858],[-122.46103400000001,37.752007],[-122.460706,37.751919],[-122.46031600000002,37.75160199999999],[-122.46088100000001,37.751034],[-122.460774,37.749936],[-122.46054500000001,37.749351999999995],[-122.459592,37.748803],[-122.45905,37.747651],[-122.45910300000001,37.747487],[-122.45941599999999,37.747193],[-122.460027,37.746876],[-122.46203300000002,37.746209],[-122.462659,37.745918999999994],[-122.464185,37.744190999999994],[-122.46527600000002,37.743436],[-122.46558900000001,37.743287],[-122.46852599999998,37.74270299999999],[-122.46909800000002,37.742429],[-122.46977,37.741879]],[[-122.40423300000002,37.795786],[-122.40546100000002,37.796240000000004],[-122.40715500000002,37.79629],[-122.40813100000001,37.79617199999999],[-122.40903200000001,37.795911999999994],[-122.409962,37.795306],[-122.41135800000002,37.795111],[-122.41189299999999,37.79474100000001],[-122.41224400000002,37.79417699999999],[-122.412648,37.794409],[-122.412762,37.794573],[-122.41270100000001,37.79477899999999],[-122.41337299999999,37.794867],[-122.414479,37.795457999999996],[-122.416386,37.79502],[-122.417645,37.79384099999999],[-122.418469,37.792689],[-122.418393,37.792288],[-122.41814099999999,37.791949],[-122.41694300000002,37.79143799999999],[-122.416615,37.79101099999999],[-122.41657699999999,37.790750999999986],[-122.417332,37.789972999999996],[-122.417332,37.78980099999998],[-122.41685900000002,37.789087999999985],[-122.41653100000002,37.78889],[-122.416096,37.788951],[-122.41556200000001,37.78938200000001],[-122.414189,37.789415999999996],[-122.413357,37.789962],[-122.41336499999998,37.79008],[-122.41282300000002,37.79074],[-122.41238800000002,37.790769999999995],[-122.41199200000001,37.790629],[-122.41116,37.790003999999996],[-122.40951199999999,37.78955299999999],[-122.410214,37.78823],[-122.41020599999999,37.787969999999994],[-122.409848,37.787715000000006],[-122.409199,37.78786000000001],[-122.408658,37.788123],[-122.40768900000002,37.789012],[-122.40697200000001,37.790019],[-122.406415,37.789836],[-122.40633800000002,37.790038],[-122.40567400000002,37.790426999999994],[-122.404416,37.790717],[-122.40369100000001,37.790694],[-122.403004,37.790522],[-122.402684,37.790553],[-122.40243200000002,37.790896],[-122.402684,37.791697000000006],[-122.403882,37.792552],[-122.405079,37.79274599999999],[-122.40633800000002,37.7928],[-122.408078,37.792674],[-122.408619,37.79274199999999],[-122.40872599999999,37.79288400000001],[-122.408734,37.79311599999999],[-122.40836800000001,37.793398],[-122.406712,37.794001],[-122.405194,37.79420700000001],[-122.40360700000001,37.794157999999996],[-122.40321000000002,37.794272],[-122.40321000000002,37.79461500000001],[-122.40353799999998,37.795245],[-122.40423300000002,37.795786]],[[-122.465794,37.747899000000004],[-122.46568800000001,37.74812399999999],[-122.46590100000002,37.748444000000006],[-122.467221,37.74878399999999],[-122.46753400000001,37.748764],[-122.467763,37.74860400000001],[-122.46791500000002,37.74800499999999],[-122.46863300000001,37.747674],[-122.468793,37.74750600000001],[-122.468785,37.74716999999998],[-122.468503,37.746899],[-122.46809900000001,37.746857000000006],[-122.46724400000001,37.747468],[-122.466191,37.74771499999999],[-122.465794,37.747899000000004]],[[-122.468785,37.74619299999999],[-122.468923,37.746419],[-122.469068,37.746445],[-122.469365,37.746323],[-122.46966300000001,37.745762],[-122.469563,37.745534],[-122.46926600000002,37.745515],[-122.46901400000002,37.745656000000004],[-122.468785,37.74619299999999]],[[-122.47152400000002,37.748901999999994],[-122.47138700000001,37.748829],[-122.471265,37.74889399999999],[-122.471173,37.749123000000004],[-122.471257,37.74927900000001],[-122.47147100000001,37.749138],[-122.47152400000002,37.748901999999994]],[[-122.46320800000001,37.747021],[-122.46351300000002,37.747044],[-122.463651,37.746975],[-122.463818,37.746662999999984],[-122.463696,37.746452999999995],[-122.46339100000002,37.74640300000001],[-122.462788,37.746548000000004],[-122.462674,37.746784999999996],[-122.46320800000001,37.747021]],[[-122.465146,37.747100999999994],[-122.464864,37.747017],[-122.46465800000001,37.747094],[-122.464627,37.747330000000005],[-122.464948,37.747417999999996],[-122.46511499999998,37.74733400000001],[-122.465146,37.747100999999994]],[[-122.410069,37.783274999999996],[-122.40881,37.783912],[-122.407979,37.783973],[-122.407223,37.784346],[-122.40711600000002,37.78463599999999],[-122.40726900000001,37.785121000000004],[-122.407628,37.785121],[-122.40810100000002,37.785258],[-122.40925300000002,37.785285],[-122.41087800000001,37.784934000000014],[-122.41145,37.784502999999994],[-122.41174000000001,37.784155999999996],[-122.41180899999999,37.78369800000001],[-122.41172499999999,37.78319400000001],[-122.41068699999998,37.783187],[-122.410069,37.783274999999996]],[[-122.389797,37.766577999999996],[-122.39026300000002,37.766403],[-122.39037,37.765918],[-122.38997299999998,37.76560500000001],[-122.389713,37.765517999999986],[-122.389103,37.765666],[-122.389179,37.766094],[-122.38932399999999,37.76629199999999],[-122.389797,37.766577999999996]],[[-122.39758000000002,37.783755],[-122.397221,37.782985000000004],[-122.39645800000001,37.78232799999999],[-122.39584800000002,37.782306],[-122.39526800000002,37.782534000000005],[-122.394871,37.78290799999999],[-122.393696,37.78451799999999],[-122.393406,37.784517999999984],[-122.39300200000001,37.784231999999996],[-122.392285,37.784121],[-122.392033,37.784209],[-122.390728,37.784217],[-122.390415,37.785247],[-122.39017100000001,37.786681],[-122.389775,37.78725299999999],[-122.38968300000002,37.787581],[-122.38988899999998,37.78774099999999],[-122.38995800000001,37.78802699999999],[-122.390141,37.788169],[-122.39043100000002,37.788199],[-122.390721,37.78813799999999],[-122.39111699999998,37.787909000000006],[-122.391255,37.787562],[-122.391796,37.787389999999995],[-122.39197200000001,37.786814],[-122.39222400000001,37.78661199999999],[-122.39483299999999,37.786227],[-122.39542800000001,37.785540000000005],[-122.395542,37.785540000000005],[-122.396405,37.784850000000006],[-122.396649,37.78453300000001],[-122.39758000000002,37.783755]]],[[[-122.43549,37.75793499999999],[-122.434834,37.757137],[-122.434834,37.75687799999999],[-122.434941,37.756821],[-122.43516199999999,37.75684700000001],[-122.435887,37.757446],[-122.437009,37.75753000000001],[-122.437977,37.757439],[-122.438199,37.757492],[-122.43855700000002,37.757751],[-122.43867200000001,37.758208999999994],[-122.43851200000002,37.75848],[-122.43813,37.75863999999999],[-122.436726,37.758758],[-122.43625299999998,37.758705],[-122.435696,37.758408],[-122.43549,37.75793499999999]]],[[[-122.47127300000001,37.80768799999999],[-122.471388,37.808375],[-122.47128700000002,37.808735],[-122.47021299999999,37.80674],[-122.47102100000001,37.80731800000001],[-122.47127300000001,37.80768799999999]]],[[[-122.41716500000001,37.716379],[-122.416554,37.716493],[-122.416203,37.716421000000004],[-122.415608,37.716115],[-122.415639,37.715703],[-122.415883,37.715486000000006],[-122.416539,37.715284],[-122.41701200000001,37.71533000000001],[-122.41727099999999,37.71548200000001],[-122.417409,37.715703],[-122.41716500000001,37.716379]]],[[[-122.41035900000001,37.73299500000001],[-122.411107,37.73330800000001],[-122.41135800000002,37.73307100000001],[-122.411862,37.732938],[-122.41241899999999,37.732929999999996],[-122.41312099999999,37.733048],[-122.414776,37.73257100000001],[-122.41518099999999,37.73259399999999],[-122.41496700000002,37.732831],[-122.4147,37.732884000000006],[-122.41437999999998,37.733342],[-122.414006,37.733597],[-122.413823,37.73393299999999],[-122.41320499999999,37.734074],[-122.41275499999999,37.73434100000001],[-122.41240400000001,37.734368],[-122.411976,37.734635],[-122.411913,37.73516000000001],[-122.408931,37.735729000000006],[-122.40400000000001,37.74013200000001],[-122.406127,37.742577],[-122.405934,37.74275999999999],[-122.40535399999999,37.742958],[-122.405155,37.743149],[-122.404446,37.744904],[-122.40387399999999,37.745625],[-122.40367499999999,37.74679600000001],[-122.404049,37.747257000000005],[-122.404125,37.747498],[-122.403836,37.748371],[-122.40389700000001,37.74856999999999],[-122.404042,37.74875300000001],[-122.40452200000001,37.749027000000005],[-122.40522400000002,37.74929],[-122.405956,37.749153],[-122.406315,37.749179999999996],[-122.407254,37.748787],[-122.407627,37.748825],[-122.408154,37.74869499999999],[-122.40834499999998,37.74874899999999],[-122.408612,37.748608],[-122.408787,37.748631],[-122.40882500000001,37.74875600000001],[-122.408718,37.749012],[-122.407994,37.74958],[-122.40661299999998,37.750278],[-122.405895,37.75032799999999],[-122.405514,37.750488],[-122.404515,37.75037400000001],[-122.404011,37.75008799999999],[-122.403401,37.749935],[-122.402409,37.749270999999986],[-122.40176800000002,37.748478000000006],[-122.400349,37.747741999999995],[-122.400097,37.74791700000001],[-122.39986800000001,37.748703],[-122.399494,37.74897800000001],[-122.399326,37.74900399999999],[-122.398914,37.74878300000001],[-122.39843399999998,37.74868399999999],[-122.39741200000002,37.747776],[-122.39662600000001,37.747527999999996],[-122.39634300000002,37.747662000000005],[-122.396168,37.747893999999995],[-122.39596200000001,37.748535000000004],[-122.395474,37.749081],[-122.394795,37.749096],[-122.39432900000001,37.74854299999999],[-122.39400100000002,37.748497],[-122.393894,37.748737],[-122.39399300000001,37.748993],[-122.39502300000001,37.749691],[-122.395084,37.749935],[-122.39362699999998,37.750179],[-122.39219300000002,37.750282],[-122.39107100000001,37.751021999999985],[-122.39071300000002,37.751339],[-122.390499,37.751709],[-122.390499,37.752140000000004],[-122.39071999999999,37.752456],[-122.391049,37.75265499999999],[-122.391171,37.75264],[-122.391628,37.752994],[-122.39172,37.75327699999998],[-122.39173500000001,37.754378999999986],[-122.39232299999999,37.754813999999996],[-122.39271900000001,37.75465799999999],[-122.39304,37.75489000000001],[-122.393208,37.755645],[-122.39309299999998,37.756283],[-122.393345,37.756766999999996],[-122.39367300000002,37.756995999999994],[-122.394108,37.757079999999995],[-122.39424500000001,37.757193999999984],[-122.39421499999999,37.757563999999995],[-122.39374900000001,37.758082999999985],[-122.392994,37.75851799999999],[-122.392704,37.758548],[-122.392307,37.758776999999995],[-122.39119400000001,37.759184999999995],[-122.390583,37.75915500000001],[-122.39025500000001,37.75887300000001],[-122.38959900000002,37.75764399999999],[-122.38869099999998,37.756473],[-122.38803500000002,37.756102999999996],[-122.38625,37.755897],[-122.38493,37.755053999999994],[-122.38404500000001,37.755061999999995],[-122.383468,37.75535599999999],[-122.38338,37.75502199999999],[-122.384122,37.754975],[-122.384122,37.754724],[-122.383953,37.754566000000004],[-122.38325599999999,37.754552999999994],[-122.38304600000001,37.753752],[-122.38291,37.75371899999998],[-122.382736,37.753423],[-122.38171599999998,37.75320200000001],[-122.38144599999998,37.753004000000004],[-122.380225,37.752933],[-122.38010299999999,37.75277400000001],[-122.38007500000002,37.752069000000006],[-122.37957400000002,37.75201],[-122.378026,37.752075999999995],[-122.37603200000001,37.751143],[-122.375851,37.748721999999994],[-122.384026,37.748231],[-122.385574,37.748282],[-122.386056,37.74817099999999],[-122.38741,37.747595],[-122.38763699999998,37.747722],[-122.38772600000001,37.747891],[-122.390496,37.747764],[-122.392384,37.74856299999999],[-122.39271900000001,37.748421],[-122.39309299999998,37.74773],[-122.39301699999999,37.747482000000005],[-122.390529,37.74674099999999],[-122.38706599999999,37.746954],[-122.386791,37.746906],[-122.382671,37.747100999999994],[-122.38207600000001,37.746979],[-122.37981800000001,37.747131],[-122.379589,37.746937],[-122.377567,37.74713100000001],[-122.37589399999999,37.747136],[-122.37536,37.74699900000001],[-122.37507,37.746846],[-122.37482400000002,37.74642800000001],[-122.37497800000001,37.745823],[-122.37427500000001,37.74511600000001],[-122.373844,37.74500999999999],[-122.37327200000001,37.745454],[-122.372768,37.745534],[-122.367689,37.740247999999994],[-122.36780899999998,37.74015800000001],[-122.368236,37.740151],[-122.36822899999999,37.739983],[-122.371204,37.739811],[-122.371242,37.739918],[-122.37396600000001,37.739697],[-122.374079,37.739467000000005],[-122.37383700000001,37.739261],[-122.373509,37.73865],[-122.37269999999998,37.73830799999999],[-122.371463,37.738237999999996],[-122.368172,37.73834399999999],[-122.36832499999998,37.738081],[-122.37027399999998,37.737770000000005],[-122.371334,37.737228999999985],[-122.37179900000001,37.737140999999994],[-122.373489,37.737213999999994],[-122.374165,37.73753000000001],[-122.37455400000002,37.737975999999996],[-122.375393,37.73841899999999],[-122.375774,37.73854099999999],[-122.376316,37.738442],[-122.37643800000001,37.738335000000006],[-122.375805,37.73819400000001],[-122.37530500000001,37.737928000000004],[-122.37538399999998,37.73643199999999],[-122.37604100000001,37.73577499999998],[-122.37632399999998,37.736252],[-122.376568,37.73643499999999],[-122.37660599999998,37.736653],[-122.376545,37.737126],[-122.376133,37.737399999999994],[-122.376064,37.737564],[-122.376713,37.73826599999999],[-122.376934,37.73837299999999],[-122.376507,37.73877],[-122.37586600000002,37.738785],[-122.375484,37.739212],[-122.37550000000002,37.739371999999996],[-122.37629299999999,37.73969300000001],[-122.37746,37.738575],[-122.37747600000002,37.738338999999996],[-122.378277,37.73832],[-122.378567,37.73874300000001],[-122.378742,37.738673999999996],[-122.378834,37.738503],[-122.37973400000001,37.738739],[-122.38091700000001,37.73880399999999],[-122.381565,37.73910500000001],[-122.381977,37.73941799999999],[-122.382206,37.73982999999999],[-122.38248100000001,37.74083300000001],[-122.383236,37.741206999999996],[-122.38437300000001,37.741249],[-122.38618099999998,37.740792],[-122.387509,37.740738],[-122.389019,37.740112999999994],[-122.390148,37.739956],[-122.39484800000001,37.74021900000001],[-122.395382,37.740390999999995],[-122.39632800000001,37.740261000000004],[-122.398419,37.740238],[-122.40037200000002,37.74003299999998],[-122.401013,37.739537],[-122.40250799999998,37.739388],[-122.402729,37.738972],[-122.40279000000001,37.73845000000001],[-122.403523,37.73807599999999],[-122.40402600000002,37.73744200000001],[-122.404179,37.73734699999999],[-122.405156,37.737164],[-122.405491,37.736934999999995],[-122.40615500000001,37.736878],[-122.406514,37.736474],[-122.406842,37.736355],[-122.407223,37.735848],[-122.407391,37.735421],[-122.40736800000002,37.735077],[-122.406956,37.73451299999999],[-122.404988,37.733467999999995],[-122.404126,37.732631999999995],[-122.403065,37.73211700000001],[-122.401707,37.731129],[-122.400097,37.730344],[-122.397923,37.72908900000001],[-122.397519,37.729035],[-122.39600799999998,37.729581],[-122.395382,37.72961899999999],[-122.394596,37.729416999999984],[-122.39317000000001,37.728741],[-122.392582,37.72859299999999],[-122.391133,37.728642],[-122.389523,37.728352],[-122.387028,37.728276],[-122.386524,37.728181],[-122.385098,37.72768500000001],[-122.384038,37.727821999999996],[-122.384306,37.727771],[-122.38589200000001,37.72425900000001],[-122.386241,37.72446099999999],[-122.386545,37.724452],[-122.38681399999999,37.724583],[-122.38681,37.72435799999999],[-122.38694899999999,37.72423],[-122.38657000000002,37.724129999999995],[-122.38643299999998,37.723901],[-122.38613199999999,37.723727999999994],[-122.386726,37.721832],[-122.38685299999999,37.72216099999999],[-122.387059,37.722287],[-122.38800500000002,37.72241300000001],[-122.388485,37.722363],[-122.38949199999999,37.72147799999999],[-122.38989699999999,37.72063199999999],[-122.390141,37.720422000000006],[-122.39185800000001,37.720380000000006],[-122.39333800000001,37.72064699999999],[-122.395993,37.72082199999999],[-122.39655000000002,37.72076100000001],[-122.398045,37.720242999999996],[-122.39822800000002,37.72057100000001],[-122.398068,37.722222],[-122.398449,37.72307299999999],[-122.39868599999998,37.72330999999999],[-122.400181,37.723958],[-122.40274500000001,37.72434300000001],[-122.40406500000002,37.724465],[-122.40532400000001,37.72442],[-122.40643,37.72418700000001],[-122.408291,37.72314599999999],[-122.40903200000001,37.723034999999996],[-122.409962,37.72307299999999],[-122.409932,37.72327099999999],[-122.409237,37.724168],[-122.40916900000002,37.72522099999999],[-122.40855100000002,37.727112999999996],[-122.408696,37.727704],[-122.409031,37.72805100000001],[-122.40974099999998,37.72830700000001],[-122.41106100000002,37.72838699999999],[-122.411282,37.72863099999999],[-122.411,37.72950399999999],[-122.41037399999999,37.73061799999999],[-122.410084,37.731576],[-122.410138,37.73272000000001],[-122.41035900000001,37.73299500000001]],[[-122.396672,37.72494999999999],[-122.396862,37.724866],[-122.397015,37.724526],[-122.396985,37.72425199999999],[-122.396801,37.724163999999995],[-122.396481,37.724244],[-122.396237,37.724511],[-122.39622900000002,37.724885],[-122.396672,37.72494999999999]]],[[[-122.419953,37.86060899999999],[-122.420812,37.85966500000001],[-122.421026,37.859607999999994],[-122.421064,37.85992099999999],[-122.420812,37.86032500000002],[-122.42034700000002,37.860755999999995],[-122.419988,37.860787],[-122.419896,37.860713999999994],[-122.419953,37.86060899999999]]],[[[-122.392911,37.709897],[-122.39248299999998,37.709547],[-122.39194700000002,37.709783],[-122.392297,37.70914999999999],[-122.393734,37.70805],[-122.39417900000001,37.707377],[-122.394141,37.70703499999999],[-122.39391,37.706865],[-122.393701,37.706356],[-122.394184,37.704316],[-122.39516391375494,37.7011100949851],[-122.40051354330372,37.70112556594111],[-122.40226916668486,37.70102885510931],[-122.40344421714686,37.701125563865176],[-122.4051857186922,37.701032897599745],[-122.41007286976438,37.70107113574038],[-122.411107,37.701929],[-122.412213,37.702146],[-122.41225900000002,37.702237999999994],[-122.412152,37.70233],[-122.411412,37.702486],[-122.410954,37.702822],[-122.410748,37.702841],[-122.41035900000001,37.702721999999994],[-122.409917,37.70237900000001],[-122.40951199999999,37.70238299999999],[-122.40866599999998,37.70310000000001],[-122.406979,37.703577],[-122.40665100000001,37.70376399999999],[-122.405881,37.705045],[-122.405949,37.705305],[-122.405659,37.705534],[-122.40598,37.706285],[-122.40614,37.706445000000016],[-122.40623900000001,37.70692999999999],[-122.406094,37.707124],[-122.405331,37.70706299999999],[-122.404469,37.707257999999996],[-122.403683,37.708006],[-122.40331,37.70815400000001],[-122.402699,37.70815799999999],[-122.40224900000001,37.708470999999996],[-122.402035,37.70845200000001],[-122.401211,37.707952],[-122.400479,37.70765099999999],[-122.399037,37.707578],[-122.397923,37.707136000000006],[-122.397351,37.707212],[-122.394871,37.706529],[-122.39463500000001,37.706705],[-122.394307,37.707243000000005],[-122.39449700000002,37.707727],[-122.394391,37.708176999999985],[-122.39470300000002,37.708817999999994],[-122.394711,37.709557999999994],[-122.393818,37.709932],[-122.39345200000001,37.709835999999996],[-122.392911,37.709897]]],[[[-122.38968300000002,37.719128999999995],[-122.389607,37.71922399999998],[-122.388913,37.71903300000001],[-122.387493,37.719201999999996],[-122.38820100000001,37.71677700000001],[-122.3895,37.718396],[-122.38968300000002,37.719128999999995]]],[[[-122.37479,37.732697],[-122.374337,37.732574],[-122.374073,37.73267799999999],[-122.37242500000002,37.734215999999996],[-122.372163,37.734278],[-122.37188299999998,37.73414799999999],[-122.37106000000001,37.733383999999994],[-122.371867,37.731998000000004],[-122.374105,37.73105699999999],[-122.374363,37.73127799999999],[-122.375271,37.731621],[-122.375553,37.731953],[-122.37645299999998,37.73264400000001],[-122.37674300000002,37.733029],[-122.376751,37.734275999999994],[-122.37620899999999,37.73507699999999],[-122.376385,37.735504],[-122.376301,37.735656999999996],[-122.376043,37.735766999999996],[-122.37616900000002,37.73512800000001],[-122.37606199999999,37.73506299999998],[-122.375889,37.735122999999994],[-122.375328,37.735421],[-122.375141,37.73528100000001],[-122.37516400000001,37.735113999999996],[-122.37495900000002,37.734932999999984],[-122.375139,37.734711000000004],[-122.375323,37.734703999999994],[-122.37531400000002,37.734582],[-122.375066,37.734367999999996],[-122.37508600000001,37.733987],[-122.375721,37.733056],[-122.37554599999999,37.732933],[-122.375195,37.73295499999999],[-122.37479,37.732697]]],[[[-122.32317699999999,37.77985999999999],[-122.32522100000001,37.780932],[-122.325733,37.78111100000001],[-122.33165299999999,37.78142],[-122.33242400000002,37.78222099999999],[-122.331089,37.78915600000001],[-122.33115700000002,37.791768999999995],[-122.331128,37.792118],[-122.330913,37.792471000000006],[-122.33107600000001,37.79324],[-122.331005,37.793604],[-122.33115343005059,37.79414707476985],[-122.32949516065308,37.79397063345278],[-122.3278178473638,37.79352123099242],[-122.32628221605559,37.79282223409409],[-122.32494657286905,37.791900185131894],[-122.32386162478103,37.79079009501717],[-122.323426448463,37.79017746950277],[-122.31980365652234,37.78443045480416],[-122.31943850358945,37.78376980211991],[-122.3189660497329,37.78237840622038],[-122.31885166417273,37.780940232620345],[-122.31907035554774,37.77963650747713],[-122.32317699999999,37.77985999999999]]],[[[-122.361126,37.81226100000001],[-122.361195,37.811651],[-122.361469,37.810999],[-122.36143100000001,37.810655],[-122.36124,37.81031200000001],[-122.36116100000001,37.808793],[-122.36152100000001,37.80915300000001],[-122.36134,37.809484],[-122.36136200000001,37.810156],[-122.36185100000002,37.810316],[-122.362339,37.810701],[-122.362484,37.810949],[-122.362415,37.811353],[-122.362583,37.811800000000005],[-122.36201100000001,37.812402],[-122.36179700000001,37.81297800000001],[-122.36118700000002,37.813356],[-122.36098900000002,37.813653999999985],[-122.360745,37.813688000000006],[-122.36008800000002,37.813356],[-122.35979800000001,37.81334799999999],[-122.360844,37.812685],[-122.361126,37.81226100000001]]],[[[-122.359487,37.815037000000004],[-122.358925,37.81479600000001],[-122.358817,37.81455600000001],[-122.358953,37.81429099999998],[-122.35908900000001,37.814665],[-122.35960599999999,37.814989999999995],[-122.359487,37.815037000000004]]],[[[-122.37773199999998,37.830381],[-122.37414100000001,37.83205],[-122.37352,37.83221699999999],[-122.373088,37.832929],[-122.373226,37.832463],[-122.373172,37.832224999999994],[-122.36863400000001,37.831101],[-122.367504,37.829364999999996],[-122.36737900000001,37.829416],[-122.36732100000002,37.82933],[-122.367437,37.829286],[-122.36708400000002,37.82863799999999],[-122.36442400000001,37.824855],[-122.36293,37.822552],[-122.36358100000001,37.820848000000005],[-122.36056399999998,37.820102000000006],[-122.360691,37.819841],[-122.363621,37.820554],[-122.36371800000002,37.82051899999998],[-122.364422,37.81877699999999],[-122.36435300000001,37.818632],[-122.364948,37.81838400000001],[-122.365093,37.81851],[-122.36520800000001,37.818471],[-122.36828500000001,37.81715499999999],[-122.37333299999999,37.82346499999999],[-122.37649100000002,37.82697400000001],[-122.37842199999999,37.82871199999999],[-122.37773199999998,37.830381]]],[[[-122.37298400000002,37.833031999999996],[-122.372995,37.833023],[-122.37299000000002,37.833028000000006],[-122.37298400000002,37.833031999999996]]],[[[-122.37278900000001,37.833157],[-122.372948,37.83305899999999],[-122.372852,37.83312899999999],[-122.37278900000001,37.833157]]]]},"properties":{"cls":2,"src":1}}]}