{"type":"FeatureCollection","features":[{"type":"Feature","properties":{"step":1},"geometry":{"type":"MultiPolygon","coordinates":[[[[-73.90649,40.85458],[-73.90677,40.85394],[-73.90769,40.85379],[-73.90797,40.85315],[-73.90734,40.85267],[-73.90762,40.85203],[-73.90853,40.85188],[-73.90882,40.85124],[-73.90819,40.85075],[-73.90727,40.8509],[-73.90664,40.85042],[-73.90692,40.84978],[-73.90629,40.84929],[-73.90657,40.84865],[-73.90749,40.8485],[-73.90777,40.84787],[-73.90868,40.84772],[-73.90932,40.8482],[-73.91023,40.84805],[-73.91086,40.84854],[-73.91177,40.84839],[-73.91206,40.84775],[-73.91142,40.84726],[-73.91171,40.84663],[-73.91108,40.84614],[-73.91136,40.8455],[-73.91073,40.84501],[-73.90981,40.84516],[-73.90918,40.84468],[-73.90827,40.84483],[-73.90799,40.84546],[-73.90707,40.84561],[-73.90644,40.84513],[-73.90553,40.84528],[-73.90525,40.84591],[-73.90433,40.84606],[-73.90405,40.8467],[-73.90314,40.84685],[-73.90285,40.84749],[-73.90194,40.84764],[-73.90166,40.84828],[-73.90229,40.84877],[-73.9032,40.84862],[-73.90383,40.8491],[-73.90475,40.84895],[-73.90538,40.84944],[-73.9051,40.85008],[-73.90418,40.85023],[-73.9039,40.85087],[-73.90299,40.85102],[-73.9027,40.85165],[-73.90179,40.8518],[-73.90151,40.85244],[-73.90059,40.85259],[-73.90031,40.85323],[-73.8994,40.85338],[-73.89912,40.85402],[-73.89975,40.8545],[-73.89946,40.85514],[-73.89855,40.85529],[-73.89792,40.8548],[-73.89701,40.85495],[-73.89672,40.85559],[-73.89581,40.85574],[-73.89553,40.85638],[-73.89461,40.85653],[-73.89433,40.85717],[-73.89496,40.85765],[-73.89468,40.85829],[-73.89377,40.85844],[-73.89348,40.85908],[-73.89411,40.85957],[-73.89503,40.85942],[-73.89531,40.85878],[-73.89622,40.85863],[-73.89686,40.85912],[-73.89777,40.85897],[-73.8984,40.85946],[-73.89812,40.86009],[-73.89875,40.86058],[-73.89847,40.86122],[-73.89755,40.86137],[-73.89727,40.86201],[-73.8979,40.86249],[-73.89881,40.86234],[-73.8991,40.86171],[-73.90001,40.86156],[-73.90064,40.86204],[-73.90156,40.86189],[-73.90184,40.86126],[-73.90275,40.86111],[-73.90303,40.86047],[-73.9024,40.85998],[-73.90269,40.85934],[-73.9036,40.85919],[-73.90388,40.85856],[-73.9048,40.85841],[-73.90508,40.85777],[-73.90445,40.85728],[-73.90473,40.85664],[-73.90564,40.85649],[-73.90593,40.85585],[-73.90529,40.85537],[-73.90558,40.85473],[-73.90649,40.85458]]],[[[-73.9179,40.84029],[-73.91818,40.83965],[-73.9191,40.8395],[-73.91938,40.83886],[-73.91875,40.83838],[-73.91903,40.83774],[-73.91994,40.83759],[-73.92022,40.83695],[-73.92114,40.8368],[-73.92142,40.83616],[-73.92079,40.83568],[-73.92107,40.83504],[-73.92044,40.83455],[-73.91953,40.8347],[-73.9189,40.83421],[-73.91918,40.83358],[-73.91855,40.83309],[-73.91883,40.83245],[-73.91974,40.8323],[-73.92002,40.83166],[-73.92094,40.83151],[-73.92122,40.83087],[-73.92059,40.83039],[-73.92087,40.82975],[-73.92024,40.82926],[-73.91933,40.82941],[-73.91905,40.83005],[-73.91813,40.8302],[-73.91785,40.83084],[-73.91694,40.83099],[-73.91665,40.83163],[-73.91729,40.83211],[-73.917,40.83275],[-73.91609,40.8329],[-73.91581,40.83354],[-73.91489,40.83369],[-73.91426,40.8332],[-73.91335,40.83335],[-73.91272,40.83286],[-73.91181,40.83301],[-73.91118,40.83253],[-73.91146,40.83189],[-73.91237,40.83174],[-73.91265,40.8311],[-73.91357,40.83095],[-73.9142,40.83144],[-73.91511,40.83129],[-73.91539,40.83065],[-73.91631,40.8305],[-73.91659,40.82986],[-73.91596,40.82938],[-73.91504,40.82953],[-73.91476,40.83016],[-73.91385,40.83031],[-73.91322,40.82983],[-73.9123,40.82998],[-73.91202,40.83061],[-73.91111,40.83076],[-73.91083,40.8314],[-73.90991,40.83155],[-73.90963,40.83219],[-73.90872,40.83234],[-73.90844,40.83298],[-73.90907,40.83346],[-73.90879,40.8341],[-73.90942,40.83459],[-73.91033,40.83444],[-73.91096,40.83493],[-73.91187,40.83478],[-73.91216,40.83414],[-73.91307,40.83399],[-73.9137,40.83448],[-73.91342,40.83511],[-73.91405,40.8356],[-73.91496,40.83545],[-73.91559,40.83594],[-73.91531,40.83658],[-73.91594,40.83706],[-73.91566,40.8377],[-73.91475,40.83785],[-73.91446,40.83849],[-73.91355,40.83864],[-73.91327,40.83928],[-73.9139,40.83976],[-73.91362,40.8404],[-73.9127,40.84055],[-73.91242,40.84119],[-73.91305,40.84168],[-73.91397,40.84153],[-73.9146,40.84201],[-73.91551,40.84186],[-73.91614,40.84235],[-73.91705,40.8422],[-73.91734,40.84156],[-73.91671,40.84108],[-73.91699,40.84044],[-73.9179,40.84029]]],[[[-73.93383,40.84831],[-73.93355,40.84895],[-73.93263,40.8491],[-73.93235,40.84974],[-73.93144,40.84989],[-73.93116,40.85053],[-73.93179,40.85101],[-73.9315,40.85165],[-73.93059,40.8518],[-73.93031,40.85244],[-73.93094,40.85293],[-73.93066,40.85356],[-73.92974,40.85371],[-73.92946,40.85435],[-73.93009,40.85484],[-73.92981,40.85548],[-73.9289,40.85563],[-73.92862,40.85626],[-73.9277,40.85641],[-73.92742,40.85705],[-73.92805,40.85754],[-73.92897,40.85739],[-73.9296,40.85788],[-73.93051,40.85773],[-73.93079,40.85709],[-73.93016,40.8566],[-73.93044,40.85596],[-73.93136,40.85581],[-73.93199,40.8563],[-73.9329,40.85615],[-73.93318,40.85551],[-73.9341,40.85536],[-73.93438,40.85473],[-73.93375,40.85424],[-73.93283,40.85439],[-73.9322,40.8539],[-73.93249,40.85326],[-73.9334,40.85311],[-73.93403,40.8536],[-73.93494,40.85345],[-73.93523,40.85281],[-73.93459,40.85232],[-73.93488,40.85169],[-73.93579,40.85154],[-73.93642,40.85202],[-73.93614,40.85266],[-73.93677,40.85315],[-73.93768,40.853],[-73.93797,40.85236],[-73.93733,40.85187],[-73.93762,40.85124],[-73.93699,40.85075],[-73.93727,40.85011],[-73.93818,40.84996],[-73.93881,40.85045],[-73.93973,40.8503],[-73.94001,40.84966],[-73.93938,40.84917],[-73.93846,40.84932],[-73.93783,40.84884],[-73.93811,40.8482],[-73.93748,40.84771],[-73.93776,40.84707],[-73.93868,40.84692],[-73.93896,40.84628],[-73.93833,40.8458],[-73.93861,40.84516],[-73.93952,40.84501],[-73.93981,40.84437],[-73.94072,40.84422],[-73.941,40.84358],[-73.94191,40.84343],[-73.9422,40.8428],[-73.94156,40.84231],[-73.94065,40.84246],[-73.94002,40.84197],[-73.93911,40.84212],[-73.93848,40.84163],[-73.93756,40.84178],[-73.93728,40.84242],[-73.93791,40.84291],[-73.93763,40.84355],[-73.93672,40.8437],[-73.93643,40.84433],[-73.93552,40.84449],[-73.93524,40.84512],[-73.93587,40.84561],[-73.93559,40.84625],[-73.93467,40.8464],[-73.93439,40.84704],[-73.93348,40.84719],[-73.9332,40.84782],[-73.93383,40.84831]]],[[[-73.94019,40.82243],[-73.9411,40.82228],[-73.94174,40.82277],[-73.94265,40.82262],[-73.94328,40.82311],[-73.94419,40.82296],[-73.94447,40.82232],[-73.94384,40.82183],[-73.94412,40.82119],[-73.94349,40.82071],[-73.94378,40.82007],[-73.94469,40.81992],[-73.94497,40.81928],[-73.94434,40.81879],[-73.94462,40.81816],[-73.94399,40.81767],[-73.94308,40.81782],[-73.94245,40.81733],[-73.94153,40.81748],[-73.9409,40.817],[-73.94118,40.81636],[-73.94055,40.81587],[-73.93964,40.81602],[-73.93936,40.81666],[-73.93845,40.81681],[-73.93816,40.81745],[-73.93879,40.81793],[-73.93851,40.81857],[-73.93914,40.81906],[-73.93886,40.8197],[-73.93949,40.82018],[-73.93921,40.82082],[-73.9383,40.82097],[-73.93802,40.82161],[-73.9371,40.82176],[-73.93647,40.82127],[-73.93556,40.82142],[-73.93528,40.82206],[-73.93591,40.82255],[-73.93682,40.8224],[-73.93745,40.82288],[-73.93837,40.82273],[-73.939,40.82322],[-73.93991,40.82307],[-73.94019,40.82243]]],[[[-73.92473,40.86696],[-73.92501,40.86632],[-73.92593,40.86617],[-73.92621,40.86553],[-73.92712,40.86538],[-73.92741,40.86474],[-73.92677,40.86426],[-73.92586,40.86441],[-73.92523,40.86392],[-73.92551,40.86328],[-73.92643,40.86313],[-73.92671,40.86249],[-73.92608,40.862],[-73.92516,40.86215],[-73.92488,40.86279],[-73.92397,40.86294],[-73.92334,40.86246],[-73.92242,40.86261],[-73.92214,40.86324],[-73.92123,40.86339],[-73.92059,40.86291],[-73.91968,40.86306],[-73.9194,40.86369],[-73.91848,40.86384],[-73.9182,40.86448],[-73.91883,40.86497],[-73.91855,40.86561],[-73.91764,40.86576],[-73.91735,40.8664],[-73.91644,40.86655],[-73.91616,40.86718],[-73.91679,40.86767],[-73.9177,40.86752],[-73.91799,40.86688],[-73.9189,40.86673],[-73.91953,40.86722],[-73.92045,40.86707],[-73.92108,40.86756],[-73.92199,40.86741],[-73.92227,40.86677],[-73.92319,40.86662],[-73.92382,40.86711],[-73.92473,40.86696]]],[[[-73.88874,40.87168],[-73.88783,40.87183],[-73.88755,40.87247],[-73.88818,40.87296],[-73.88909,40.87281],[-73.88937,40.87217],[-73.89029,40.87202],[-73.89057,40.87138],[-73.89148,40.87123],[-73.89212,40.87172],[-73.89303,40.87157],[-73.89331,40.87094],[-73.89268,40.87045],[-73.89296,40.86981],[-73.89388,40.86966],[-73.89416,40.86902],[-73.89507,40.86887],[-73.89571,40.86936],[-73.89662,40.86921],[-73.8969,40.86857],[-73.89627,40.86808],[-73.89536,40.86823],[-73.89473,40.86775],[-73.89501,40.86711],[-73.89438,40.86662],[-73.89346,40.86677],[-73.89283,40.86628],[-73.89192,40.86643],[-73.89129,40.86595],[-73.89157,40.86531],[-73.89094,40.86482],[-73.89003,40.86497],[-73.88974,40.86561],[-73.89037,40.8661],[-73.89009,40.86673],[-73.89072,40.86722],[-73.89044,40.86786],[-73.89107,40.86835],[-73.89079,40.86898],[-73.88987,40.86913],[-73.88959,40.86977],[-73.89022,40.87026],[-73.88994,40.8709],[-73.88903,40.87105],[-73.88874,40.87168]]],[[[-73.92253,40.8413],[-73.92282,40.84066],[-73.92373,40.84051],[-73.92401,40.83987],[-73.92492,40.83972],[-73.92521,40.83909],[-73.92612,40.83894],[-73.9264,40.8383],[-73.92732,40.83815],[-73.9276,40.83751],[-73.92851,40.83736],[-73.92879,40.83672],[-73.92971,40.83657],[-73.92999,40.83594],[-73.92936,40.83545],[-73.92844,40.8356],[-73.92781,40.83511],[-73.9269,40.83526],[-73.92662,40.8359],[-73.9257,40.83605],[-73.92542,40.83669],[-73.92451,40.83684],[-73.92423,40.83747],[-73.92331,40.83762],[-73.92268,40.83714],[-73.92177,40.83729],[-73.92149,40.83793],[-73.92212,40.83841],[-73.92184,40.83905],[-73.92092,40.8392],[-73.92064,40.83984],[-73.92127,40.84033],[-73.92099,40.84096],[-73.92162,40.84145],[-73.92253,40.8413]]],[[[-73.94445,40.83769],[-73.94473,40.83706],[-73.9441,40.83657],[-73.94438,40.83593],[-73.94375,40.83544],[-73.94403,40.83481],[-73.9434,40.83432],[-73.94249,40.83447],[-73.94186,40.83398],[-73.94095,40.83413],[-73.94066,40.83477],[-73.94129,40.83526],[-73.94101,40.8359],[-73.9401,40.83605],[-73.93982,40.83668],[-73.94045,40.83717],[-73.94017,40.83781],[-73.93925,40.83796],[-73.93897,40.8386],[-73.9396,40.83908],[-73.94052,40.83893],[-73.94115,40.83942],[-73.94206,40.83927],[-73.94269,40.83976],[-73.94361,40.83961],[-73.94389,40.83897],[-73.94326,40.83848],[-73.94354,40.83784],[-73.94445,40.83769]]],[[[-73.8798,40.82881],[-73.88008,40.82817],[-73.881,40.82802],[-73.88128,40.82739],[-73.88065,40.8269],[-73.88093,40.82626],[-73.8803,40.82577],[-73.88058,40.82514],[-73.87995,40.82465],[-73.88024,40.82401],[-73.87961,40.82352],[-73.87869,40.82367],[-73.87841,40.82431],[-73.8775,40.82446],[-73.87687,40.82397],[-73.87595,40.82412],[-73.87567,40.82476],[-73.8763,40.82525],[-73.87602,40.82589],[-73.87665,40.82637],[-73.87637,40.82701],[-73.877,40.8275],[-73.87671,40.82814],[-73.87734,40.82862],[-73.87826,40.82847],[-73.87889,40.82896],[-73.8798,40.82881]]],[[[-73.9195,40.85008],[-73.91978,40.84944],[-73.91915,40.84895],[-73.91943,40.84831],[-73.92034,40.84816],[-73.92062,40.84753],[-73.91999,40.84704],[-73.91908,40.84719],[-73.9188,40.84783],[-73.91788,40.84798],[-73.9176,40.84861],[-73.91669,40.84876],[-73.91641,40.8494],[-73.91549,40.84955],[-73.91521,40.85019],[-73.91584,40.85068],[-73.91556,40.85132],[-73.91619,40.8518],[-73.9171,40.85165],[-73.91739,40.85102],[-73.9183,40.85087],[-73.91858,40.85023],[-73.9195,40.85008]]],[[[-73.85858,40.83466],[-73.85767,40.8348],[-73.85738,40.83544],[-73.85647,40.83559],[-73.85619,40.83623],[-73.85682,40.83672],[-73.85773,40.83657],[-73.85836,40.83706],[-73.85808,40.83769],[-73.85871,40.83818],[-73.85962,40.83803],[-73.8599,40.83739],[-73.86082,40.83724],[-73.8611,40.83661],[-73.86047,40.83612],[-73.86075,40.83548],[-73.86167,40.83533],[-73.86195,40.83469],[-73.86132,40.83421],[-73.86041,40.83436],[-73.86012,40.83499],[-73.85921,40.83514],[-73.85858,40.83466]]],[[[-73.90056,40.86797],[-73.89964,40.86812],[-73.89936,40.86876],[-73.89999,40.86925],[-73.89971,40.86988],[-73.90034,40.87037],[-73.90125,40.87022],[-73.90189,40.87071],[-73.9028,40.87056],[-73.90308,40.86992],[-73.90245,40.86943],[-73.90273,40.8688],[-73.9021,40.86831],[-73.90119,40.86846],[-73.90056,40.86797]]],[[[-73.94643,40.82554],[-73.94552,40.82569],[-73.94524,40.82633],[-73.94587,40.82682],[-73.94678,40.82667],[-73.94707,40.82603],[-73.94798,40.82588],[-73.94861,40.82637],[-73.94952,40.82622],[-73.9498,40.82558],[-73.94917,40.82509],[-73.94826,40.82524],[-73.94763,40.82476],[-73.94791,40.82412],[-73.94728,40.82363],[-73.94637,40.82378],[-73.94609,40.82442],[-73.94672,40.82491],[-73.94643,40.82554]]],[[[-73.88706,40.84299],[-73.88615,40.84314],[-73.88587,40.84378],[-73.88495,40.84393],[-73.88467,40.84456],[-73.8853,40.84505],[-73.88622,40.8449],[-73.88685,40.84539],[-73.88776,40.84524],[-73.88804,40.8446],[-73.88741,40.84411],[-73.88769,40.84348],[-73.88706,40.84299]]],[[[-73.89538,40.86054],[-73.89446,40.86069],[-73.89418,40.86133],[-73.89481,40.86182],[-73.89572,40.86167],[-73.89601,40.86103],[-73.89692,40.86088],[-73.8972,40.86024],[-73.89657,40.85976],[-73.89566,40.85991],[-73.89538,40.86054]]],[[[-73.86603,40.85412],[-73.86631,40.85349],[-73.86568,40.853],[-73.86597,40.85236],[-73.86533,40.85187],[-73.86442,40.85202],[-73.86414,40.85266],[-73.86477,40.85315],[-73.86449,40.85378],[-73.86512,40.85427],[-73.86603,40.85412]]],[[[-73.91113,40.82308],[-73.91021,40.82323],[-73.90958,40.82274],[-73.90867,40.82289],[-73.90839,40.82353],[-73.90902,40.82401],[-73.90993,40.82386],[-73.91056,40.82435],[-73.91148,40.8242],[-73.91176,40.82356],[-73.91113,40.82308]]],[[[-73.95081,40.81182],[-73.94989,40.81197],[-73.94961,40.81261],[-73.95024,40.81309],[-73.95116,40.81294],[-73.95144,40.81231],[-73.95235,40.81216],[-73.95263,40.81152],[-73.952,40.81103],[-73.95109,40.81118],[-73.95081,40.81182]]],[[[-73.96513,40.80236],[-73.96542,40.80173],[-73.96478,40.80124],[-73.96507,40.8006],[-73.96444,40.80012],[-73.96352,40.80027],[-73.96324,40.8009],[-73.96387,40.80139],[-73.96359,40.80203],[-73.96422,40.80251],[-73.96513,40.80236]]],[[[-73.95468,40.80113],[-73.95377,40.80128],[-73.95314,40.8008],[-73.95222,40.80095],[-73.95194,40.80158],[-73.95257,40.80207],[-73.95349,40.80192],[-73.95412,40.80241],[-73.95503,40.80226],[-73.95531,40.80162],[-73.95468,40.80113]]],[[[-73.89807,40.85064],[-73.89716,40.85079],[-73.89687,40.85143],[-73.89751,40.85192],[-73.89842,40.85177],[-73.8987,40.85113],[-73.89807,40.85064]]],[[[-73.85638,40.84152],[-73.85547,40.84167],[-73.85518,40.8423],[-73.85581,40.84279],[-73.85673,40.84264],[-73.85701,40.84201],[-73.85638,40.84152]]],[[[-73.90724,40.83376],[-73.90633,40.83391],[-73.90605,40.83455],[-73.90668,40.83504],[-73.90759,40.83489],[-73.90787,40.83425],[-73.90724,40.83376]]],[[[-73.9038,40.83196],[-73.90289,40.83211],[-73.90261,40.83275],[-73.90324,40.83324],[-73.90415,40.83309],[-73.90444,40.83245],[-73.9038,40.83196]]],[[[-73.90306,40.82026],[-73.90215,40.82041],[-73.90186,40.82105],[-73.9025,40.82154],[-73.90341,40.82139],[-73.90369,40.82075],[-73.90306,40.82026]]],[[[-73.94711,40.79529],[-73.9462,40.79544],[-73.94592,40.79608],[-73.94655,40.79656],[-73.94746,40.79641],[-73.94774,40.79578],[-73.94711,40.79529]]]]}},{"type":"Feature","properties":{"step":2},"geometry":{"type":"MultiPolygon","coordinates":[[[[-73.94175,40.81508],[-73.94238,40.81557],[-73.9421,40.81621],[-73.94118,40.81636],[-73.9409,40.817],[-73.94153,40.81748],[-73.94245,40.81733],[-73.94308,40.81782],[-73.94399,40.81767],[-73.94427,40.81703],[-73.94518,40.81688],[-73.94547,40.81624],[-73.94483,40.81576],[-73.94512,40.81512],[-73.94603,40.81497],[-73.94631,40.81433],[-73.94722,40.81418],[-73.94751,40.81354],[-73.94687,40.81306],[-73.94716,40.81242],[-73.94807,40.81227],[-73.94835,40.81163],[-73.94926,40.81148],[-73.94954,40.81084],[-73.94891,40.81036],[-73.94919,40.80972],[-73.94856,40.80923],[-73.94765,40.80938],[-73.94702,40.8089],[-73.94611,40.80905],[-73.94548,40.80856],[-73.94456,40.80871],[-73.94393,40.80822],[-73.94302,40.80837],[-73.94239,40.80789],[-73.94148,40.80804],[-73.9412,40.80867],[-73.94028,40.80882],[-73.94,40.80946],[-73.93909,40.80961],[-73.93881,40.81025],[-73.93944,40.81074],[-73.94035,40.81059],[-73.94098,40.81107],[-73.9407,40.81171],[-73.94133,40.8122],[-73.94105,40.81283],[-73.94168,40.81332],[-73.9414,40.81396],[-73.94203,40.81445],[-73.94175,40.81508]]],[[[-73.95622,40.80147],[-73.95531,40.80162],[-73.95503,40.80226],[-73.95412,40.80241],[-73.95349,40.80192],[-73.95257,40.80207],[-73.95194,40.80158],[-73.95103,40.80173],[-73.95075,40.80237],[-73.94984,40.80252],[-73.94921,40.80203],[-73.94829,40.80219],[-73.94801,40.80282],[-73.94864,40.80331],[-73.94836,40.80395],[-73.94899,40.80443],[-73.94871,40.80507],[-73.9478,40.80522],[-73.94752,40.80586],[-73.94815,40.80635],[-73.94906,40.8062],[-73.94969,40.80668],[-73.94941,40.80732],[-73.95004,40.80781],[-73.95095,40.80766],[-73.95158,40.80814],[-73.9525,40.80799],[-73.95278,40.80736],[-73.95369,40.80721],[-73.95397,40.80657],[-73.95488,40.80642],[-73.95517,40.80578],[-73.95608,40.80563],[-73.95636,40.80499],[-73.95573,40.80451],[-73.95601,40.80387],[-73.95538,40.80338],[-73.95566,40.80274],[-73.95657,40.80259],[-73.95685,40.80196],[-73.95622,40.80147]]],[[[-73.9052,40.83646],[-73.90548,40.83583],[-73.90639,40.83568],[-73.90702,40.83616],[-73.90794,40.83601],[-73.90822,40.83538],[-73.90913,40.83523],[-73.90976,40.83571],[-73.91068,40.83556],[-73.91096,40.83493],[-73.91033,40.83444],[-73.90942,40.83459],[-73.90879,40.8341],[-73.90907,40.83346],[-73.90844,40.83298],[-73.90872,40.83234],[-73.90963,40.83219],[-73.90991,40.83155],[-73.91083,40.8314],[-73.91111,40.83076],[-73.91048,40.83028],[-73.90957,40.83043],[-73.90893,40.82994],[-73.90802,40.83009],[-73.90774,40.83073],[-73.90683,40.83088],[-73.90654,40.83151],[-73.90717,40.832],[-73.90689,40.83264],[-73.90752,40.83313],[-73.90724,40.83376],[-73.90787,40.83425],[-73.90759,40.83489],[-73.90668,40.83504],[-73.90605,40.83455],[-73.90633,40.83391],[-73.9057,40.83343],[-73.90598,40.83279],[-73.90535,40.8323],[-73.90444,40.83245],[-73.90415,40.83309],[-73.90324,40.83324],[-73.90296,40.83388],[-73.90359,40.83436],[-73.90331,40.835],[-73.90394,40.83549],[-73.90365,40.83613],[-73.90429,40.83661],[-73.9052,40.83646]]],[[[-73.9396,40.79889],[-73.93868,40.79904],[-73.9384,40.79968],[-73.93903,40.80016],[-73.93995,40.80001],[-73.94058,40.8005],[-73.94149,40.80035],[-73.94212,40.80084],[-73.94303,40.80069],[-73.94366,40.80117],[-73.94458,40.80102],[-73.94521,40.80151],[-73.94612,40.80136],[-73.9464,40.80072],[-73.94731,40.80057],[-73.94794,40.80106],[-73.94886,40.80091],[-73.94949,40.8014],[-73.9504,40.80125],[-73.95068,40.80061],[-73.95005,40.80012],[-73.95033,40.79949],[-73.9497,40.799],[-73.94879,40.79915],[-73.94816,40.79866],[-73.94725,40.79881],[-73.94696,40.79945],[-73.94605,40.7996],[-73.94542,40.79911],[-73.9457,40.79847],[-73.94507,40.79799],[-73.94416,40.79814],[-73.94388,40.79878],[-73.94297,40.79893],[-73.94233,40.79844],[-73.94142,40.79859],[-73.94079,40.7981],[-73.93988,40.79825],[-73.9396,40.79889]]],[[[-73.86248,40.86594],[-73.86157,40.86609],[-73.86128,40.86673],[-73.86191,40.86721],[-73.86163,40.86785],[-73.86226,40.86834],[-73.86198,40.86898],[-73.86106,40.86913],[-73.86078,40.86976],[-73.86141,40.87025],[-73.86113,40.87089],[-73.86176,40.87138],[-73.86267,40.87123],[-73.8633,40.87172],[-73.86422,40.87157],[-73.8645,40.87093],[-73.86542,40.87078],[-73.86605,40.87127],[-73.86696,40.87112],[-73.86724,40.87048],[-73.86661,40.86999],[-73.8657,40.87014],[-73.86507,40.86965],[-73.86415,40.8698],[-73.86352,40.86932],[-73.86381,40.86868],[-73.86472,40.86853],[-73.865,40.86789],[-73.86437,40.8674],[-73.86465,40.86676],[-73.86402,40.86628],[-73.86431,40.86564],[-73.86368,40.86515],[-73.86276,40.8653],[-73.86248,40.86594]]],[[[-73.85638,40.84152],[-73.85701,40.84201],[-73.85792,40.84186],[-73.85855,40.84234],[-73.85947,40.84219],[-73.85975,40.84156],[-73.86066,40.84141],[-73.86129,40.84189],[-73.86221,40.84174],[-73.86249,40.84111],[-73.8634,40.84096],[-73.86403,40.84145],[-73.86495,40.8413],[-73.86523,40.84066],[-73.8646,40.84017],[-73.86369,40.84032],[-73.86306,40.83983],[-73.86214,40.83998],[-73.86186,40.84062],[-73.86095,40.84077],[-73.86032,40.84028],[-73.8594,40.84043],[-73.85877,40.83994],[-73.85786,40.84009],[-73.85723,40.83961],[-73.85631,40.83975],[-73.85603,40.84039],[-73.85512,40.84054],[-73.85449,40.84005],[-73.85357,40.8402],[-73.85329,40.84084],[-73.85392,40.84133],[-73.85364,40.84197],[-73.85427,40.84245],[-73.85518,40.8423],[-73.85547,40.84167],[-73.85638,40.84152]]],[[[-73.89638,40.85447],[-73.89546,40.85462],[-73.89518,40.85525],[-73.89427,40.8554],[-73.89398,40.85604],[-73.89461,40.85653],[-73.89553,40.85638],[-73.89581,40.85574],[-73.89672,40.85559],[-73.89701,40.85495],[-73.89792,40.8548],[-73.89855,40.85529],[-73.89946,40.85514],[-73.89975,40.8545],[-73.89912,40.85402],[-73.8994,40.85338],[-73.90031,40.85323],[-73.90059,40.85259],[-73.90151,40.85244],[-73.90179,40.8518],[-73.90116,40.85132],[-73.90025,40.85147],[-73.89962,40.85098],[-73.8987,40.85113],[-73.89842,40.85177],[-73.89751,40.85192],[-73.89722,40.85255],[-73.89631,40.8527],[-73.89603,40.85334],[-73.89666,40.85383],[-73.89638,40.85447]]],[[[-73.91835,40.8278],[-73.91743,40.82795],[-73.91715,40.82859],[-73.91778,40.82908],[-73.9175,40.82971],[-73.91659,40.82986],[-73.91631,40.8305],[-73.91539,40.83065],[-73.91511,40.83129],[-73.9142,40.83144],[-73.91357,40.83095],[-73.91265,40.8311],[-73.91237,40.83174],[-73.91146,40.83189],[-73.91118,40.83253],[-73.91181,40.83301],[-73.91272,40.83286],[-73.91335,40.83335],[-73.91426,40.8332],[-73.91489,40.83369],[-73.91581,40.83354],[-73.91609,40.8329],[-73.917,40.83275],[-73.91729,40.83211],[-73.91665,40.83163],[-73.91694,40.83099],[-73.91785,40.83084],[-73.91813,40.8302],[-73.91905,40.83005],[-73.91933,40.82941],[-73.9187,40.82893],[-73.91898,40.82829],[-73.91835,40.8278]]],[[[-73.91337,40.82566],[-73.91365,40.82503],[-73.91456,40.82488],[-73.91519,40.82536],[-73.91611,40.82521],[-73.91674,40.8257],[-73.91765,40.82555],[-73.91793,40.82491],[-73.91885,40.82476],[-73.91913,40.82413],[-73.9185,40.82364],[-73.91758,40.82379],[-73.9173,40.82443],[-73.91639,40.82458],[-73.91576,40.82409],[-73.91604,40.82345],[-73.91541,40.82296],[-73.9145,40.82311],[-73.91387,40.82263],[-73.91295,40.82278],[-73.91232,40.82229],[-73.91141,40.82244],[-73.91078,40.82195],[-73.90987,40.8221],[-73.90958,40.82274],[-73.91021,40.82323],[-73.91113,40.82308],[-73.91176,40.82356],[-73.91148,40.8242],[-73.91211,40.82469],[-73.91182,40.82533],[-73.91245,40.82581],[-73.91337,40.82566]]],[[[-73.86259,40.85232],[-73.86168,40.85247],[-73.8614,40.85311],[-73.86203,40.8536],[-73.86174,40.85423],[-73.86238,40.85472],[-73.86329,40.85457],[-73.86392,40.85506],[-73.86483,40.85491],[-73.86512,40.85427],[-73.86449,40.85378],[-73.86477,40.85315],[-73.86414,40.85266],[-73.86442,40.85202],[-73.86533,40.85187],[-73.86562,40.85123],[-73.86499,40.85075],[-73.86407,40.8509],[-73.86344,40.85041],[-73.86253,40.85056],[-73.86225,40.8512],[-73.86288,40.85168],[-73.86259,40.85232]]],[[[-73.91093,40.8503],[-73.91121,40.84967],[-73.91058,40.84918],[-73.91086,40.84854],[-73.91023,40.84805],[-73.90932,40.8482],[-73.90868,40.84772],[-73.90777,40.84787],[-73.90749,40.8485],[-73.90657,40.84865],[-73.90629,40.84929],[-73.90692,40.84978],[-73.90664,40.85042],[-73.90727,40.8509],[-73.90819,40.85075],[-73.90882,40.85124],[-73.90973,40.85109],[-73.91001,40.85045],[-73.91093,40.8503]]],[[[-73.89622,40.85863],[-73.89531,40.85878],[-73.89503,40.85942],[-73.89411,40.85957],[-73.89348,40.85908],[-73.89377,40.85844],[-73.89314,40.85795],[-73.89222,40.8581],[-73.89194,40.85874],[-73.89257,40.85923],[-73.89229,40.85987],[-73.89292,40.86036],[-73.89264,40.86099],[-73.89327,40.86148],[-73.89298,40.86212],[-73.89361,40.86261],[-73.89453,40.86246],[-73.89481,40.86182],[-73.89418,40.86133],[-73.89446,40.86069],[-73.89538,40.86054],[-73.89566,40.85991],[-73.89657,40.85976],[-73.89686,40.85912],[-73.89622,40.85863]]],[[[-73.94265,40.82262],[-73.94174,40.82277],[-73.9411,40.82228],[-73.94019,40.82243],[-73.93991,40.82307],[-73.939,40.82322],[-73.93837,40.82273],[-73.93745,40.82288],[-73.93717,40.82352],[-73.9378,40.82401],[-73.93752,40.82465],[-73.93815,40.82513],[-73.93906,40.82498],[-73.93935,40.82435],[-73.94026,40.8242],[-73.94089,40.82468],[-73.9418,40.82453],[-73.94208,40.82389],[-73.943,40.82374],[-73.94328,40.82311],[-73.94265,40.82262]]],[[[-73.93952,40.84501],[-73.93861,40.84516],[-73.93833,40.8458],[-73.93896,40.84628],[-73.93868,40.84692],[-73.93776,40.84707],[-73.93748,40.84771],[-73.93811,40.8482],[-73.93783,40.84884],[-73.93846,40.84932],[-73.93938,40.84917],[-73.93966,40.84853],[-73.93903,40.84805],[-73.93931,40.84741],[-73.94022,40.84726],[-73.9405,40.84662],[-73.93987,40.84613],[-73.94015,40.8455],[-73.94107,40.84535],[-73.94135,40.84471],[-73.94072,40.84422],[-73.93981,40.84437],[-73.93952,40.84501]]],[[[-73.91725,40.84749],[-73.91634,40.84764],[-73.91571,40.84715],[-73.9148,40.8473],[-73.91451,40.84794],[-73.9136,40.84809],[-73.91332,40.84873],[-73.91395,40.84922],[-73.91486,40.84907],[-73.91549,40.84955],[-73.91641,40.8494],[-73.91669,40.84876],[-73.9176,40.84861],[-73.91788,40.84798],[-73.9188,40.84783],[-73.91908,40.84719],[-73.91845,40.8467],[-73.91754,40.84685],[-73.91725,40.84749]]],[[[-73.8639,40.83792],[-73.86419,40.83728],[-73.86356,40.83679],[-73.86384,40.83616],[-73.86321,40.83567],[-73.8623,40.83582],[-73.86201,40.83646],[-73.8611,40.83661],[-73.86082,40.83724],[-73.86145,40.83773],[-73.86116,40.83837],[-73.86179,40.83886],[-73.86271,40.83871],[-73.86334,40.83919],[-73.86425,40.83905],[-73.86453,40.83841],[-73.8639,40.83792]]],[[[-73.94748,40.82892],[-73.94776,40.82828],[-73.94713,40.82779],[-73.94742,40.82716],[-73.94833,40.827],[-73.94861,40.82637],[-73.94798,40.82588],[-73.94707,40.82603],[-73.94678,40.82667],[-73.94587,40.82682],[-73.94524,40.82633],[-73.94433,40.82648],[-73.94405,40.82712],[-73.94468,40.82761],[-73.94439,40.82824],[-73.94503,40.82873],[-73.94594,40.82858],[-73.94657,40.82907],[-73.94748,40.82892]]],[[[-73.95156,40.82352],[-73.95065,40.82367],[-73.95002,40.82318],[-73.94911,40.82333],[-73.94847,40.82284],[-73.94756,40.82299],[-73.94728,40.82363],[-73.94791,40.82412],[-73.94763,40.82476],[-73.94826,40.82524],[-73.94917,40.82509],[-73.9498,40.82558],[-73.95072,40.82543],[-73.951,40.82479],[-73.95191,40.82464],[-73.95219,40.824],[-73.95156,40.82352]]],[[[-73.9053,40.82285],[-73.90558,40.82221],[-73.90495,40.82173],[-73.90523,40.82109],[-73.9046,40.8206],[-73.90369,40.82075],[-73.90341,40.82139],[-73.9025,40.82154],[-73.90186,40.82105],[-73.90095,40.8212],[-73.90067,40.82184],[-73.9013,40.82233],[-73.90221,40.82218],[-73.90284,40.82266],[-73.90376,40.82251],[-73.90439,40.823],[-73.90411,40.82364],[-73.90474,40.82413],[-73.90565,40.82398],[-73.90593,40.82334],[-73.9053,40.82285]]],[[[-73.90749,40.81599],[-73.90658,40.81614],[-73.9063,40.81678],[-73.90538,40.81693],[-73.90475,40.81644],[-73.90384,40.81659],[-73.90356,40.81723],[-73.90265,40.81738],[-73.90236,40.81802],[-73.90145,40.81817],[-73.90117,40.8188],[-73.9018,40.81929],[-73.90271,40.81914],[-73.90299,40.8185],[-73.90391,40.81835],[-73.90419,40.81772],[-73.9051,40.81757],[-73.90573,40.81805],[-73.90665,40.8179],[-73.90693,40.81727],[-73.90784,40.81712],[-73.90812,40.81648],[-73.90749,40.81599]]],[[[-73.93649,40.85379],[-73.93677,40.85315],[-73.93614,40.85266],[-73.93642,40.85202],[-73.93579,40.85154],[-73.93488,40.85169],[-73.93459,40.85232],[-73.93523,40.85281],[-73.93494,40.85345],[-73.93403,40.8536],[-73.9334,40.85311],[-73.93249,40.85326],[-73.9322,40.8539],[-73.93283,40.85439],[-73.93375,40.85424],[-73.93438,40.85473],[-73.93529,40.85458],[-73.93557,40.85394],[-73.93649,40.85379]]],[[[-73.92373,40.84051],[-73.92282,40.84066],[-73.92253,40.8413],[-73.92162,40.84145],[-73.92099,40.84096],[-73.92008,40.84111],[-73.91979,40.84175],[-73.92042,40.84224],[-73.92134,40.84209],[-73.92197,40.84258],[-73.92288,40.84243],[-73.92316,40.84179],[-73.92408,40.84164],[-73.92436,40.841],[-73.92527,40.84085],[-73.92556,40.84021],[-73.92492,40.83972],[-73.92401,40.83987],[-73.92373,40.84051]]],[[[-73.9171,40.81914],[-73.91738,40.8185],[-73.9183,40.81835],[-73.91858,40.81771],[-73.91795,40.81723],[-73.91704,40.81738],[-73.9164,40.81689],[-73.91549,40.81704],[-73.91521,40.81768],[-73.9143,40.81783],[-73.91401,40.81846],[-73.91465,40.81895],[-73.91556,40.8188],[-73.91619,40.81929],[-73.9171,40.81914]]],[[[-73.91446,40.80598],[-73.91355,40.80613],[-73.91292,40.80564],[-73.9132,40.80501],[-73.91257,40.80452],[-73.91166,40.80467],[-73.91138,40.80531],[-73.91046,40.80546],[-73.91018,40.80609],[-73.91081,40.80658],[-73.91172,40.80643],[-73.91236,40.80692],[-73.91327,40.80677],[-73.9139,40.80725],[-73.91481,40.8071],[-73.91509,40.80647],[-73.91446,40.80598]]],[[[-73.91347,40.84456],[-73.91255,40.84471],[-73.91227,40.84535],[-73.91136,40.8455],[-73.91108,40.84614],[-73.91171,40.84663],[-73.91142,40.84726],[-73.91206,40.84775],[-73.91297,40.8476],[-73.91325,40.84696],[-73.91262,40.84648],[-73.9129,40.84584],[-73.91382,40.84569],[-73.9141,40.84505],[-73.91347,40.84456]]],[[[-73.91242,40.84119],[-73.91151,40.84134],[-73.91123,40.84198],[-73.91186,40.84246],[-73.91277,40.84231],[-73.9134,40.8428],[-73.91431,40.84265],[-73.91494,40.84314],[-73.91586,40.84299],[-73.91614,40.84235],[-73.91551,40.84186],[-73.9146,40.84201],[-73.91397,40.84153],[-73.91305,40.84168],[-73.91242,40.84119]]],[[[-73.91406,40.82791],[-73.91315,40.82806],[-73.91287,40.8287],[-73.91196,40.82885],[-73.91167,40.82949],[-73.9123,40.82998],[-73.91322,40.82983],[-73.91385,40.83031],[-73.91476,40.83016],[-73.91504,40.82953],[-73.91441,40.82904],[-73.9147,40.8284],[-73.91406,40.82791]]],[[[-73.92178,40.8296],[-73.92207,40.82896],[-73.92144,40.82847],[-73.92172,40.82784],[-73.92263,40.82769],[-73.92291,40.82705],[-73.92228,40.82656],[-73.92137,40.82671],[-73.92109,40.82735],[-73.92017,40.8275],[-73.91989,40.82814],[-73.92052,40.82863],[-73.92024,40.82926],[-73.92087,40.82975],[-73.92178,40.8296]]],[[[-73.93767,40.82048],[-73.93675,40.82063],[-73.93647,40.82127],[-73.9371,40.82176],[-73.93802,40.82161],[-73.9383,40.82097],[-73.93921,40.82082],[-73.93949,40.82018],[-73.93886,40.8197],[-73.93914,40.81906],[-73.93851,40.81857],[-73.9376,40.81872],[-73.93732,40.81936],[-73.93795,40.81985],[-73.93767,40.82048]]],[[[-73.92835,40.80901],[-73.92744,40.80916],[-73.92716,40.8098],[-73.92624,40.80995],[-73.92561,40.80946],[-73.9247,40.80961],[-73.92442,40.81025],[-73.92505,40.81074],[-73.92596,40.81059],[-73.92659,40.81108],[-73.92751,40.81093],[-73.92779,40.81029],[-73.9287,40.81014],[-73.92898,40.8095],[-73.92835,40.80901]]],[[[-73.89507,40.86887],[-73.89416,40.86902],[-73.89388,40.86966],[-73.89296,40.86981],[-73.89268,40.87045],[-73.89331,40.87094],[-73.89423,40.87079],[-73.89451,40.87015],[-73.89542,40.87],[-73.89571,40.86936],[-73.89507,40.86887]]],[[[-73.90295,40.8664],[-73.90204,40.86655],[-73.90175,40.86718],[-73.90239,40.86767],[-73.9033,40.86752],[-73.90358,40.86688],[-73.9045,40.86673],[-73.90478,40.8661],[-73.90415,40.86561],[-73.90323,40.86576],[-73.90295,40.8664]]],[[[-73.90156,40.86189],[-73.90064,40.86204],[-73.90001,40.86156],[-73.8991,40.86171],[-73.89881,40.86234],[-73.89945,40.86283],[-73.90036,40.86268],[-73.90099,40.86317],[-73.9019,40.86302],[-73.90219,40.86238],[-73.90156,40.86189]]],[[[-73.9036,40.85919],[-73.90269,40.85934],[-73.9024,40.85998],[-73.90303,40.86047],[-73.90395,40.86032],[-73.90423,40.85968],[-73.90514,40.85953],[-73.90543,40.85889],[-73.9048,40.85841],[-73.90388,40.85856],[-73.9036,40.85919]]],[[[-73.91506,40.85435],[-73.91415,40.8545],[-73.91387,40.85514],[-73.9145,40.85563],[-73.91541,40.85548],[-73.91569,40.85484],[-73.91661,40.85469],[-73.91689,40.85405],[-73.91626,40.85357],[-73.91534,40.85372],[-73.91506,40.85435]]],[[[-73.88626,40.85435],[-73.88535,40.8545],[-73.88506,40.85514],[-73.88415,40.85529],[-73.88387,40.85593],[-73.8845,40.85642],[-73.88541,40.85627],[-73.88569,40.85563],[-73.88661,40.85548],[-73.88689,40.85484],[-73.88626,40.85435]]],[[[-73.93818,40.84996],[-73.93727,40.85011],[-73.93699,40.85075],[-73.93762,40.85124],[-73.93733,40.85187],[-73.93797,40.85236],[-73.93888,40.85221],[-73.93916,40.85157],[-73.93853,40.85109],[-73.93881,40.85045],[-73.93818,40.84996]]],[[[-73.90475,40.84895],[-73.90383,40.8491],[-73.90355,40.84974],[-73.90264,40.84989],[-73.90236,40.85053],[-73.90299,40.85102],[-73.9039,40.85087],[-73.90418,40.85023],[-73.9051,40.85008],[-73.90538,40.84944],[-73.90475,40.84895]]],[[[-73.89154,40.84816],[-73.89183,40.84753],[-73.8912,40.84704],[-73.89148,40.8464],[-73.89085,40.84591],[-73.88994,40.84606],[-73.88965,40.8467],[-73.89028,40.84719],[-73.89,40.84783],[-73.89063,40.84831],[-73.89154,40.84816]]],[[[-73.91362,40.8404],[-73.9139,40.83976],[-73.91327,40.83928],[-73.91355,40.83864],[-73.91292,40.83815],[-73.91201,40.8383],[-73.91172,40.83894],[-73.91235,40.83943],[-73.91207,40.84006],[-73.9127,40.84055],[-73.91362,40.8404]]],[[[-73.87826,40.82847],[-73.87734,40.82862],[-73.87706,40.82926],[-73.87769,40.82975],[-73.8786,40.8296],[-73.87924,40.83009],[-73.88015,40.82994],[-73.88043,40.8293],[-73.8798,40.82881],[-73.87889,40.82896],[-73.87826,40.82847]]],[[[-73.94574,40.82329],[-73.94482,40.82344],[-73.94454,40.82408],[-73.94517,40.82457],[-73.94489,40.82521],[-73.94552,40.82569],[-73.94643,40.82554],[-73.94672,40.82491],[-73.94609,40.82442],[-73.94637,40.82378],[-73.94574,40.82329]]],[[[-73.89704,40.81475],[-73.89612,40.8149],[-73.89584,40.81554],[-73.89647,40.81603],[-73.89739,40.81588],[-73.89767,40.81524],[-73.89858,40.81509],[-73.89886,40.81445],[-73.89823,40.81397],[-73.89732,40.81412],[-73.89704,40.81475]]],[[[-73.90301,40.81082],[-73.9021,40.81097],[-73.90182,40.8116],[-73.9009,40.81175],[-73.90062,40.81239],[-73.90125,40.81288],[-73.90217,40.81273],[-73.90245,40.81209],[-73.90336,40.81194],[-73.90364,40.8113],[-73.90301,40.81082]]],[[[-73.89936,40.86876],[-73.89845,40.86891],[-73.89816,40.86955],[-73.8988,40.87003],[-73.89971,40.86988],[-73.89999,40.86925],[-73.89936,40.86876]]],[[[-73.89044,40.86786],[-73.88953,40.86801],[-73.88924,40.86865],[-73.88987,40.86913],[-73.89079,40.86898],[-73.89107,40.86835],[-73.89044,40.86786]]],[[[-73.89403,40.8655],[-73.89312,40.86565],[-73.89283,40.86628],[-73.89346,40.86677],[-73.89438,40.86662],[-73.89466,40.86598],[-73.89403,40.8655]]],[[[-73.88974,40.86561],[-73.88883,40.86576],[-73.88855,40.86639],[-73.88918,40.86688],[-73.89009,40.86673],[-73.89037,40.8661],[-73.88974,40.86561]]],[[[-73.92453,40.86167],[-73.92362,40.86182],[-73.92334,40.86246],[-73.92397,40.86294],[-73.92488,40.86279],[-73.92516,40.86215],[-73.92453,40.86167]]],[[[-73.92727,40.86122],[-73.92636,40.86137],[-73.92608,40.862],[-73.92671,40.86249],[-73.92762,40.86234],[-73.9279,40.8617],[-73.92727,40.86122]]],[[[-73.92897,40.85739],[-73.92805,40.85754],[-73.92777,40.85818],[-73.9284,40.85867],[-73.92931,40.85852],[-73.9296,40.85788],[-73.92897,40.85739]]],[[[-73.93136,40.85581],[-73.93044,40.85596],[-73.93016,40.8566],[-73.93079,40.85709],[-73.93171,40.85694],[-73.93199,40.8563],[-73.93136,40.85581]]],[[[-73.9341,40.85536],[-73.93318,40.85551],[-73.9329,40.85615],[-73.93353,40.85664],[-73.93445,40.85649],[-73.93473,40.85585],[-73.9341,40.85536]]],[[[-73.90649,40.85458],[-73.90558,40.85473],[-73.90529,40.85537],[-73.90593,40.85585],[-73.90684,40.8557],[-73.90712,40.85507],[-73.90649,40.85458]]],[[[-73.93031,40.85244],[-73.9294,40.85259],[-73.92911,40.85323],[-73.92974,40.85371],[-73.93066,40.85356],[-73.93094,40.85293],[-73.93031,40.85244]]],[[[-73.9171,40.85165],[-73.91619,40.8518],[-73.91591,40.85244],[-73.91654,40.85293],[-73.91745,40.85278],[-73.91774,40.85214],[-73.9171,40.85165]]],[[[-73.93116,40.85053],[-73.93024,40.85068],[-73.92996,40.85131],[-73.93059,40.8518],[-73.9315,40.85165],[-73.93179,40.85101],[-73.93116,40.85053]]],[[[-73.90853,40.85188],[-73.90762,40.85203],[-73.90734,40.85267],[-73.90797,40.85315],[-73.90888,40.853],[-73.90917,40.85237],[-73.90853,40.85188]]],[[[-73.88865,40.85278],[-73.88774,40.85293],[-73.88746,40.85357],[-73.88809,40.85405],[-73.889,40.8539],[-73.88928,40.85327],[-73.88865,40.85278]]],[[[-73.88556,40.8521],[-73.88465,40.85225],[-73.88437,40.85289],[-73.885,40.85338],[-73.88591,40.85323],[-73.88619,40.85259],[-73.88556,40.8521]]],[[[-73.90764,40.84434],[-73.90672,40.84449],[-73.90644,40.84513],[-73.90707,40.84561],[-73.90799,40.84546],[-73.90827,40.84483],[-73.90764,40.84434]]],[[[-73.88622,40.8449],[-73.8853,40.84505],[-73.88502,40.84569],[-73.88565,40.84618],[-73.88656,40.84603],[-73.88685,40.84539],[-73.88622,40.8449]]],[[[-73.93813,40.84051],[-73.93721,40.84066],[-73.93693,40.8413],[-73.93756,40.84178],[-73.93848,40.84163],[-73.93876,40.841],[-73.93813,40.84051]]],[[[-73.93982,40.83668],[-73.9389,40.83683],[-73.93862,40.83747],[-73.93925,40.83796],[-73.94017,40.83781],[-73.94045,40.83717],[-73.93982,40.83668]]],[[[-73.92388,40.83635],[-73.92296,40.8365],[-73.92268,40.83714],[-73.92331,40.83762],[-73.92423,40.83747],[-73.92451,40.83684],[-73.92388,40.83635]]],[[[-73.94066,40.83477],[-73.93975,40.83492],[-73.93947,40.83556],[-73.9401,40.83605],[-73.94101,40.8359],[-73.94129,40.83526],[-73.94066,40.83477]]],[[[-73.92198,40.83489],[-73.92107,40.83504],[-73.92079,40.83568],[-73.92142,40.83616],[-73.92233,40.83601],[-73.92262,40.83537],[-73.92198,40.83489]]],[[[-73.94305,40.83319],[-73.94214,40.83334],[-73.94186,40.83398],[-73.94249,40.83447],[-73.9434,40.83432],[-73.94368,40.83368],[-73.94305,40.83319]]],[[[-73.91307,40.83399],[-73.91216,40.83414],[-73.91187,40.83478],[-73.9125,40.83526],[-73.91342,40.83511],[-73.9137,40.83448],[-73.91307,40.83399]]],[[[-73.92009,40.83343],[-73.91918,40.83358],[-73.9189,40.83421],[-73.91953,40.8347],[-73.92044,40.83455],[-73.92072,40.83391],[-73.92009,40.83343]]],[[[-73.90311,40.82971],[-73.90219,40.82986],[-73.90191,40.8305],[-73.90254,40.83099],[-73.90346,40.83084],[-73.90374,40.8302],[-73.90311,40.82971]]],[[[-73.90585,40.82926],[-73.90493,40.82941],[-73.90465,40.83005],[-73.90528,40.83054],[-73.9062,40.83039],[-73.90648,40.82975],[-73.90585,40.82926]]],[[[-73.91919,40.82589],[-73.91828,40.82604],[-73.918,40.82668],[-73.91863,40.82716],[-73.91954,40.82701],[-73.91982,40.82638],[-73.91919,40.82589]]],[[[-73.95599,40.81924],[-73.95508,40.81939],[-73.9548,40.82003],[-73.95543,40.82052],[-73.95634,40.82036],[-73.95662,40.81973],[-73.95599,40.81924]]],[[[-73.94961,40.81261],[-73.9487,40.81276],[-73.94842,40.81339],[-73.94905,40.81388],[-73.94996,40.81373],[-73.95024,40.81309],[-73.94961,40.81261]]],[[[-73.9049,40.81228],[-73.90399,40.81243],[-73.90371,40.81307],[-73.90434,40.81355],[-73.90525,40.8134],[-73.90553,40.81277],[-73.9049,40.81228]]],[[[-73.96289,40.79978],[-73.96198,40.79993],[-73.9617,40.80057],[-73.96233,40.80105],[-73.96324,40.8009],[-73.96352,40.80027],[-73.96289,40.79978]]],[[[-73.94592,40.79608],[-73.945,40.79623],[-73.94472,40.79686],[-73.94535,40.79735],[-73.94627,40.7972],[-73.94655,40.79656],[-73.94592,40.79608]]]]}},{"type":"Feature","properties":{"step":3},"geometry":{"type":"MultiPolygon","coordinates":[[[[-73.90254,40.83099],[-73.90191,40.8305],[-73.90219,40.82986],[-73.90156,40.82938],[-73.90185,40.82874],[-73.90122,40.82825],[-73.9003,40.8284],[-73.90002,40.82904],[-73.89911,40.82919],[-73.89882,40.82983],[-73.89791,40.82998],[-73.89728,40.82949],[-73.89637,40.82964],[-73.89609,40.83028],[-73.89672,40.83076],[-73.89643,40.8314],[-73.89706,40.83189],[-73.89798,40.83174],[-73.89861,40.83223],[-73.89952,40.83208],[-73.90015,40.83256],[-73.90107,40.83241],[-73.9017,40.8329],[-73.90261,40.83275],[-73.90289,40.83211],[-73.9038,40.83196],[-73.90444,40.83245],[-73.90535,40.8323],[-73.90598,40.83279],[-73.9057,40.83343],[-73.90633,40.83391],[-73.90724,40.83376],[-73.90752,40.83313],[-73.90689,40.83264],[-73.90717,40.832],[-73.90654,40.83151],[-73.90683,40.83088],[-73.90774,40.83073],[-73.90802,40.83009],[-73.90739,40.8296],[-73.90648,40.82975],[-73.9062,40.83039],[-73.90528,40.83054],[-73.905,40.83118],[-73.90409,40.83133],[-73.90346,40.83084],[-73.90254,40.83099]]],[[[-73.88837,40.82859],[-73.889,40.82908],[-73.88871,40.82971],[-73.88935,40.8302],[-73.89026,40.83005],[-73.89089,40.83054],[-73.8918,40.83039],[-73.89208,40.82975],[-73.893,40.8296],[-73.89328,40.82896],[-73.89265,40.82848],[-73.89293,40.82784],[-73.8923,40.82735],[-73.89139,40.8275],[-73.89076,40.82701],[-73.88984,40.82716],[-73.88921,40.82668],[-73.8895,40.82604],[-73.89041,40.82589],[-73.89069,40.82525],[-73.89161,40.8251],[-73.89189,40.82446],[-73.89126,40.82398],[-73.89154,40.82334],[-73.89091,40.82285],[-73.89119,40.82221],[-73.8921,40.82206],[-73.89239,40.82143],[-73.89176,40.82094],[-73.89084,40.82109],[-73.89056,40.82173],[-73.88965,40.82188],[-73.88937,40.82251],[-73.88845,40.82266],[-73.88817,40.8233],[-73.8888,40.82379],[-73.88852,40.82443],[-73.88915,40.82491],[-73.88887,40.82555],[-73.88795,40.8257],[-73.88767,40.82634],[-73.8883,40.82683],[-73.88802,40.82746],[-73.88865,40.82795],[-73.88837,40.82859]]],[[[-73.86796,40.86504],[-73.86825,40.8644],[-73.86761,40.86391],[-73.8679,40.86328],[-73.86727,40.86279],[-73.86755,40.86215],[-73.86846,40.862],[-73.86875,40.86136],[-73.86812,40.86088],[-73.8684,40.86024],[-73.86777,40.85975],[-73.86685,40.8599],[-73.86657,40.86054],[-73.86566,40.86069],[-73.86503,40.8602],[-73.86411,40.86035],[-73.86383,40.86099],[-73.86446,40.86147],[-73.86418,40.86211],[-73.86481,40.8626],[-73.86453,40.86324],[-73.86516,40.86373],[-73.86487,40.86436],[-73.86396,40.86451],[-73.86368,40.86515],[-73.86431,40.86564],[-73.86522,40.86549],[-73.86585,40.86598],[-73.86677,40.86583],[-73.8674,40.86632],[-73.86831,40.86617],[-73.86859,40.86553],[-73.86796,40.86504]]],[[[-73.88746,40.85357],[-73.88774,40.85293],[-73.88711,40.85244],[-73.88739,40.8518],[-73.88676,40.85131],[-73.88585,40.85146],[-73.88556,40.8521],[-73.88619,40.85259],[-73.88591,40.85323],[-73.885,40.85338],[-73.88472,40.85402],[-73.8838,40.85417],[-73.88352,40.8548],[-73.88415,40.85529],[-73.88506,40.85514],[-73.88535,40.8545],[-73.88626,40.85435],[-73.88689,40.85484],[-73.88661,40.85548],[-73.88569,40.85563],[-73.88541,40.85627],[-73.8845,40.85642],[-73.88422,40.85705],[-73.88485,40.85754],[-73.88576,40.85739],[-73.88639,40.85788],[-73.8873,40.85773],[-73.88759,40.85709],[-73.8885,40.85694],[-73.88878,40.8563],[-73.88815,40.85582],[-73.88844,40.85518],[-73.88935,40.85503],[-73.88963,40.85439],[-73.889,40.8539],[-73.88809,40.85405],[-73.88746,40.85357]]],[[[-73.86271,40.83871],[-73.86179,40.83886],[-73.86116,40.83837],[-73.86145,40.83773],[-73.86082,40.83724],[-73.8599,40.83739],[-73.85962,40.83803],[-73.86025,40.83852],[-73.85997,40.83916],[-73.85905,40.83931],[-73.85877,40.83994],[-73.8594,40.84043],[-73.86032,40.84028],[-73.86095,40.84077],[-73.86186,40.84062],[-73.86214,40.83998],[-73.86306,40.83983],[-73.86369,40.84032],[-73.8646,40.84017],[-73.86523,40.84066],[-73.86614,40.84051],[-73.86677,40.841],[-73.86769,40.84085],[-73.86797,40.84021],[-73.86734,40.83972],[-73.86643,40.83987],[-73.8658,40.83938],[-73.86608,40.83875],[-73.86699,40.8386],[-73.86728,40.83796],[-73.86664,40.83747],[-73.86573,40.83762],[-73.8651,40.83713],[-73.86419,40.83728],[-73.8639,40.83792],[-73.86453,40.83841],[-73.86425,40.83905],[-73.86334,40.83919],[-73.86271,40.83871]]],[[[-73.91491,40.826],[-73.914,40.82615],[-73.91372,40.82679],[-73.9128,40.82694],[-73.91252,40.82758],[-73.91315,40.82806],[-73.91406,40.82791],[-73.9147,40.8284],[-73.91441,40.82904],[-73.91504,40.82953],[-73.91596,40.82938],[-73.91659,40.82986],[-73.9175,40.82971],[-73.91778,40.82908],[-73.91715,40.82859],[-73.91743,40.82795],[-73.91835,40.8278],[-73.91898,40.82829],[-73.91989,40.82814],[-73.92017,40.8275],[-73.91954,40.82701],[-73.91863,40.82716],[-73.918,40.82668],[-73.91828,40.82604],[-73.91765,40.82555],[-73.91674,40.8257],[-73.91611,40.82521],[-73.91519,40.82536],[-73.91491,40.826]]],[[[-73.86386,40.82847],[-73.86295,40.82862],[-73.86232,40.82813],[-73.86141,40.82828],[-73.86113,40.82892],[-73.86021,40.82907],[-73.85993,40.82971],[-73.86056,40.83019],[-73.86147,40.83004],[-73.8621,40.83053],[-73.86302,40.83038],[-73.86365,40.83087],[-73.86456,40.83072],[-73.86519,40.83121],[-73.86491,40.83185],[-73.86554,40.83233],[-73.86645,40.83218],[-73.86708,40.83267],[-73.86799,40.83252],[-73.86862,40.83301],[-73.86954,40.83286],[-73.86982,40.83222],[-73.86919,40.83173],[-73.86828,40.83188],[-73.86765,40.8314],[-73.86673,40.83155],[-73.8661,40.83106],[-73.86639,40.83042],[-73.86576,40.82993],[-73.86604,40.8293],[-73.86541,40.82881],[-73.86569,40.82817],[-73.86506,40.82768],[-73.86415,40.82783],[-73.86386,40.82847]]],[[[-73.89793,40.82229],[-73.89702,40.82244],[-73.89639,40.82195],[-73.89547,40.8221],[-73.89519,40.82274],[-73.89428,40.82289],[-73.894,40.82353],[-73.89463,40.82401],[-73.89554,40.82386],[-73.89617,40.82435],[-73.89708,40.8242],[-73.89737,40.82356],[-73.89828,40.82341],[-73.89856,40.82278],[-73.89947,40.82263],[-73.9001,40.82311],[-73.90102,40.82296],[-73.90165,40.82345],[-73.90256,40.8233],[-73.90319,40.82379],[-73.90411,40.82364],[-73.90439,40.823],[-73.90376,40.82251],[-73.90284,40.82266],[-73.90221,40.82218],[-73.9013,40.82233],[-73.90067,40.82184],[-73.90095,40.8212],[-73.90186,40.82105],[-73.90215,40.82041],[-73.90152,40.81993],[-73.9006,40.82008],[-73.90032,40.82071],[-73.89941,40.82086],[-73.89913,40.8215],[-73.89821,40.82165],[-73.89793,40.82229]]],[[[-73.92203,40.81183],[-73.92112,40.81198],[-73.92049,40.81149],[-73.91957,40.81164],[-73.91894,40.81115],[-73.91923,40.81052],[-73.91859,40.81003],[-73.91768,40.81018],[-73.9174,40.81082],[-73.91803,40.8113],[-73.91775,40.81194],[-73.91684,40.81209],[-73.91655,40.81273],[-73.91718,40.81322],[-73.9169,40.81385],[-73.91599,40.814],[-73.91571,40.81464],[-73.91634,40.81513],[-73.91606,40.81576],[-73.91669,40.81625],[-73.9176,40.8161],[-73.91788,40.81546],[-73.91879,40.81531],[-73.91908,40.81468],[-73.91845,40.81419],[-73.91873,40.81355],[-73.9181,40.81307],[-73.91838,40.81243],[-73.91929,40.81228],[-73.91992,40.81276],[-73.92084,40.81261],[-73.92147,40.8131],[-73.92238,40.81295],[-73.92266,40.81231],[-73.92357,40.81216],[-73.92386,40.81153],[-73.92322,40.81104],[-73.92231,40.81119],[-73.92203,40.81183]]],[[[-73.94437,40.79574],[-73.94346,40.79589],[-73.94283,40.7954],[-73.94192,40.79555],[-73.94164,40.79619],[-73.94072,40.79634],[-73.94044,40.79698],[-73.94107,40.79746],[-73.94079,40.7981],[-73.94142,40.79859],[-73.94233,40.79844],[-73.94297,40.79893],[-73.94388,40.79878],[-73.94416,40.79814],[-73.94507,40.79799],[-73.9457,40.79847],[-73.94542,40.79911],[-73.94605,40.7996],[-73.94696,40.79945],[-73.94725,40.79881],[-73.94661,40.79832],[-73.9469,40.79769],[-73.94781,40.79754],[-73.94809,40.7969],[-73.94746,40.79641],[-73.94655,40.79656],[-73.94627,40.7972],[-73.94535,40.79735],[-73.94472,40.79686],[-73.945,40.79623],[-73.94437,40.79574]]],[[[-73.89174,40.85345],[-73.89083,40.8536],[-73.89055,40.85424],[-73.89118,40.85473],[-73.89089,40.85537],[-73.89152,40.85585],[-73.89124,40.85649],[-73.89187,40.85698],[-73.89159,40.85762],[-73.89222,40.8581],[-73.89314,40.85795],[-73.89377,40.85844],[-73.89468,40.85829],[-73.89496,40.85765],[-73.89433,40.85717],[-73.89461,40.85653],[-73.89398,40.85604],[-73.89427,40.8554],[-73.89518,40.85525],[-73.89546,40.85462],[-73.89483,40.85413],[-73.89392,40.85428],[-73.89329,40.85379],[-73.89237,40.85394],[-73.89174,40.85345]]],[[[-73.9178,40.82139],[-73.91808,40.82075],[-73.91745,40.82026],[-73.91773,40.81963],[-73.9171,40.81914],[-73.91619,40.81929],[-73.91556,40.8188],[-73.91465,40.81895],[-73.91436,40.81959],[-73.91345,40.81974],[-73.91317,40.82038],[-73.9138,40.82086],[-73.91471,40.82071],[-73.91534,40.8212],[-73.91626,40.82105],[-73.91689,40.82154],[-73.9166,40.82218],[-73.91724,40.82266],[-73.91695,40.8233],[-73.91604,40.82345],[-73.91576,40.82409],[-73.91639,40.82458],[-73.9173,40.82443],[-73.91758,40.82379],[-73.9185,40.82364],[-73.91913,40.82413],[-73.92004,40.82398],[-73.92032,40.82334],[-73.91969,40.82285],[-73.91878,40.823],[-73.91815,40.82251],[-73.91843,40.82188],[-73.9178,40.82139]]],[[[-73.90714,40.81487],[-73.90743,40.81423],[-73.9068,40.81374],[-73.90708,40.8131],[-73.90645,40.81262],[-73.90553,40.81277],[-73.90525,40.8134],[-73.90434,40.81355],[-73.90406,40.81419],[-73.90314,40.81434],[-73.90286,40.81498],[-73.90349,40.81547],[-73.90321,40.8161],[-73.9023,40.81625],[-73.90202,40.81689],[-73.9011,40.81704],[-73.90082,40.81768],[-73.90145,40.81817],[-73.90236,40.81802],[-73.90265,40.81738],[-73.90356,40.81723],[-73.90384,40.81659],[-73.90475,40.81644],[-73.90538,40.81693],[-73.9063,40.81678],[-73.90658,40.81614],[-73.90595,40.81565],[-73.90623,40.81502],[-73.90714,40.81487]]],[[[-73.92901,40.83432],[-73.92809,40.83447],[-73.92781,40.83511],[-73.92844,40.8356],[-73.92936,40.83545],[-73.92999,40.83594],[-73.92971,40.83657],[-73.92879,40.83672],[-73.92851,40.83736],[-73.9276,40.83751],[-73.92732,40.83815],[-73.92795,40.83864],[-73.92766,40.83927],[-73.9283,40.83976],[-73.92921,40.83961],[-73.92949,40.83897],[-73.9304,40.83882],[-73.93069,40.83819],[-73.93005,40.8377],[-73.93034,40.83706],[-73.93125,40.83691],[-73.93153,40.83627],[-73.93245,40.83612],[-73.93273,40.83549],[-73.9321,40.835],[-73.93118,40.83515],[-73.93055,40.83466],[-73.92964,40.83481],[-73.92901,40.83432]]],[[[-73.91277,40.84231],[-73.91186,40.84246],[-73.91157,40.8431],[-73.91066,40.84325],[-73.91038,40.84389],[-73.90946,40.84404],[-73.90918,40.84468],[-73.90981,40.84516],[-73.91073,40.84501],[-73.91101,40.84438],[-73.91192,40.84423],[-73.9122,40.84359],[-73.91312,40.84344],[-73.91375,40.84393],[-73.91466,40.84378],[-73.91529,40.84426],[-73.91501,40.8449],[-73.91564,40.84539],[-73.91656,40.84524],[-73.91684,40.8446],[-73.91621,40.84411],[-73.91649,40.84348],[-73.9174,40.84333],[-73.91768,40.84269],[-73.91705,40.8422],[-73.91614,40.84235],[-73.91586,40.84299],[-73.91494,40.84314],[-73.91431,40.84265],[-73.9134,40.8428],[-73.91277,40.84231]]],[[[-73.88517,40.84153],[-73.88426,40.84168],[-73.88363,40.84119],[-73.88391,40.84055],[-73.88328,40.84006],[-73.88237,40.84021],[-73.88208,40.84085],[-73.88117,40.841],[-73.88089,40.84164],[-73.88152,40.84212],[-73.88124,40.84276],[-73.88187,40.84325],[-73.88278,40.8431],[-73.88341,40.84359],[-73.88432,40.84344],[-73.88495,40.84393],[-73.88587,40.84378],[-73.88615,40.84314],[-73.88552,40.84265],[-73.8858,40.84201],[-73.88517,40.84153]]],[[[-73.90854,40.81936],[-73.90882,40.81873],[-73.90973,40.81858],[-73.91001,40.81794],[-73.90938,40.81745],[-73.90967,40.81682],[-73.90904,40.81633],[-73.90932,40.81569],[-73.90869,40.8152],[-73.90777,40.81535],[-73.90749,40.81599],[-73.90812,40.81648],[-73.90784,40.81712],[-73.90693,40.81727],[-73.90665,40.8179],[-73.90728,40.81839],[-73.90699,40.81903],[-73.90608,40.81918],[-73.9058,40.81981],[-73.90643,40.8203],[-73.90734,40.82015],[-73.90797,40.82064],[-73.90889,40.82049],[-73.90917,40.81985],[-73.90854,40.81936]]],[[[-73.9027,40.85165],[-73.90299,40.85102],[-73.90236,40.85053],[-73.90264,40.84989],[-73.90355,40.84974],[-73.90383,40.8491],[-73.9032,40.84862],[-73.90229,40.84877],[-73.90166,40.84828],[-73.90075,40.84843],[-73.90046,40.84907],[-73.90109,40.84955],[-73.90081,40.85019],[-73.8999,40.85034],[-73.89927,40.84985],[-73.89835,40.85],[-73.89807,40.85064],[-73.8987,40.85113],[-73.89962,40.85098],[-73.90025,40.85147],[-73.90116,40.85132],[-73.90179,40.8518],[-73.9027,40.85165]]],[[[-73.89059,40.86369],[-73.88968,40.86384],[-73.88939,40.86448],[-73.88848,40.86463],[-73.8882,40.86527],[-73.88883,40.86576],[-73.88974,40.86561],[-73.89003,40.86497],[-73.89094,40.86482],[-73.89157,40.86531],[-73.89129,40.86595],[-73.89192,40.86643],[-73.89283,40.86628],[-73.89312,40.86565],[-73.89248,40.86516],[-73.89277,40.86452],[-73.89214,40.86403],[-73.89122,40.86418],[-73.89059,40.86369]]],[[[-73.91382,40.84569],[-73.9129,40.84584],[-73.91262,40.84648],[-73.91325,40.84696],[-73.91297,40.8476],[-73.91206,40.84775],[-73.91177,40.84839],[-73.91086,40.84854],[-73.91058,40.84918],[-73.91121,40.84967],[-73.91212,40.84952],[-73.9124,40.84888],[-73.91332,40.84873],[-73.9136,40.84809],[-73.91451,40.84794],[-73.9148,40.8473],[-73.91416,40.84681],[-73.91445,40.84618],[-73.91382,40.84569]]],[[[-73.95494,40.81587],[-73.95522,40.81523],[-73.95459,40.81474],[-73.95487,40.8141],[-73.95579,40.81395],[-73.95607,40.81332],[-73.95544,40.81283],[-73.95452,40.81298],[-73.95389,40.81249],[-73.95298,40.81264],[-73.9527,40.81328],[-73.95333,40.81377],[-73.95305,40.8144],[-73.95368,40.81489],[-73.9534,40.81553],[-73.95403,40.81602],[-73.95494,40.81587]]],[[[-73.92716,40.8098],[-73.92744,40.80916],[-73.92681,40.80868],[-73.92709,40.80804],[-73.92646,40.80755],[-73.92555,40.8077],[-73.92527,40.80834],[-73.92435,40.80849],[-73.92372,40.808],[-73.92281,40.80815],[-73.92253,40.80879],[-73.92316,40.80928],[-73.92407,40.80913],[-73.9247,40.80961],[-73.92561,40.80946],[-73.92624,40.80995],[-73.92716,40.8098]]],[[[-73.93736,40.7963],[-73.93644,40.79645],[-73.93581,40.79597],[-73.9349,40.79612],[-73.93462,40.79675],[-73.93525,40.79724],[-73.93616,40.79709],[-73.93679,40.79758],[-73.93651,40.79822],[-73.93714,40.7987],[-73.93805,40.79855],[-73.93868,40.79904],[-73.9396,40.79889],[-73.93988,40.79825],[-73.93925,40.79777],[-73.93834,40.79792],[-73.93771,40.79743],[-73.93799,40.79679],[-73.93736,40.7963]]],[[[-73.91654,40.85293],[-73.91591,40.85244],[-73.91619,40.8518],[-73.91556,40.85132],[-73.91465,40.85147],[-73.91436,40.8521],[-73.915,40.85259],[-73.91471,40.85323],[-73.91534,40.85372],[-73.91626,40.85357],[-73.91689,40.85405],[-73.9178,40.8539],[-73.91808,40.85327],[-73.91745,40.85278],[-73.91654,40.85293]]],[[[-73.86251,40.83342],[-73.8616,40.83357],[-73.86132,40.83421],[-73.86195,40.83469],[-73.86167,40.83533],[-73.86075,40.83548],[-73.86047,40.83612],[-73.8611,40.83661],[-73.86201,40.83646],[-73.8623,40.83582],[-73.86321,40.83567],[-73.86349,40.83503],[-73.86286,40.83454],[-73.86315,40.83391],[-73.86251,40.83342]]],[[[-73.94539,40.82217],[-73.94447,40.82232],[-73.94419,40.82296],[-73.94328,40.82311],[-73.943,40.82374],[-73.94363,40.82423],[-73.94454,40.82408],[-73.94482,40.82344],[-73.94574,40.82329],[-73.94637,40.82378],[-73.94728,40.82363],[-73.94756,40.82299],[-73.94693,40.82251],[-73.94602,40.82266],[-73.94539,40.82217]]],[[[-73.91635,40.80744],[-73.91664,40.8068],[-73.91601,40.80632],[-73.91629,40.80568],[-73.91566,40.80519],[-73.91474,40.80534],[-73.91411,40.80486],[-73.9132,40.80501],[-73.91292,40.80564],[-73.91355,40.80613],[-73.91446,40.80598],[-73.91509,40.80647],[-73.91481,40.8071],[-73.91544,40.80759],[-73.91635,40.80744]]],[[[-73.88839,40.87056],[-73.88748,40.87071],[-73.8872,40.87135],[-73.88783,40.87183],[-73.88874,40.87168],[-73.88903,40.87105],[-73.88994,40.8709],[-73.89022,40.87026],[-73.88959,40.86977],[-73.88868,40.86992],[-73.88839,40.87056]]],[[[-73.93649,40.85379],[-73.93557,40.85394],[-73.93529,40.85458],[-73.93592,40.85506],[-73.93684,40.85491],[-73.93712,40.85427],[-73.93803,40.85412],[-73.93832,40.85349],[-73.93768,40.853],[-73.93677,40.85315],[-73.93649,40.85379]]],[[[-73.92259,40.85075],[-73.92167,40.8509],[-73.92139,40.85154],[-73.92048,40.85169],[-73.92019,40.85233],[-73.92083,40.85282],[-73.92174,40.85266],[-73.92202,40.85203],[-73.92293,40.85188],[-73.92322,40.85124],[-73.92259,40.85075]]],[[[-73.9195,40.85008],[-73.91858,40.85023],[-73.9183,40.85087],[-73.91739,40.85102],[-73.9171,40.85165],[-73.91774,40.85214],[-73.91865,40.85199],[-73.91893,40.85135],[-73.91984,40.8512],[-73.92013,40.85056],[-73.9195,40.85008]]],[[[-73.92034,40.84816],[-73.91943,40.84831],[-73.91915,40.84895],[-73.91978,40.84944],[-73.92069,40.84929],[-73.92097,40.84865],[-73.92189,40.8485],[-73.92217,40.84786],[-73.92154,40.84738],[-73.92062,40.84753],[-73.92034,40.84816]]],[[[-73.91566,40.8377],[-73.91594,40.83706],[-73.91531,40.83658],[-73.91559,40.83594],[-73.91496,40.83545],[-73.91405,40.8356],[-73.91377,40.83624],[-73.9144,40.83673],[-73.91411,40.83736],[-73.91475,40.83785],[-73.91566,40.8377]]],[[[-73.94116,40.83173],[-73.94025,40.83188],[-73.93996,40.83252],[-73.9406,40.83301],[-73.94031,40.83365],[-73.94095,40.83413],[-73.94186,40.83398],[-73.94214,40.83334],[-73.94151,40.83286],[-73.94179,40.83222],[-73.94116,40.83173]]],[[[-73.89165,40.83455],[-73.89193,40.83391],[-73.8913,40.83343],[-73.89159,40.83279],[-73.89095,40.8323],[-73.89004,40.83245],[-73.88976,40.83309],[-73.89039,40.83358],[-73.89011,40.83421],[-73.89074,40.8347],[-73.89165,40.83455]]],[[[-73.906,40.8251],[-73.90508,40.82525],[-73.9048,40.82589],[-73.90543,40.82638],[-73.90635,40.82623],[-73.90698,40.82671],[-73.90789,40.82656],[-73.90817,40.82593],[-73.90754,40.82544],[-73.90663,40.82559],[-73.906,40.8251]]],[[[-73.93682,40.8224],[-73.93591,40.82255],[-73.93563,40.82318],[-73.93626,40.82367],[-73.93598,40.82431],[-73.93661,40.8248],[-73.93752,40.82465],[-73.9378,40.82401],[-73.93717,40.82352],[-73.93745,40.82288],[-73.93682,40.8224]]],[[[-73.9421,40.81621],[-73.94238,40.81557],[-73.94175,40.81508],[-73.94203,40.81445],[-73.9414,40.81396],[-73.94049,40.81411],[-73.9402,40.81475],[-73.94083,40.81523],[-73.94055,40.81587],[-73.94118,40.81636],[-73.9421,40.81621]]],[[[-73.90012,40.81543],[-73.90041,40.81479],[-73.89978,40.8143],[-73.90006,40.81367],[-73.89943,40.81318],[-73.89851,40.81333],[-73.89823,40.81397],[-73.89886,40.81445],[-73.89858,40.81509],[-73.89921,40.81558],[-73.90012,40.81543]]],[[[-73.95165,40.80991],[-73.95074,40.81006],[-73.95046,40.81069],[-73.94954,40.81084],[-73.94926,40.81148],[-73.94989,40.81197],[-73.95081,40.81182],[-73.95109,40.81118],[-73.952,40.81103],[-73.95228,40.81039],[-73.95165,40.80991]]],[[[-73.96324,40.8009],[-73.96233,40.80105],[-73.96205,40.80169],[-73.96268,40.80218],[-73.9624,40.80282],[-73.96303,40.8033],[-73.96394,40.80315],[-73.96422,40.80251],[-73.96359,40.80203],[-73.96387,40.80139],[-73.96324,40.8009]]],[[[-73.9504,40.80125],[-73.94949,40.8014],[-73.94921,40.80203],[-73.94984,40.80252],[-73.95075,40.80237],[-73.95103,40.80173],[-73.95194,40.80158],[-73.95222,40.80095],[-73.95159,40.80046],[-73.95068,40.80061],[-73.9504,40.80125]]],[[[-73.92319,40.86662],[-73.92227,40.86677],[-73.92199,40.86741],[-73.92262,40.8679],[-73.92354,40.86775],[-73.92382,40.86711],[-73.92319,40.86662]]],[[[-73.9189,40.86673],[-73.91799,40.86688],[-73.9177,40.86752],[-73.91834,40.86801],[-73.91925,40.86786],[-73.91953,40.86722],[-73.9189,40.86673]]],[[[-73.90175,40.86718],[-73.90084,40.86733],[-73.90056,40.86797],[-73.90119,40.86846],[-73.9021,40.86831],[-73.90239,40.86767],[-73.90175,40.86718]]],[[[-73.89009,40.86673],[-73.88918,40.86688],[-73.88889,40.86752],[-73.88953,40.86801],[-73.89044,40.86786],[-73.89072,40.86722],[-73.89009,40.86673]]],[[[-73.92762,40.86234],[-73.92671,40.86249],[-73.92643,40.86313],[-73.92706,40.86362],[-73.92797,40.86347],[-73.92825,40.86283],[-73.92762,40.86234]]],[[[-73.90275,40.86111],[-73.90184,40.86126],[-73.90156,40.86189],[-73.90219,40.86238],[-73.9031,40.86223],[-73.90338,40.86159],[-73.90275,40.86111]]],[[[-73.89264,40.86099],[-73.89172,40.86114],[-73.89144,40.86178],[-73.89207,40.86227],[-73.89298,40.86212],[-73.89327,40.86148],[-73.89264,40.86099]]],[[[-73.91098,40.85976],[-73.91006,40.85991],[-73.90978,40.86054],[-73.91041,40.86103],[-73.91132,40.86088],[-73.91161,40.86024],[-73.91098,40.85976]]],[[[-73.89812,40.86009],[-73.8972,40.86024],[-73.89692,40.86088],[-73.89755,40.86137],[-73.89847,40.86122],[-73.89875,40.86058],[-73.89812,40.86009]]],[[[-73.90514,40.85953],[-73.90423,40.85968],[-73.90395,40.86032],[-73.90458,40.86081],[-73.90549,40.86066],[-73.90578,40.86002],[-73.90514,40.85953]]],[[[-73.92946,40.85435],[-73.92855,40.8545],[-73.92827,40.85514],[-73.9289,40.85563],[-73.92981,40.85548],[-73.93009,40.85484],[-73.92946,40.85435]]],[[[-73.93973,40.8503],[-73.93881,40.85045],[-73.93853,40.85109],[-73.93916,40.85157],[-73.94007,40.85142],[-73.94036,40.85079],[-73.93973,40.8503]]],[[[-73.91486,40.84907],[-73.91395,40.84922],[-73.91367,40.84985],[-73.9143,40.85034],[-73.91521,40.85019],[-73.91549,40.84955],[-73.91486,40.84907]]],[[[-73.9332,40.84782],[-73.93228,40.84797],[-73.932,40.84861],[-73.93263,40.8491],[-73.93355,40.84895],[-73.93383,40.84831],[-73.9332,40.84782]]],[[[-73.9169,40.84636],[-73.91599,40.84651],[-73.91571,40.84715],[-73.91634,40.84764],[-73.91725,40.84749],[-73.91754,40.84685],[-73.9169,40.84636]]],[[[-73.93524,40.84512],[-73.93433,40.84527],[-73.93404,40.84591],[-73.93467,40.8464],[-73.93559,40.84625],[-73.93587,40.84561],[-73.93524,40.84512]]],[[[-73.93728,40.84242],[-73.93637,40.84257],[-73.93608,40.84321],[-73.93672,40.8437],[-73.93763,40.84355],[-73.93791,40.84291],[-73.93728,40.84242]]],[[[-73.88502,40.84569],[-73.88411,40.84584],[-73.88382,40.84648],[-73.88445,40.84696],[-73.88537,40.84681],[-73.88565,40.84618],[-73.88502,40.84569]]],[[[-73.92408,40.84164],[-73.92316,40.84179],[-73.92288,40.84243],[-73.92351,40.84291],[-73.92443,40.84276],[-73.92471,40.84212],[-73.92408,40.84164]]],[[[-73.92507,40.83556],[-73.92416,40.83571],[-73.92388,40.83635],[-73.92451,40.83684],[-73.92542,40.83669],[-73.9257,40.83605],[-73.92507,40.83556]]],[[[-73.9446,40.83353],[-73.94368,40.83368],[-73.9434,40.83432],[-73.94403,40.83481],[-73.94495,40.83466],[-73.94523,40.83402],[-73.9446,40.83353]]],[[[-73.90365,40.83613],[-73.90274,40.83628],[-73.90246,40.83691],[-73.90309,40.8374],[-73.904,40.83725],[-73.90429,40.83661],[-73.90365,40.83613]]],[[[-73.91974,40.8323],[-73.91883,40.83245],[-73.91855,40.83309],[-73.91918,40.83358],[-73.92009,40.83343],[-73.92037,40.83279],[-73.91974,40.8323]]],[[[-73.94439,40.82824],[-73.94348,40.82839],[-73.9432,40.82903],[-73.94383,40.82952],[-73.94474,40.82937],[-73.94503,40.82873],[-73.94439,40.82824]]],[[[-73.94833,40.827],[-73.94742,40.82716],[-73.94713,40.82779],[-73.94776,40.82828],[-73.94868,40.82813],[-73.94896,40.82749],[-73.94833,40.827]]],[[[-73.8786,40.8296],[-73.87769,40.82975],[-73.87741,40.83039],[-73.87804,40.83087],[-73.87895,40.83072],[-73.87924,40.83009],[-73.8786,40.8296]]],[[[-73.92193,40.82544],[-73.92102,40.82559],[-73.92074,40.82623],[-73.92137,40.82671],[-73.92228,40.82656],[-73.92256,40.82592],[-73.92193,40.82544]]],[[[-73.95121,40.82239],[-73.9503,40.82254],[-73.95002,40.82318],[-73.95065,40.82367],[-73.95156,40.82352],[-73.95184,40.82288],[-73.95121,40.82239]]],[[[-73.93732,40.81936],[-73.93641,40.81951],[-73.93612,40.82015],[-73.93675,40.82063],[-73.93767,40.82048],[-73.93795,40.81985],[-73.93732,40.81936]]],[[[-73.90615,40.82094],[-73.90523,40.82109],[-73.90495,40.82173],[-73.90558,40.82221],[-73.9065,40.82206],[-73.90678,40.82143],[-73.90615,40.82094]]],[[[-73.94518,40.81688],[-73.94427,40.81703],[-73.94399,40.81767],[-73.94462,40.81816],[-73.94553,40.81801],[-73.94581,40.81737],[-73.94518,40.81688]]],[[[-73.93901,40.81553],[-73.9381,40.81568],[-73.93781,40.81632],[-73.93845,40.81681],[-73.93936,40.81666],[-73.93964,40.81602],[-73.93901,40.81553]]],[[[-73.94603,40.81497],[-73.94512,40.81512],[-73.94483,40.81576],[-73.94547,40.81624],[-73.94638,40.81609],[-73.94666,40.81546],[-73.94603,40.81497]]],[[[-73.93438,40.81452],[-73.93347,40.81467],[-73.93318,40.81531],[-73.93381,40.8158],[-73.93473,40.81565],[-73.93501,40.81501],[-73.93438,40.81452]]],[[[-73.94035,40.81059],[-73.93944,40.81074],[-73.93916,40.81137],[-73.93979,40.81186],[-73.9407,40.81171],[-73.94098,40.81107],[-73.94035,40.81059]]],[[[-73.90336,40.81194],[-73.90245,40.81209],[-73.90217,40.81273],[-73.9028,40.81322],[-73.90371,40.81307],[-73.90399,40.81243],[-73.90336,40.81194]]],[[[-73.95369,40.80721],[-73.95278,40.80736],[-73.9525,40.80799],[-73.95313,40.80848],[-73.95404,40.80833],[-73.95432,40.80769],[-73.95369,40.80721]]],[[[-73.92064,40.80733],[-73.91972,40.80748],[-73.91944,40.80812],[-73.92007,40.8086],[-73.92098,40.80845],[-73.92127,40.80782],[-73.92064,40.80733]]],[[[-73.91018,40.80609],[-73.90927,40.80624],[-73.90899,40.80688],[-73.90962,40.80737],[-73.91053,40.80722],[-73.91081,40.80658],[-73.91018,40.80609]]],[[[-73.94731,40.80057],[-73.9464,40.80072],[-73.94612,40.80136],[-73.94675,40.80185],[-73.94766,40.8017],[-73.94794,40.80106],[-73.94731,40.80057]]],[[[-73.94303,40.80069],[-73.94212,40.80084],[-73.94184,40.80148],[-73.94247,40.80196],[-73.94338,40.80181],[-73.94366,40.80117],[-73.94303,40.80069]]],[[[-73.96254,40.79865],[-73.96163,40.79881],[-73.96135,40.79944],[-73.96198,40.79993],[-73.96289,40.79978],[-73.96317,40.79914],[-73.96254,40.79865]]]]}}]}