{"type":"FeatureCollection","features":[{"type":"Feature","geometry":{"type":"MultiLineString","coordinates":[[[-80.1259469,25.9090579],[-80.1282696,25.9057026],[-80.1374149,25.8940526],[-80.1425499,25.887113499999995],[-80.1709481,25.850193299999997],[-80.1711849,25.849375099999996],[-80.1722639,25.8338134],[-80.1765989,25.810488199999998],[-80.1800608,25.7958661],[-80.1811215,25.792880799999995],[-80.1813465,25.7916004],[-80.1808658,25.7820169]],[[-80.1835501,25.771794599999996],[-80.1821572,25.7696236],[-80.1846215,25.761771399999994],[-80.18326190000002,25.735888399999997],[-80.1999432,25.671250899999997],[-80.2128988,25.624397699999996],[-80.2386585,25.522500500000003],[-80.2391444,25.5123738],[-80.24963390000002,25.434921299999996],[-80.2545585,25.399953400000005],[-80.2821096,25.365306699999998],[-80.3438795,25.3153389],[-80.3512191,25.3042967],[-80.36713030000001,25.2900081],[-80.3701262,25.283922199999992],[-80.3673477,25.2767332],[-80.3677265,25.27228],[-80.3722345,25.250388199999996],[-80.3819545,25.2111455],[-80.3850484,25.1976095]],[[-80.1808658,25.7820169],[-80.1837733,25.7759194]],[[-80.1837733,25.7759194],[-80.1835501,25.771794599999996]]]},"properties":{"name":"Atlantic Intracoastal Waterway","kind":"canal"}},{"type":"Feature","geometry":{"type":"MultiLineString","coordinates":[[[-80.2669512,25.783591699999995],[-80.263021,25.785250799999996],[-80.26203070000001,25.785400999999993]],[[-80.26203070000001,25.785400999999993],[-80.257408,25.785609000000008]],[[-80.2695467,25.782724800000004],[-80.2669512,25.783591699999995]],[[-80.2697372,25.7826569],[-80.2695467,25.782724800000004]],[[-80.2555236,25.785378499999997],[-80.2525715,25.785473800000002]],[[-80.257408,25.785609000000008],[-80.2555236,25.785378499999997]],[[-80.2525715,25.785473800000002],[-80.2521268,25.786071300000003]],[[-80.2521268,25.786071300000003],[-80.2496443,25.786191000000002],[-80.2468251,25.7847554],[-80.2452244,25.784627599999997]],[[-80.2448428,25.7841166],[-80.2401574,25.783459299999993]],[[-80.2452244,25.784627599999997],[-80.2448428,25.7841166]],[[-80.2393175,25.7833098],[-80.2392514,25.783306899999996],[-80.23916920000002,25.783309499999994],[-80.2390793,25.7833183],[-80.2388409,25.783366999999995],[-80.2383174,25.7835733],[-80.237461,25.7844608]],[[-80.2396497,25.783405699999996],[-80.2393175,25.7833098]],[[-80.2369263,25.7849738],[-80.236644,25.7850727]],[[-80.237461,25.7844608],[-80.2369263,25.7849738]],[[-80.2767914,25.781473499999997],[-80.2697372,25.7826569]],[[-80.2400646,25.783453599999998],[-80.2396497,25.783405699999996]],[[-80.2401574,25.783459299999993],[-80.2400646,25.783453599999998]]]},"properties":{"name":"Comfort Canal","kind":"canal"}},{"type":"Feature","geometry":{"type":"LineString","coordinates":[[-80.3196908,25.7630773],[-80.3197083,25.755953400000003],[-80.3195689,25.749877399999995],[-80.3193673,25.747732799999998],[-80.3162801,25.7456568],[-80.3160896,25.7451877],[-80.316162,25.744354699999995],[-80.3157565,25.743910799999995],[-80.308565,25.7399706],[-80.307955,25.739756999999997],[-80.3071959,25.739768000000005],[-80.3066926,25.739615199999992],[-80.30412,25.736943600000004],[-80.3032468,25.736561700000003]]},"properties":{"name":"Coral Gables Canal","kind":"canal"}},{"type":"Feature","geometry":{"type":"LineString","coordinates":[[-80.28696140000001,25.738529799999995],[-80.2851118,25.738483900000002],[-80.282964,25.737815300000005],[-80.2817858,25.7377736],[-80.2809758,25.738015200000003],[-80.2789212,25.738049099999998],[-80.27690420000002,25.736865199999993],[-80.2764395,25.736453200000003],[-80.2760137,25.7363384],[-80.2747584,25.735125499999995],[-80.2745707,25.7342074],[-80.2731353,25.731628],[-80.2725751,25.729486099999995],[-80.2716655,25.7297264],[-80.27134090000001,25.7296249],[-80.270821,25.728703199999998],[-80.2699462,25.727940799999995],[-80.2696086,25.726741099999998],[-80.26783830000001,25.7253252],[-80.2672988,25.724177299999997],[-80.265947,25.7225571],[-80.2658696,25.7220485],[-80.2660895,25.7214976],[-80.2672076,25.720546700000003],[-80.2674521,25.720008999999997],[-80.2671195,25.7115173],[-80.2666367,25.710661799999997],[-80.2652044,25.710125299999994],[-80.2643944,25.709535599999995],[-80.2631928,25.7078004],[-80.2618463,25.7063552],[-80.2604247,25.705953999999995],[-80.2596683,25.705354699999997],[-80.25881,25.7051662],[-80.2524371,25.7053208],[-80.2501465,25.705088799999995],[-80.2483226,25.7042816],[-80.2401847,25.698631000000002]]},"properties":{"name":"Coral Gables Waterway","kind":"canal"}},{"type":"Feature","geometry":{"type":"LineString","coordinates":[[-80.1837733,25.7759194],[-80.1700581,25.769773300000004]]},"properties":{"name":"Dodge Island Cut","kind":"canal"}},{"type":"Feature","geometry":{"type":"LineString","coordinates":[[-80.3308806,25.869575999999995],[-80.2929252,25.869605999999997],[-80.2922822,25.869793899999998],[-80.29139750000002,25.870323],[-80.2858747,25.870515799999996],[-80.2793902,25.870649300000004],[-80.2779669,25.870229099999996],[-80.260305,25.8706543],[-80.2438025,25.871351500000003],[-80.2308116,25.871549299999998],[-80.2302071,25.871455299999997],[-80.2298499,25.8713169],[-80.229119,25.8706741],[-80.2280199,25.868918700000002],[-80.2277672,25.867999000000005],[-80.2265142,25.865932100000002],[-80.2263549,25.865135999999996],[-80.22569540000002,25.864616799999997],[-80.2213596,25.8571499],[-80.2207551,25.856408099999992],[-80.22006820000001,25.8559383],[-80.2185955,25.855493199999998],[-80.1975869,25.853069999999995],[-80.1952843,25.853045299999998],[-80.1939929,25.853396399999998],[-80.1922509,25.8535745],[-80.191531,25.853520099999997],[-80.1899264,25.852961199999996],[-80.1890416,25.852966200000004],[-80.1881844,25.852229300000005],[-80.187981,25.8517991],[-80.1883767,25.85066159999999],[-80.18845910000002,25.8485845],[-80.1868985,25.84673],[-80.1857554,25.846349200000002],[-80.1825682,25.84677449999999],[-80.1816504,25.847041499999996],[-80.1797381,25.8470613],[-80.1731822,25.844618199999996]]},"properties":{"name":"Little River Canal","kind":"canal"}},{"type":"Feature","geometry":{"type":"LineString","coordinates":[[-80.1808658,25.7820169],[-80.1785922,25.781993],[-80.1432454,25.7676567]]},"properties":{"name":"Main Channel","kind":"canal"}},{"type":"Feature","geometry":{"type":"LineString","coordinates":[[-80.2604971,25.807458400000005],[-80.2451843,25.7960074],[-80.2361721,25.790554399999998]]},"properties":{"name":"Miami Canal","kind":"canal"}},{"type":"Feature","geometry":{"type":"MultiLineString","coordinates":[[[-80.2266073,25.786352099999995],[-80.2260333,25.786134799999996],[-80.2242309,25.786149300000005],[-80.2219403,25.785048],[-80.2126545,25.781898599999998],[-80.2109164,25.781043599999997],[-80.2093929,25.7797007],[-80.206598,25.7781066],[-80.2041304,25.777087399999996],[-80.2015448,25.7746237],[-80.2003002,25.772594799999997],[-80.1998603,25.771077899999998],[-80.1983905,25.769503000000004],[-80.1974088,25.768831499999994],[-80.1963735,25.768643099999995],[-80.1949626,25.768875],[-80.1942867,25.769131099999996],[-80.1923662,25.7703388],[-80.1920175,25.770372599999998],[-80.1903224,25.769899200000005],[-80.1897538,25.7698895],[-80.1872888,25.7704473]],[[-80.1872888,25.7704473],[-80.1835501,25.771794599999996]]]},"properties":{"name":"Miami River","kind":"canal"}},{"type":"Feature","geometry":{"type":"LineString","coordinates":[[-80.2361721,25.790554399999998],[-80.2340048,25.789960299999997],[-80.2309793,25.7886658],[-80.2304965,25.7884001],[-80.22942900000001,25.7874244],[-80.227471,25.786782],[-80.2266073,25.786352099999995]]},"properties":{"name":"North Fork Miami River","kind":"canal"}},{"type":"Feature","geometry":{"type":"LineString","coordinates":[[-80.236644,25.7850727],[-80.235818,25.7848451],[-80.2348095,25.784864399999996],[-80.2333075,25.7846132],[-80.2324813,25.784806400000004],[-80.2308345,25.7848306],[-80.22935390000002,25.7844152],[-80.228678,25.784685700000004],[-80.2274603,25.785472999999996],[-80.2266073,25.786352099999995]]},"properties":{"name":"South Fork Miami River","kind":"canal"}},{"type":"Feature","geometry":{"type":"LineString","coordinates":[[-80.477057,25.761223899999997],[-80.3846968,25.76126079999999],[-80.3223675,25.762570500000002],[-80.3201252,25.762841],[-80.3192347,25.7634256],[-80.3179955,25.7638797],[-80.3173048,25.7658532],[-80.3162575,25.767503],[-80.3149593,25.7687977],[-80.3133714,25.769778400000003],[-80.3124809,25.770701099999997],[-80.3115743,25.770575500000003],[-80.30788320000002,25.772213199999992],[-80.2974337,25.776966599999994],[-80.2908248,25.780348],[-80.288502,25.780734400000004],[-80.2824348,25.7802272],[-80.2802086,25.7802562],[-80.2789426,25.780372099999997],[-80.2777356,25.780806899999998],[-80.2767914,25.781473499999997],[-80.2738303,25.784164],[-80.2715987,25.7864874],[-80.2692115,25.7893565],[-80.2657407,25.792708599999997],[-80.2647859,25.793404099999997],[-80.26219910000002,25.793960399999996],[-80.2523737,25.794580599999996],[-80.2478888,25.794612700000002],[-80.24422090000002,25.795370799999993]]},"properties":{"name":"Tamiami Canal","kind":"canal"}},{"type":"Feature","geometry":{"type":"MultiLineString","coordinates":[[[-80.2133912,25.786395099999996],[-80.2129545,25.785960699999997]],[[-80.2129545,25.785960699999997],[-80.2097094,25.783688099999992],[-80.2091422,25.783004199999993],[-80.2078104,25.7818488],[-80.2072602,25.781048700000007],[-80.2071184,25.77848820000001]],[[-80.214773,25.787503699999995],[-80.214254,25.787260699999997],[-80.2133912,25.786395099999996]]]},"properties":{"name":"Wagner Creek","kind":"canal"}}]}