{"type":"FeatureCollection","features":[{"type":"Feature","geometry":{"type":"MultiPolygon","coordinates":[[[[-80.16728,25.84987],[-80.1662,25.84982],[-80.16608,25.84932],[-80.16468,25.84929],[-80.16485,25.84912],[-80.1662,25.84907],[-80.16609,25.8486],[-80.16182,25.84868],[-80.16176,25.84823],[-80.16582,25.84817],[-80.16603,25.84802],[-80.16591,25.84767],[-80.16618,25.84699],[-80.16887,25.84691],[-80.16906,25.84729],[-80.16822,25.84744],[-80.16797,25.84766],[-80.16805,25.84786],[-80.16855,25.84799],[-80.16891,25.84767],[-80.16921,25.84765],[-80.16938,25.84787],[-80.16978,25.84788],[-80.16981,25.84818],[-80.16943,25.84844],[-80.16699,25.84858],[-80.16714,25.84922],[-80.16734,25.84889],[-80.1676,25.84899],[-80.16764,25.84919],[-80.16728,25.84987]]],[[[-80.18792,25.84774],[-80.18876,25.84771],[-80.18888,25.85022],[-80.18844,25.85224],[-80.18815,25.85205],[-80.18809,25.8516],[-80.18854,25.85059],[-80.18863,25.84875],[-80.18792,25.84774]]],[[[-80.17134,25.85525],[-80.17539,25.85515],[-80.17549,25.85498],[-80.17528,25.85486],[-80.17138,25.85503],[-80.17169,25.85328],[-80.17332,25.8532],[-80.17346,25.8527],[-80.17583,25.8526],[-80.1759,25.85273],[-80.17589,25.8526],[-80.17658,25.85257],[-80.17661,25.85245],[-80.17181,25.85259],[-80.17202,25.85162],[-80.17377,25.85156],[-80.17376,25.8514],[-80.17202,25.85143],[-80.17218,25.85066],[-80.17373,25.85061],[-80.17372,25.85045],[-80.17219,25.85043],[-80.17297,25.84574],[-80.17337,25.84521],[-80.17412,25.84563],[-80.1737,25.84508],[-80.17407,25.84509],[-80.17642,25.84601],[-80.17682,25.84626],[-80.17681,25.84649],[-80.17698,25.84639],[-80.1783,25.84673],[-80.17867,25.84699],[-80.17894,25.8469],[-80.17956,25.84726],[-80.18056,25.84727],[-80.18058,25.84743],[-80.18089,25.84723],[-80.1826,25.84715],[-80.18272,25.84688],[-80.18577,25.84646],[-80.18696,25.84689],[-80.18825,25.84842],[-80.18839,25.84875],[-80.18827,25.85046],[-80.18782,25.85154],[-80.1853,25.85151],[-80.18546,25.85518],[-80.17128,25.85561],[-80.17134,25.85525]]]]},"properties":{"id":0,"geoid":"12086001301","name":"Tract 13.01","tract":"13.01","pop":5463,"pop65":529,"popU18":731,"hh":2503,"hhNoVeh":388,"pov":678,"povUniverse":5458,"disab":528,"lep":1541,"hhNoNet":309,"pop65Alone":181,"atRisk":5463,"hazardShare":1.0,"floodShare":0.947,"areaKm2":1.53,"hvi":null,"lon":-80.18024,"lat":25.85036}},{"type":"Feature","geometry":{"type":"MultiPolygon","coordinates":[[[[-80.17464,25.84188],[-80.17505,25.84198],[-80.1753,25.84229],[-80.17503,25.8434],[-80.17525,25.84397],[-80.17876,25.84543],[-80.17901,25.84581],[-80.17882,25.84627],[-80.17817,25.84639],[-80.17365,25.84456],[-80.17346,25.84392],[-80.17419,25.84213],[-80.17464,25.84188]]],[[[-80.18737,25.847],[-80.18669,25.84652],[-80.18576,25.84625],[-80.18157,25.8469],[-80.1796,25.84686],[-80.17935,25.84675],[-80.17927,25.84556],[-80.17885,25.84509],[-80.17567,25.84386],[-80.17541,25.84362],[-80.17562,25.84251],[-80.17551,25.84203],[-80.17513,25.84159],[-80.1745,25.84159],[-80.17888,25.83819],[-80.17985,25.83816],[-80.18008,25.83733],[-80.17963,25.83735],[-80.17961,25.83706],[-80.17999,25.83715],[-80.18006,25.837],[-80.17958,25.83687],[-80.18018,25.83529],[-80.18047,25.83514],[-80.18079,25.8328],[-80.18794,25.83256],[-80.18876,25.84771],[-80.18792,25.84774],[-80.18737,25.847]]]]},"properties":{"id":1,"geoid":"12086001302","name":"Palm Bay","tract":"13.02","pop":5568,"pop65":1320,"popU18":646,"hh":2769,"hhNoVeh":337,"pov":317,"povUniverse":5568,"disab":341,"lep":669,"hhNoNet":80,"pop65Alone":342,"atRisk":3150,"hazardShare":0.566,"floodShare":0.549,"areaKm2":1.67,"hvi":null,"lon":-80.18262,"lat":25.83976}},{"type":"Feature","geometry":{"type":"Polygon","coordinates":[[[-80.19692,25.84744],[-80.19642,25.83634],[-80.20618,25.83608],[-80.20626,25.84208],[-80.20658,25.84343],[-80.2075,25.84555],[-80.20779,25.84711],[-80.19692,25.84744]]]},"properties":{"id":2,"geoid":"12086001401","name":"Tract 14.01","tract":"14.01","pop":5761,"pop65":759,"popU18":1450,"hh":2148,"hhNoVeh":547,"pov":2177,"povUniverse":5761,"disab":843,"lep":1514,"hhNoNet":378,"pop65Alone":207,"atRisk":3933,"hazardShare":0.683,"floodShare":0.351,"areaKm2":1.23,"hvi":null,"lon":-80.20141,"lat":25.84175}},{"type":"Feature","geometry":{"type":"Polygon","coordinates":[[[-80.18844,25.85224],[-80.18888,25.85022],[-80.18835,25.84025],[-80.19659,25.84004],[-80.1971,25.85293],[-80.19508,25.85298],[-80.19398,25.85332],[-80.19175,25.85346],[-80.18987,25.85283],[-80.18902,25.85286],[-80.18879,25.85244],[-80.18844,25.85224]]]},"properties":{"id":3,"geoid":"12086001402","name":"Tract 14.02","tract":"14.02","pop":5479,"pop65":615,"popU18":1196,"hh":2535,"hhNoVeh":519,"pov":703,"povUniverse":5479,"disab":435,"lep":2221,"hhNoNet":296,"pop65Alone":175,"atRisk":2065,"hazardShare":0.377,"floodShare":0.061,"areaKm2":1.18,"hvi":null,"lon":-80.1928,"lat":25.84689}},{"type":"Feature","geometry":{"type":"Polygon","coordinates":[[[-80.21659,25.83198],[-80.22491,25.83173],[-80.22526,25.83913],[-80.217,25.83941],[-80.21659,25.83198]]]},"properties":{"id":4,"geoid":"12086001501","name":"Eden at Liberty Square","tract":"15.01","pop":3906,"pop65":303,"popU18":1149,"hh":1160,"hhNoVeh":529,"pov":1942,"povUniverse":3906,"disab":259,"lep":628,"hhNoNet":236,"pop65Alone":106,"atRisk":3265,"hazardShare":0.836,"floodShare":0.468,"areaKm2":0.68,"hvi":null,"lon":-80.22092,"lat":25.83556}},{"type":"Feature","geometry":{"type":"Polygon","coordinates":[[[-80.22455,25.82444],[-80.22402,25.81222],[-80.23217,25.81204],[-80.23267,25.82418],[-80.22455,25.82444]]]},"properties":{"id":5,"geoid":"12086001802","name":"Tract 18.02","tract":"18.02","pop":4697,"pop65":495,"popU18":1329,"hh":1543,"hhNoVeh":225,"pov":1108,"povUniverse":4635,"disab":486,"lep":1276,"hhNoNet":332,"pop65Alone":167,"atRisk":4139,"hazardShare":0.881,"floodShare":0.416,"areaKm2":1.1,"hvi":null,"lon":-80.22839,"lat":25.8184}},{"type":"Feature","geometry":{"type":"Polygon","coordinates":[[[-80.20619,25.83975],[-80.206,25.8313],[-80.20647,25.82861],[-80.21645,25.82832],[-80.217,25.83941],[-80.20619,25.83975]]]},"properties":{"id":6,"geoid":"12086001901","name":"Tract 19.01","tract":"19.01","pop":4690,"pop65":565,"popU18":1358,"hh":2192,"hhNoVeh":634,"pov":1973,"povUniverse":4690,"disab":490,"lep":905,"hhNoNet":445,"pop65Alone":273,"atRisk":4465,"hazardShare":0.952,"floodShare":0.522,"areaKm2":1.3,"hvi":null,"lon":-80.21139,"lat":25.83411}},{"type":"Feature","geometry":{"type":"Polygon","coordinates":[[[-80.21659,25.83198],[-80.21625,25.82467],[-80.22455,25.82444],[-80.22491,25.83173],[-80.21659,25.83198]]]},"properties":{"id":7,"geoid":"12086001903","name":"Tract 19.03","tract":"19.03","pop":3350,"pop65":281,"popU18":794,"hh":1173,"hhNoVeh":343,"pov":723,"povUniverse":3350,"disab":429,"lep":570,"hhNoNet":246,"pop65Alone":209,"atRisk":1732,"hazardShare":0.517,"floodShare":0.189,"areaKm2":0.67,"hvi":null,"lon":-80.2206,"lat":25.82821}},{"type":"Feature","geometry":{"type":"Polygon","coordinates":[[[-80.20647,25.82861],[-80.20676,25.82672],[-80.20665,25.82222],[-80.20806,25.82216],[-80.20802,25.82124],[-80.22441,25.8208],[-80.22455,25.82444],[-80.21625,25.82467],[-80.21645,25.82832],[-80.20647,25.82861]]]},"properties":{"id":8,"geoid":"12086001904","name":"Liberty City","tract":"19.04","pop":4088,"pop65":652,"popU18":993,"hh":1568,"hhNoVeh":342,"pov":1201,"povUniverse":4088,"disab":435,"lep":1049,"hhNoNet":292,"pop65Alone":265,"atRisk":1269,"hazardShare":0.311,"floodShare":0.042,"areaKm2":1.11,"hvi":null,"lon":-80.21148,"lat":25.82483}},{"type":"Feature","geometry":{"type":"Polygon","coordinates":[[[-80.18797,25.83323],[-80.19224,25.83312],[-80.19223,25.8327],[-80.20601,25.83232],[-80.20618,25.83608],[-80.19642,25.83634],[-80.19659,25.84004],[-80.18835,25.84025],[-80.18797,25.83323]]]},"properties":{"id":9,"geoid":"12086002001","name":"Tract 20.01","tract":"20.01","pop":3758,"pop65":920,"popU18":827,"hh":1292,"hhNoVeh":377,"pov":1763,"povUniverse":3732,"disab":419,"lep":1396,"hhNoNet":428,"pop65Alone":263,"atRisk":2325,"hazardShare":0.619,"floodShare":0.19,"areaKm2":1.07,"hvi":null,"lon":-80.19332,"lat":25.83625}},{"type":"Feature","geometry":{"type":"Polygon","coordinates":[[[-80.19593,25.82528],[-80.20672,25.82498],[-80.20674,25.82716],[-80.20603,25.83074],[-80.20601,25.83232],[-80.19625,25.83263],[-80.19645,25.83085],[-80.19593,25.82528]]]},"properties":{"id":10,"geoid":"12086002003","name":"Tract 20.03","tract":"20.03","pop":3593,"pop65":552,"popU18":923,"hh":1392,"hhNoVeh":388,"pov":1499,"povUniverse":3525,"disab":404,"lep":1108,"hhNoNet":389,"pop65Alone":322,"atRisk":1025,"hazardShare":0.285,"floodShare":0.024,"areaKm2":0.83,"hvi":null,"lon":-80.20133,"lat":25.82883}},{"type":"Feature","geometry":{"type":"Polygon","coordinates":[[[-80.18797,25.83323],[-80.18763,25.8255],[-80.19593,25.82528],[-80.19645,25.83085],[-80.19625,25.83263],[-80.19223,25.8327],[-80.19224,25.83312],[-80.18797,25.83323]]]},"properties":{"id":11,"geoid":"12086002004","name":"Little Haiti","tract":"20.04","pop":3212,"pop65":548,"popU18":1006,"hh":1031,"hhNoVeh":325,"pov":821,"povUniverse":3212,"disab":285,"lep":952,"hhNoNet":277,"pop65Alone":136,"atRisk":62,"hazardShare":0.019,"floodShare":0.0,"areaKm2":0.71,"hvi":null,"lon":-80.19201,"lat":25.82906}},{"type":"Feature","geometry":{"type":"MultiPolygon","coordinates":[[[[-80.17311,25.8111],[-80.16658,25.81102],[-80.15995,25.81102],[-80.16009,25.81051],[-80.17353,25.81064],[-80.17311,25.8111]]],[[[-80.17967,25.81065],[-80.18221,25.81071],[-80.18508,25.81142],[-80.18507,25.81218],[-80.18273,25.81126],[-80.17984,25.81114],[-80.17967,25.81065]]],[[[-80.18251,25.81674],[-80.18403,25.81926],[-80.18345,25.82021],[-80.18352,25.8211],[-80.17845,25.82128],[-80.17877,25.82046],[-80.18025,25.81853],[-80.18251,25.81674]]],[[[-80.1784,25.82338],[-80.1781,25.82211],[-80.17832,25.82151],[-80.18348,25.8214],[-80.18416,25.82111],[-80.18454,25.82069],[-80.18475,25.8201],[-80.18469,25.81949],[-80.18379,25.81839],[-80.1829,25.81651],[-80.18535,25.81446],[-80.18539,25.81149],[-80.19084,25.81134],[-80.18766,25.82523],[-80.18794,25.83256],[-80.18079,25.8328],[-80.18068,25.83197],[-80.17989,25.83066],[-80.17983,25.82828],[-80.17871,25.82509],[-80.17852,25.8239],[-80.17829,25.82349],[-80.1784,25.82338]]]]},"properties":{"id":12,"geoid":"12086002100","name":"Tract 21","tract":"21","pop":3181,"pop65":454,"popU18":646,"hh":1256,"hhNoVeh":44,"pov":260,"povUniverse":3181,"disab":227,"lep":535,"hhNoNet":52,"pop65Alone":62,"atRisk":2365,"hazardShare":0.744,"floodShare":0.581,"areaKm2":1.93,"hvi":null,"lon":-80.16672,"lat":25.81081}},{"type":"Feature","geometry":{"type":"Polygon","coordinates":[[[-80.18763,25.8255],[-80.19084,25.81134],[-80.19536,25.81142],[-80.19593,25.82528],[-80.18763,25.8255]]]},"properties":{"id":13,"geoid":"12086002201","name":"Design District","tract":"22.01","pop":3186,"pop65":575,"popU18":524,"hh":1084,"hhNoVeh":156,"pov":514,"povUniverse":2827,"disab":283,"lep":628,"hhNoNet":90,"pop65Alone":29,"atRisk":0,"hazardShare":0.0,"floodShare":0.0,"areaKm2":0.99,"hvi":null,"lon":-80.19251,"lat":25.81815}},{"type":"Feature","geometry":{"type":"Polygon","coordinates":[[[-80.19536,25.81142],[-80.2015,25.81163],[-80.20615,25.81245],[-80.20672,25.82498],[-80.19593,25.82528],[-80.19536,25.81142]]]},"properties":{"id":14,"geoid":"12086002202","name":"Buena Vista","tract":"22.02","pop":5074,"pop65":867,"popU18":1086,"hh":1569,"hhNoVeh":131,"pov":1114,"povUniverse":4984,"disab":422,"lep":1109,"hhNoNet":271,"pop65Alone":210,"atRisk":0,"hazardShare":0.0,"floodShare":0.0,"areaKm2":1.61,"hvi":null,"lon":-80.20105,"lat":25.81819}},{"type":"Feature","geometry":{"type":"Polygon","coordinates":[[[-80.20615,25.81245],[-80.20913,25.81264],[-80.22402,25.81222],[-80.22441,25.8208],[-80.20802,25.82124],[-80.20806,25.82216],[-80.20665,25.82222],[-80.20615,25.81245]]]},"properties":{"id":15,"geoid":"12086002300","name":"Tract 23","tract":"23","pop":5687,"pop65":733,"popU18":1672,"hh":1831,"hhNoVeh":440,"pov":1463,"povUniverse":5686,"disab":394,"lep":862,"hhNoNet":353,"pop65Alone":157,"atRisk":483,"hazardShare":0.085,"floodShare":0.013,"areaKm2":1.71,"hvi":null,"lon":-80.21533,"lat":25.81717}},{"type":"Feature","geometry":{"type":"Polygon","coordinates":[[[-80.22326,25.79475],[-80.23982,25.79428],[-80.24003,25.80169],[-80.22356,25.80215],[-80.22326,25.79475]]]},"properties":{"id":16,"geoid":"12086002402","name":"Tract 24.02","tract":"24.02","pop":6611,"pop65":1076,"popU18":1677,"hh":1917,"hhNoVeh":225,"pov":1248,"povUniverse":6409,"disab":718,"lep":2785,"hhNoNet":232,"pop65Alone":214,"atRisk":6611,"hazardShare":1.0,"floodShare":1.0,"areaKm2":1.36,"hvi":null,"lon":-80.23167,"lat":25.79823}},{"type":"Feature","geometry":{"type":"Polygon","coordinates":[[[-80.23217,25.81204],[-80.23176,25.80191],[-80.24003,25.80169],[-80.24042,25.81231],[-80.23557,25.81204],[-80.23217,25.81204]]]},"properties":{"id":17,"geoid":"12086002403","name":"Tract 24.03","tract":"24.03","pop":3629,"pop65":691,"popU18":465,"hh":1259,"hhNoVeh":294,"pov":995,"povUniverse":3629,"disab":691,"lep":2111,"hhNoNet":217,"pop65Alone":185,"atRisk":3629,"hazardShare":1.0,"floodShare":0.9,"areaKm2":0.94,"hvi":null,"lon":-80.23608,"lat":25.8069}},{"type":"Feature","geometry":{"type":"Polygon","coordinates":[[[-80.22402,25.81222],[-80.22356,25.80215],[-80.23176,25.80191],[-80.23217,25.81204],[-80.22402,25.81222]]]},"properties":{"id":18,"geoid":"12086002404","name":"Tract 24.04","tract":"24.04","pop":5156,"pop65":1433,"popU18":922,"hh":2392,"hhNoVeh":750,"pov":1486,"povUniverse":5112,"disab":1769,"lep":3054,"hhNoNet":712,"pop65Alone":735,"atRisk":5156,"hazardShare":1.0,"floodShare":0.818,"areaKm2":0.92,"hvi":null,"lon":-80.22788,"lat":25.8072}},{"type":"Feature","geometry":{"type":"Polygon","coordinates":[[[-80.21137,25.80251],[-80.22356,25.80215],[-80.22388,25.80953],[-80.21319,25.80993],[-80.21308,25.80618],[-80.21151,25.80623],[-80.21137,25.80251]]]},"properties":{"id":19,"geoid":"12086002501","name":"Tract 25.01","tract":"25.01","pop":5785,"pop65":984,"popU18":1031,"hh":1874,"hhNoVeh":421,"pov":1673,"povUniverse":5651,"disab":675,"lep":2685,"hhNoNet":301,"pop65Alone":284,"atRisk":5018,"hazardShare":0.867,"floodShare":0.315,"areaKm2":0.94,"hvi":null,"lon":-80.21762,"lat":25.80601}},{"type":"Feature","geometry":{"type":"Polygon","coordinates":[[[-80.20615,25.81245],[-80.20584,25.80268],[-80.21137,25.80251],[-80.21151,25.80623],[-80.21308,25.80618],[-80.21319,25.80993],[-80.22388,25.80953],[-80.22402,25.81222],[-80.20913,25.81264],[-80.20615,25.81245]]]},"properties":{"id":20,"geoid":"12086002502","name":"Tract 25.02","tract":"25.02","pop":3480,"pop65":627,"popU18":828,"hh":1145,"hhNoVeh":358,"pov":1178,"povUniverse":3472,"disab":631,"lep":1328,"hhNoNet":190,"pop65Alone":83,"atRisk":607,"hazardShare":0.175,"floodShare":0.03,"areaKm2":1.04,"hvi":null,"lon":-80.20956,"lat":25.80751}},{"type":"Feature","geometry":{"type":"Polygon","coordinates":[[[-80.2015,25.81163],[-80.19084,25.81134],[-80.19265,25.80332],[-80.1951,25.80325],[-80.19509,25.80305],[-80.20584,25.80268],[-80.20615,25.81245],[-80.2015,25.81163]]]},"properties":{"id":21,"geoid":"12086002600","name":"Midtown","tract":"26","pop":6114,"pop65":469,"popU18":867,"hh":2905,"hhNoVeh":523,"pov":823,"povUniverse":6114,"disab":671,"lep":1675,"hhNoNet":236,"pop65Alone":128,"atRisk":1994,"hazardShare":0.326,"floodShare":0.097,"areaKm2":1.37,"hvi":null,"lon":-80.19886,"lat":25.80737}},{"type":"Feature","geometry":{"type":"Polygon","coordinates":[[[-80.1894,25.80538],[-80.18912,25.80091],[-80.18897,25.79234],[-80.18908,25.78954],[-80.19598,25.78931],[-80.19084,25.81134],[-80.18939,25.81138],[-80.1894,25.80538]]]},"properties":{"id":22,"geoid":"12086002702","name":"Edgewater","tract":"27.02","pop":7715,"pop65":475,"popU18":807,"hh":3337,"hhNoVeh":482,"pov":985,"povUniverse":7689,"disab":536,"lep":1981,"hhNoNet":139,"pop65Alone":24,"atRisk":5072,"hazardShare":0.657,"floodShare":0.27,"areaKm2":1.01,"hvi":null,"lon":-80.19122,"lat":25.80045}},{"type":"Feature","geometry":{"type":"MultiPolygon","coordinates":[[[[-80.16009,25.81051],[-80.16021,25.81008],[-80.17104,25.8102],[-80.17284,25.81],[-80.17332,25.81019],[-80.17354,25.81051],[-80.17345,25.81064],[-80.16009,25.81051]]],[[[-80.18221,25.81071],[-80.17967,25.81065],[-80.17968,25.81051],[-80.17985,25.81037],[-80.18209,25.81039],[-80.18495,25.81063],[-80.18508,25.81142],[-80.18221,25.81071]]],[[[-80.18539,25.81149],[-80.18538,25.80542],[-80.1894,25.80538],[-80.18939,25.81138],[-80.18539,25.81149]]]]},"properties":{"id":23,"geoid":"12086002705","name":"Tract 27.05","tract":"27.05","pop":5494,"pop65":376,"popU18":697,"hh":2519,"hhNoVeh":504,"pov":273,"povUniverse":5489,"disab":150,"lep":1224,"hhNoNet":22,"pop65Alone":93,"atRisk":4585,"hazardShare":0.834,"floodShare":0.697,"areaKm2":0.36,"hvi":null,"lon":-80.1668,"lat":25.81032}},{"type":"Feature","geometry":{"type":"Polygon","coordinates":[[[-80.18538,25.80542],[-80.18538,25.80401],[-80.18679,25.80389],[-80.18676,25.80325],[-80.18537,25.80325],[-80.18537,25.80099],[-80.18912,25.80091],[-80.1894,25.80538],[-80.18538,25.80542]]]},"properties":{"id":24,"geoid":"12086002707","name":"Tract 27.07","tract":"27.07","pop":2552,"pop65":167,"popU18":190,"hh":1589,"hhNoVeh":72,"pov":235,"povUniverse":2552,"disab":106,"lep":512,"hhNoNet":25,"pop65Alone":80,"atRisk":2552,"hazardShare":1.0,"floodShare":0.885,"areaKm2":0.18,"hvi":null,"lon":-80.18732,"lat":25.80318}},{"type":"Feature","geometry":{"type":"Polygon","coordinates":[[[-80.18538,25.7973],[-80.18906,25.79714],[-80.18912,25.80091],[-80.18537,25.80099],[-80.18538,25.7973]]]},"properties":{"id":25,"geoid":"12086002708","name":"Tract 27.08","tract":"27.08","pop":2943,"pop65":226,"popU18":329,"hh":1493,"hhNoVeh":16,"pov":340,"povUniverse":2943,"disab":109,"lep":674,"hhNoNet":0,"pop65Alone":32,"atRisk":2943,"hazardShare":1.0,"floodShare":1.0,"areaKm2":0.15,"hvi":null,"lon":-80.18724,"lat":25.79903}},{"type":"Feature","geometry":{"type":"Polygon","coordinates":[[[-80.18702,25.79715],[-80.18708,25.7959],[-80.18578,25.79577],[-80.18561,25.79554],[-80.18541,25.79384],[-80.18545,25.79192],[-80.1871,25.79191],[-80.18774,25.79244],[-80.18897,25.79234],[-80.18906,25.79714],[-80.18702,25.79715]]]},"properties":{"id":26,"geoid":"12086002709","name":"Tract 27.09","tract":"27.09","pop":4113,"pop65":73,"popU18":378,"hh":2780,"hhNoVeh":202,"pov":263,"povUniverse":4113,"disab":62,"lep":161,"hhNoNet":0,"pop65Alone":21,"atRisk":4113,"hazardShare":1.0,"floodShare":1.0,"areaKm2":0.17,"hvi":null,"lon":-80.18724,"lat":25.79445}},{"type":"Feature","geometry":{"type":"MultiPolygon","coordinates":[[[[-80.1716,25.78992],[-80.17176,25.78948],[-80.17254,25.78925],[-80.17472,25.7892],[-80.17489,25.78971],[-80.17585,25.78955],[-80.17934,25.78952],[-80.17942,25.79071],[-80.1792,25.79094],[-80.17217,25.79126],[-80.17165,25.79086],[-80.1716,25.78992]]],[[[-80.16626,25.78974],[-80.17006,25.78943],[-80.17056,25.7896],[-80.17099,25.79012],[-80.17078,25.791],[-80.17023,25.79134],[-80.16714,25.79151],[-80.1665,25.79144],[-80.166,25.79109],[-80.16581,25.79047],[-80.16626,25.78974]]],[[[-80.18774,25.79244],[-80.1871,25.79191],[-80.18545,25.79192],[-80.18541,25.78968],[-80.18908,25.78954],[-80.18897,25.79234],[-80.18774,25.79244]]]]},"properties":{"id":27,"geoid":"12086002710","name":"Biscayne Island","tract":"27.10","pop":1834,"pop65":468,"popU18":124,"hh":1215,"hhNoVeh":173,"pov":334,"povUniverse":1834,"disab":177,"lep":205,"hhNoNet":75,"pop65Alone":185,"atRisk":1834,"hazardShare":1.0,"floodShare":1.0,"areaKm2":0.35,"hvi":null,"lon":-80.1755,"lat":25.79012}},{"type":"Feature","geometry":{"type":"Polygon","coordinates":[[[-80.19446,25.79563],[-80.20036,25.79544],[-80.20046,25.79768],[-80.20304,25.7976],[-80.20303,25.79723],[-80.20558,25.7971],[-80.20584,25.80268],[-80.19509,25.80305],[-80.1951,25.80325],[-80.19265,25.80332],[-80.19446,25.79563]]]},"properties":{"id":28,"geoid":"12086002800","name":"Wynwood","tract":"28","pop":1353,"pop65":108,"popU18":223,"hh":551,"hhNoVeh":205,"pov":529,"povUniverse":1353,"disab":222,"lep":381,"hhNoNet":62,"pop65Alone":55,"atRisk":137,"hazardShare":0.101,"floodShare":0.008,"areaKm2":0.89,"hvi":null,"lon":-80.19962,"lat":25.79923}},{"type":"Feature","geometry":{"type":"Polygon","coordinates":[[[-80.20584,25.80268],[-80.20558,25.7971],[-80.20708,25.7971],[-80.20702,25.79524],[-80.22326,25.79475],[-80.22356,25.80215],[-80.20584,25.80268]]]},"properties":{"id":29,"geoid":"12086002900","name":"Miami Stadium Apartments","tract":"29","pop":5265,"pop65":702,"popU18":1151,"hh":1608,"hhNoVeh":307,"pov":2130,"povUniverse":4953,"disab":599,"lep":2571,"hhNoNet":167,"pop65Alone":115,"atRisk":1770,"hazardShare":0.336,"floodShare":0.223,"areaKm2":1.43,"hvi":null,"lon":-80.21452,"lat":25.79863}},{"type":"Feature","geometry":{"type":"Polygon","coordinates":[[[-80.20702,25.79524],[-80.20674,25.78145],[-80.20643,25.77859],[-80.20675,25.77842],[-80.20712,25.77878],[-80.20718,25.78117],[-80.20779,25.78197],[-80.2077,25.78205],[-80.20905,25.78304],[-80.20949,25.78347],[-80.20957,25.78384],[-80.20988,25.78385],[-80.2129,25.78599],[-80.20987,25.78374],[-80.20752,25.78138],[-80.20733,25.78088],[-80.20745,25.78087],[-80.2073,25.77888],[-80.20811,25.77924],[-80.20798,25.7795],[-80.20821,25.7793],[-80.20846,25.77941],[-80.20838,25.77957],[-80.20858,25.77947],[-80.20886,25.77962],[-80.20872,25.77986],[-80.20894,25.77968],[-80.20926,25.77982],[-80.20964,25.78013],[-80.20949,25.78033],[-80.20978,25.78026],[-80.21023,25.78094],[-80.21036,25.78085],[-80.21126,25.78152],[-80.21464,25.78289],[-80.21456,25.78403],[-80.21497,25.7862],[-80.21517,25.795],[-80.20702,25.79524]]]},"properties":{"id":30,"geoid":"12086003001","name":"Tract 30.01","tract":"30.01","pop":3367,"pop65":582,"popU18":428,"hh":1546,"hhNoVeh":483,"pov":1233,"povUniverse":2976,"disab":744,"lep":1051,"hhNoNet":176,"pop65Alone":224,"atRisk":2114,"hazardShare":0.628,"floodShare":0.423,"areaKm2":1.26,"hvi":null,"lon":-80.21095,"lat":25.78712}},{"type":"Feature","geometry":{"type":"Polygon","coordinates":[[[-80.21464,25.78289],[-80.21493,25.78296],[-80.21495,25.78342],[-80.21509,25.78342],[-80.21509,25.78308],[-80.21527,25.78306],[-80.2159,25.78339],[-80.21615,25.78385],[-80.21822,25.7842],[-80.21822,25.78446],[-80.22295,25.78574],[-80.22326,25.79475],[-80.21517,25.795],[-80.21497,25.7862],[-80.21456,25.78403],[-80.21464,25.78289]]]},"properties":{"id":31,"geoid":"12086003004","name":"Tract 30.04","tract":"30.04","pop":5295,"pop65":1287,"popU18":328,"hh":2614,"hhNoVeh":712,"pov":1395,"povUniverse":4090,"disab":995,"lep":2270,"hhNoNet":607,"pop65Alone":785,"atRisk":5198,"hazardShare":0.982,"floodShare":0.882,"areaKm2":0.93,"hvi":null,"lon":-80.21906,"lat":25.78907}},{"type":"Feature","geometry":{"type":"Polygon","coordinates":[[[-80.23134,25.789],[-80.23196,25.78934],[-80.23201,25.7901],[-80.2322,25.7901],[-80.2322,25.78943],[-80.23284,25.78969],[-80.23285,25.79007],[-80.23302,25.7901],[-80.23302,25.78972],[-80.23345,25.78989],[-80.23374,25.79011],[-80.23374,25.79033],[-80.23575,25.79048],[-80.23963,25.79281],[-80.24126,25.79399],[-80.24187,25.79423],[-80.23148,25.79452],[-80.23134,25.789]]]},"properties":{"id":32,"geoid":"12086003005","name":"Tract 30.05","tract":"30.05","pop":1543,"pop65":398,"popU18":185,"hh":682,"hhNoVeh":33,"pov":357,"povUniverse":1543,"disab":301,"lep":909,"hhNoNet":10,"pop65Alone":60,"atRisk":1543,"hazardShare":1.0,"floodShare":1.0,"areaKm2":0.35,"hvi":null,"lon":-80.23468,"lat":25.79178}},{"type":"Feature","geometry":{"type":"Polygon","coordinates":[[[-80.22295,25.78574],[-80.22342,25.78615],[-80.22343,25.787],[-80.22394,25.787],[-80.22394,25.78721],[-80.22421,25.78722],[-80.22422,25.78657],[-80.2252,25.78656],[-80.22521,25.78633],[-80.2254,25.78635],[-80.22549,25.78722],[-80.22561,25.7866],[-80.22577,25.7866],[-80.22699,25.7875],[-80.22827,25.78731],[-80.22829,25.78801],[-80.22935,25.78845],[-80.22946,25.78767],[-80.22967,25.78789],[-80.22966,25.78866],[-80.22984,25.7887],[-80.22983,25.78807],[-80.23006,25.7883],[-80.23007,25.78873],[-80.23027,25.78854],[-80.23082,25.78879],[-80.23088,25.78949],[-80.23118,25.78979],[-80.23122,25.78918],[-80.23101,25.78892],[-80.23134,25.789],[-80.23148,25.79452],[-80.22326,25.79475],[-80.22295,25.78574]]]},"properties":{"id":33,"geoid":"12086003006","name":"Tract 30.06","tract":"30.06","pop":5035,"pop65":815,"popU18":1052,"hh":1714,"hhNoVeh":256,"pov":1100,"povUniverse":5035,"disab":776,"lep":2381,"hhNoNet":273,"pop65Alone":51,"atRisk":5035,"hazardShare":1.0,"floodShare":1.0,"areaKm2":0.65,"hvi":null,"lon":-80.22726,"lat":25.79036}},{"type":"Feature","geometry":{"type":"Polygon","coordinates":[[[-80.19446,25.79563],[-80.19621,25.78822],[-80.20691,25.78788],[-80.20708,25.7971],[-80.20303,25.79723],[-80.20304,25.7976],[-80.20046,25.79768],[-80.20036,25.79544],[-80.19446,25.79563]]]},"properties":{"id":34,"geoid":"12086003100","name":"Tract 31","tract":"31","pop":5275,"pop65":773,"popU18":897,"hh":1936,"hhNoVeh":749,"pov":1925,"povUniverse":5177,"disab":1372,"lep":959,"hhNoNet":371,"pop65Alone":283,"atRisk":1929,"hazardShare":0.366,"floodShare":0.089,"areaKm2":1.09,"hvi":null,"lon":-80.20111,"lat":25.79262}},{"type":"Feature","geometry":{"type":"Polygon","coordinates":[[[-80.19621,25.78822],[-80.19615,25.77888],[-80.20292,25.7787],[-80.2031,25.78448],[-80.2068,25.78435],[-80.20691,25.78788],[-80.19621,25.78822]]]},"properties":{"id":35,"geoid":"12086003400","name":"Overtown","tract":"34","pop":3997,"pop65":434,"popU18":533,"hh":1875,"hhNoVeh":678,"pov":1323,"povUniverse":3997,"disab":526,"lep":1666,"hhNoNet":258,"pop65Alone":138,"atRisk":129,"hazardShare":0.032,"floodShare":0.0,"areaKm2":0.85,"hvi":null,"lon":-80.1996,"lat":25.78312}},{"type":"Feature","geometry":{"type":"Polygon","coordinates":[[[-80.20143,25.77417],[-80.20439,25.77384],[-80.2077,25.77372],[-80.20785,25.77761],[-80.20707,25.77818],[-80.20622,25.77763],[-80.20461,25.77712],[-80.20422,25.77683],[-80.20426,25.77628],[-80.20402,25.77622],[-80.20377,25.77574],[-80.20308,25.77548],[-80.20199,25.77427],[-80.20159,25.77434],[-80.20143,25.77417]]]},"properties":{"id":36,"geoid":"12086003603","name":"Tract 36.03","tract":"36.03","pop":2154,"pop65":306,"popU18":201,"hh":1023,"hhNoVeh":197,"pov":251,"povUniverse":2154,"disab":164,"lep":801,"hhNoNet":208,"pop65Alone":100,"atRisk":2154,"hazardShare":1.0,"floodShare":1.0,"areaKm2":0.19,"hvi":null,"lon":-80.20585,"lat":25.77602}},{"type":"Feature","geometry":{"type":"Polygon","coordinates":[[[-80.20417,25.76802],[-80.20752,25.76791],[-80.2077,25.77372],[-80.20439,25.77384],[-80.20417,25.76802]]]},"properties":{"id":37,"geoid":"12086003604","name":"Tract 36.04","tract":"36.04","pop":3147,"pop65":406,"popU18":576,"hh":1237,"hhNoVeh":391,"pov":505,"povUniverse":3125,"disab":271,"lep":1305,"hhNoNet":92,"pop65Alone":122,"atRisk":3147,"hazardShare":1.0,"floodShare":0.901,"areaKm2":0.22,"hvi":null,"lon":-80.20596,"lat":25.77086}},{"type":"Feature","geometry":{"type":"Polygon","coordinates":[[[-80.1975,25.76859],[-80.19747,25.76789],[-80.19772,25.7679],[-80.19807,25.7682],[-80.20417,25.76802],[-80.20439,25.77384],[-80.20143,25.77417],[-80.20129,25.7736],[-80.20059,25.77254],[-80.20028,25.77127],[-80.20005,25.771],[-80.20012,25.77066],[-80.19916,25.76998],[-80.19792,25.76858],[-80.19788,25.76871],[-80.1975,25.76859]]]},"properties":{"id":38,"geoid":"12086003605","name":"Tract 36.05","tract":"36.05","pop":2993,"pop65":577,"popU18":392,"hh":1652,"hhNoVeh":612,"pov":1072,"povUniverse":2993,"disab":585,"lep":1255,"hhNoNet":156,"pop65Alone":304,"atRisk":2993,"hazardShare":1.0,"floodShare":0.928,"areaKm2":0.3,"hvi":null,"lon":-80.20221,"lat":25.7711}},{"type":"Feature","geometry":{"type":"Polygon","coordinates":[[[-80.19615,25.77888],[-80.19565,25.76898],[-80.19638,25.76885],[-80.19736,25.76907],[-80.19759,25.76898],[-80.19799,25.76951],[-80.19789,25.7696],[-80.19804,25.76955],[-80.19848,25.76994],[-80.19826,25.76996],[-80.19827,25.77011],[-80.19868,25.77009],[-80.19956,25.77123],[-80.19985,25.77209],[-80.19969,25.77225],[-80.19988,25.77226],[-80.20082,25.7741],[-80.20107,25.77415],[-80.20104,25.77436],[-80.20149,25.77498],[-80.20307,25.77633],[-80.20409,25.77746],[-80.20521,25.77773],[-80.20675,25.77842],[-80.20643,25.77859],[-80.19615,25.77888]]]},"properties":{"id":39,"geoid":"12086003606","name":"Tract 36.06","tract":"36.06","pop":2584,"pop65":614,"popU18":151,"hh":1478,"hhNoVeh":726,"pov":996,"povUniverse":2584,"disab":564,"lep":1793,"hhNoNet":275,"pop65Alone":493,"atRisk":2341,"hazardShare":0.906,"floodShare":0.741,"areaKm2":0.59,"hvi":null,"lon":-80.19837,"lat":25.77394}},{"type":"Feature","geometry":{"type":"Polygon","coordinates":[[[-80.20292,25.7787],[-80.20643,25.77859],[-80.20668,25.78048],[-80.2068,25.78435],[-80.2031,25.78448],[-80.20292,25.7787]]]},"properties":{"id":40,"geoid":"12086003607","name":"Tract 36.07","tract":"36.07","pop":1765,"pop65":243,"popU18":239,"hh":870,"hhNoVeh":239,"pov":563,"povUniverse":1765,"disab":328,"lep":530,"hhNoNet":170,"pop65Alone":144,"atRisk":892,"hazardShare":0.506,"floodShare":0.289,"areaKm2":0.24,"hvi":null,"lon":-80.20487,"lat":25.78149}},{"type":"Feature","geometry":{"type":"Polygon","coordinates":[[[-80.18732,25.7708],[-80.18898,25.7702],[-80.19004,25.77006],[-80.19032,25.77523],[-80.18738,25.77529],[-80.18702,25.77299],[-80.18725,25.77118],[-80.18743,25.77098],[-80.18732,25.7708]]]},"properties":{"id":41,"geoid":"12086003703","name":"Tract 37.03","tract":"37.03","pop":2725,"pop65":29,"popU18":58,"hh":1686,"hhNoVeh":311,"pov":242,"povUniverse":2725,"disab":41,"lep":456,"hhNoNet":12,"pop65Alone":0,"atRisk":2725,"hazardShare":1.0,"floodShare":0.651,"areaKm2":0.16,"hvi":null,"lon":-80.18867,"lat":25.77269}},{"type":"Feature","geometry":{"type":"Polygon","coordinates":[[[-80.18738,25.77529],[-80.19032,25.77523],[-80.19004,25.77006],[-80.192,25.77072],[-80.19274,25.77061],[-80.19337,25.77021],[-80.19338,25.76995],[-80.19356,25.76987],[-80.19372,25.77607],[-80.18752,25.77625],[-80.18738,25.77529]]]},"properties":{"id":42,"geoid":"12086003704","name":"Downtown Miami","tract":"37.04","pop":1309,"pop65":69,"popU18":82,"hh":986,"hhNoVeh":430,"pov":227,"povUniverse":1309,"disab":189,"lep":282,"hhNoNet":3,"pop65Alone":35,"atRisk":1067,"hazardShare":0.815,"floodShare":0.283,"areaKm2":0.25,"hvi":null,"lon":-80.19189,"lat":25.77307}},{"type":"Feature","geometry":{"type":"Polygon","coordinates":[[[-80.19356,25.76987],[-80.19445,25.76931],[-80.19565,25.76898],[-80.19596,25.77409],[-80.19363,25.77414],[-80.19356,25.76987]]]},"properties":{"id":43,"geoid":"12086003705","name":"Tract 37.05","tract":"37.05","pop":1932,"pop65":59,"popU18":168,"hh":1045,"hhNoVeh":121,"pov":85,"povUniverse":1932,"disab":85,"lep":103,"hhNoNet":0,"pop65Alone":25,"atRisk":1932,"hazardShare":1.0,"floodShare":0.973,"areaKm2":0.12,"hvi":null,"lon":-80.19465,"lat":25.77155}},{"type":"Feature","geometry":{"type":"Polygon","coordinates":[[[-80.19382,25.78043],[-80.19383,25.7799],[-80.19215,25.77998],[-80.19202,25.77614],[-80.19372,25.77607],[-80.19363,25.77414],[-80.19596,25.77409],[-80.19626,25.78176],[-80.19606,25.78177],[-80.19581,25.78114],[-80.19531,25.7807],[-80.19382,25.78043]]]},"properties":{"id":44,"geoid":"12086003706","name":"Tract 37.06","tract":"37.06","pop":2498,"pop65":48,"popU18":138,"hh":1022,"hhNoVeh":341,"pov":165,"povUniverse":1551,"disab":149,"lep":583,"hhNoNet":8,"pop65Alone":6,"atRisk":674,"hazardShare":0.27,"floodShare":0.034,"areaKm2":0.25,"hvi":null,"lon":-80.19406,"lat":25.77758}},{"type":"Feature","geometry":{"type":"Polygon","coordinates":[[[-80.18752,25.77625],[-80.19202,25.77614],[-80.19215,25.77998],[-80.18889,25.78012],[-80.18807,25.77818],[-80.18752,25.77625]]]},"properties":{"id":45,"geoid":"12086003707","name":"Tract 37.07","tract":"37.07","pop":1926,"pop65":107,"popU18":35,"hh":1240,"hhNoVeh":271,"pov":165,"povUniverse":1926,"disab":140,"lep":157,"hhNoNet":0,"pop65Alone":46,"atRisk":1690,"hazardShare":0.877,"floodShare":0.371,"areaKm2":0.17,"hvi":null,"lon":-80.19005,"lat":25.7781}},{"type":"Feature","geometry":{"type":"Polygon","coordinates":[[[-80.18732,25.7708],[-80.18743,25.77098],[-80.18725,25.77118],[-80.18707,25.77357],[-80.18752,25.77625],[-80.18807,25.77818],[-80.18889,25.78012],[-80.18523,25.78033],[-80.18521,25.77984],[-80.18612,25.7798],[-80.18626,25.77966],[-80.1861,25.77781],[-80.18481,25.77734],[-80.18477,25.77762],[-80.1844,25.77778],[-80.18368,25.77914],[-80.1833,25.77877],[-80.18506,25.77538],[-80.18503,25.77424],[-80.18522,25.77363],[-80.185,25.77318],[-80.18499,25.77166],[-80.18732,25.7708]]]},"properties":{"id":46,"geoid":"12086003708","name":"Tract 37.08","tract":"37.08","pop":953,"pop65":123,"popU18":57,"hh":581,"hhNoVeh":13,"pov":130,"povUniverse":953,"disab":80,"lep":42,"hhNoNet":6,"pop65Alone":31,"atRisk":953,"hazardShare":1.0,"floodShare":1.0,"areaKm2":0.25,"hvi":null,"lon":-80.1862,"lat":25.77556}},{"type":"Feature","geometry":{"type":"Polygon","coordinates":[[[-80.19382,25.78043],[-80.19504,25.78058],[-80.19581,25.78114],[-80.19611,25.78213],[-80.19617,25.78371],[-80.19394,25.78377],[-80.19382,25.78043]]]},"properties":{"id":47,"geoid":"12086003709","name":"Tract 37.09","tract":"37.09","pop":1322,"pop65":61,"popU18":40,"hh":762,"hhNoVeh":130,"pov":7,"povUniverse":1322,"disab":63,"lep":259,"hhNoNet":30,"pop65Alone":7,"atRisk":171,"hazardShare":0.129,"floodShare":0.0,"areaKm2":0.08,"hvi":null,"lon":-80.19499,"lat":25.78199}},{"type":"Feature","geometry":{"type":"Polygon","coordinates":[[[-80.18523,25.78033],[-80.19383,25.7799],[-80.19394,25.78377],[-80.19617,25.78371],[-80.19629,25.78723],[-80.19598,25.78931],[-80.18541,25.78968],[-80.18539,25.78557],[-80.18566,25.78541],[-80.18564,25.78508],[-80.18535,25.7849],[-80.18533,25.78433],[-80.18561,25.78418],[-80.1856,25.78391],[-80.18533,25.78376],[-80.18531,25.78314],[-80.18894,25.78301],[-80.18896,25.78282],[-80.1889,25.78239],[-80.18867,25.78225],[-80.18531,25.78224],[-80.18523,25.78033]]]},"properties":{"id":48,"geoid":"12086003710","name":"Tract 37.10","tract":"37.10","pop":8380,"pop65":415,"popU18":846,"hh":3867,"hhNoVeh":263,"pov":1377,"povUniverse":8380,"disab":488,"lep":1719,"hhNoNet":29,"pop65Alone":122,"atRisk":6187,"hazardShare":0.738,"floodShare":0.642,"areaKm2":1.0,"hvi":null,"lon":-80.19078,"lat":25.78479}},{"type":"Feature","geometry":{"type":"Polygon","coordinates":[[[-80.25616,25.79417],[-80.25589,25.78605],[-80.26122,25.7859],[-80.26409,25.78511],[-80.26401,25.77872],[-80.26954,25.77872],[-80.26965,25.78316],[-80.27198,25.78308],[-80.27412,25.78353],[-80.27294,25.7843],[-80.27263,25.78423],[-80.27257,25.78379],[-80.27222,25.78365],[-80.2707,25.78363],[-80.27056,25.7855],[-80.27018,25.78603],[-80.27104,25.78683],[-80.271,25.78718],[-80.26571,25.79259],[-80.26442,25.79338],[-80.2633,25.79347],[-80.26225,25.79389],[-80.26203,25.79379],[-80.25616,25.79417]]]},"properties":{"id":49,"geoid":"12086004901","name":"Tract 49.01","tract":"49.01","pop":3662,"pop65":621,"popU18":459,"hh":1561,"hhNoVeh":182,"pov":734,"povUniverse":3662,"disab":424,"lep":2122,"hhNoNet":110,"pop65Alone":361,"atRisk":3662,"hazardShare":1.0,"floodShare":0.987,"areaKm2":1.58,"hvi":null,"lon":-80.26324,"lat":25.78643}},{"type":"Feature","geometry":{"type":"Polygon","coordinates":[[[-80.26401,25.77872],[-80.26369,25.77169],[-80.2717,25.77147],[-80.27192,25.77871],[-80.26401,25.77872]]]},"properties":{"id":50,"geoid":"12086004903","name":"Tract 49.03","tract":"49.03","pop":3125,"pop65":813,"popU18":465,"hh":1304,"hhNoVeh":90,"pov":441,"povUniverse":3125,"disab":471,"lep":1863,"hhNoNet":166,"pop65Alone":239,"atRisk":1878,"hazardShare":0.601,"floodShare":0.168,"areaKm2":0.63,"hvi":null,"lon":-80.26783,"lat":25.77512}},{"type":"Feature","geometry":{"type":"Polygon","coordinates":[[[-80.25546,25.77184],[-80.26369,25.77169],[-80.26401,25.77872],[-80.25572,25.77894],[-80.25546,25.77184]]]},"properties":{"id":51,"geoid":"12086004904","name":"Tract 49.04","tract":"49.04","pop":2822,"pop65":759,"popU18":305,"hh":971,"hhNoVeh":59,"pov":450,"povUniverse":2810,"disab":505,"lep":1868,"hhNoNet":166,"pop65Alone":91,"atRisk":2185,"hazardShare":0.774,"floodShare":0.244,"areaKm2":0.65,"hvi":null,"lon":-80.25971,"lat":25.77531}},{"type":"Feature","geometry":{"type":"Polygon","coordinates":[[[-80.23952,25.78495],[-80.23947,25.78339],[-80.24001,25.78354],[-80.24007,25.78341],[-80.23947,25.78326],[-80.23934,25.77947],[-80.25572,25.77894],[-80.25589,25.78605],[-80.2515,25.7857],[-80.24767,25.78459],[-80.24649,25.7844],[-80.23952,25.78495]]]},"properties":{"id":52,"geoid":"12086005002","name":"Tract 50.02","tract":"50.02","pop":5046,"pop65":810,"popU18":497,"hh":1765,"hhNoVeh":217,"pov":482,"povUniverse":5035,"disab":638,"lep":2900,"hhNoNet":189,"pop65Alone":259,"atRisk":4728,"hazardShare":0.937,"floodShare":0.551,"areaKm2":1.07,"hvi":null,"lon":-80.24761,"lat":25.78202}},{"type":"Feature","geometry":{"type":"Polygon","coordinates":[[[-80.23964,25.79238],[-80.23971,25.79154],[-80.24094,25.79181],[-80.24247,25.79289],[-80.24115,25.79181],[-80.23972,25.79146],[-80.23971,25.79066],[-80.25602,25.79012],[-80.25616,25.79417],[-80.25275,25.79445],[-80.25245,25.79433],[-80.25245,25.79448],[-80.2513,25.79454],[-80.2478,25.7944],[-80.24751,25.79457],[-80.24737,25.79446],[-80.24719,25.79466],[-80.24716,25.79435],[-80.24703,25.79436],[-80.24704,25.79471],[-80.24674,25.79475],[-80.24657,25.79455],[-80.24656,25.79477],[-80.2455,25.79483],[-80.24461,25.79514],[-80.24448,25.795],[-80.2443,25.79517],[-80.24031,25.79285],[-80.23995,25.79241],[-80.23964,25.79238]]]},"properties":{"id":53,"geoid":"12086005003","name":"Tract 50.03","tract":"50.03","pop":3800,"pop65":774,"popU18":777,"hh":1290,"hhNoVeh":262,"pov":691,"povUniverse":3797,"disab":575,"lep":1709,"hhNoNet":331,"pop65Alone":12,"atRisk":3800,"hazardShare":1.0,"floodShare":1.0,"areaKm2":0.72,"hvi":null,"lon":-80.2491,"lat":25.79258}},{"type":"Feature","geometry":{"type":"Polygon","coordinates":[[[-80.23952,25.78495],[-80.24649,25.7844],[-80.24767,25.78459],[-80.2515,25.7857],[-80.25589,25.78605],[-80.25602,25.79012],[-80.23971,25.79066],[-80.23952,25.78495]]]},"properties":{"id":54,"geoid":"12086005004","name":"Tract 50.04","tract":"50.04","pop":3934,"pop65":704,"popU18":616,"hh":1117,"hhNoVeh":0,"pov":389,"povUniverse":3892,"disab":593,"lep":2122,"hhNoNet":62,"pop65Alone":64,"atRisk":3934,"hazardShare":1.0,"floodShare":1.0,"areaKm2":0.96,"hvi":null,"lon":-80.24777,"lat":25.78751}},{"type":"Feature","geometry":{"type":"MultiPolygon","coordinates":[[[[-80.22679,25.78609],[-80.22621,25.78587],[-80.22447,25.78596],[-80.22379,25.78573],[-80.22347,25.78551],[-80.22355,25.78535],[-80.22313,25.7853],[-80.22319,25.78434],[-80.22352,25.78394],[-80.22363,25.78315],[-80.22415,25.78301],[-80.22427,25.78285],[-80.22441,25.78163],[-80.22541,25.78161],[-80.2244,25.78153],[-80.22442,25.78021],[-80.22425,25.78026],[-80.22432,25.78186],[-80.22416,25.78292],[-80.2235,25.7831],[-80.22348,25.78387],[-80.22311,25.78427],[-80.22283,25.78497],[-80.21994,25.78404],[-80.21953,25.78377],[-80.21875,25.78372],[-80.21523,25.78253],[-80.21525,25.78209],[-80.2148,25.78231],[-80.21231,25.78148],[-80.2114,25.78106],[-80.21049,25.78026],[-80.21145,25.78035],[-80.23121,25.7797],[-80.23131,25.78473],[-80.23055,25.78459],[-80.2305,25.78446],[-80.23044,25.78468],[-80.23026,25.78464],[-80.22952,25.7842],[-80.22913,25.78421],[-80.22907,25.78442],[-80.22858,25.78455],[-80.22854,25.78426],[-80.22825,25.78427],[-80.22812,25.78494],[-80.22806,25.78438],[-80.22785,25.78439],[-80.22784,25.78512],[-80.22719,25.78565],[-80.22721,25.78541],[-80.22698,25.78532],[-80.22697,25.78593],[-80.22679,25.78609]]],[[[-80.23046,25.7876],[-80.23037,25.78751],[-80.23012,25.78769],[-80.22956,25.7872],[-80.22749,25.78654],[-80.22706,25.78626],[-80.22709,25.78606],[-80.22878,25.78474],[-80.2295,25.78461],[-80.22949,25.78449],[-80.23131,25.78491],[-80.23134,25.78854],[-80.23023,25.78778],[-80.23046,25.7876]]]]},"properties":{"id":55,"geoid":"12086005102","name":"Tract 51.02","tract":"51.02","pop":5533,"pop65":1678,"popU18":655,"hh":2731,"hhNoVeh":830,"pov":1893,"povUniverse":5503,"disab":800,"lep":2558,"hhNoNet":446,"pop65Alone":843,"atRisk":5533,"hazardShare":1.0,"floodShare":0.772,"areaKm2":0.98,"hvi":null,"lon":-80.22015,"lat":25.78286}},{"type":"Feature","geometry":{"type":"Polygon","coordinates":[[[-80.23121,25.7797],[-80.23934,25.77947],[-80.23947,25.78309],[-80.23127,25.78327],[-80.23121,25.7797]]]},"properties":{"id":56,"geoid":"12086005103","name":"Tract 51.03","tract":"51.03","pop":2633,"pop65":476,"popU18":407,"hh":956,"hhNoVeh":168,"pov":579,"povUniverse":2608,"disab":346,"lep":1400,"hhNoNet":130,"pop65Alone":194,"atRisk":1433,"hazardShare":0.544,"floodShare":0.18,"areaKm2":0.33,"hvi":null,"lon":-80.2353,"lat":25.78054}},{"type":"Feature","geometry":{"type":"MultiPolygon","coordinates":[[[[-80.23581,25.78479],[-80.23294,25.78454],[-80.23239,25.78476],[-80.23131,25.78473],[-80.23127,25.78327],[-80.23947,25.78309],[-80.23947,25.78326],[-80.23869,25.7833],[-80.23807,25.78362],[-80.2368,25.78502],[-80.23581,25.78479]]],[[[-80.23972,25.79146],[-80.23877,25.79106],[-80.23874,25.7909],[-80.2387,25.79104],[-80.23688,25.79074],[-80.23587,25.78997],[-80.23544,25.79008],[-80.23497,25.79002],[-80.23486,25.78983],[-80.23486,25.78997],[-80.23433,25.7899],[-80.23431,25.78894],[-80.234,25.78895],[-80.23401,25.78969],[-80.23388,25.7894],[-80.23383,25.78961],[-80.23362,25.7895],[-80.23361,25.78879],[-80.23339,25.78879],[-80.2334,25.78941],[-80.23247,25.78908],[-80.23219,25.78892],[-80.23214,25.78809],[-80.23189,25.78883],[-80.23175,25.78872],[-80.23174,25.7876],[-80.23147,25.78761],[-80.23148,25.78856],[-80.23134,25.78854],[-80.23131,25.78491],[-80.23377,25.7847],[-80.23476,25.78505],[-80.23556,25.78485],[-80.23687,25.78508],[-80.23841,25.78361],[-80.23947,25.78339],[-80.23972,25.79129],[-80.23972,25.79146]]],[[[-80.23964,25.79238],[-80.23937,25.79233],[-80.23719,25.7909],[-80.23971,25.79154],[-80.23964,25.79238]]]]},"properties":{"id":57,"geoid":"12086005104","name":"Tract 51.04","tract":"51.04","pop":4282,"pop65":706,"popU18":765,"hh":1710,"hhNoVeh":232,"pov":1266,"povUniverse":4267,"disab":475,"lep":2491,"hhNoNet":128,"pop65Alone":317,"atRisk":4282,"hazardShare":1.0,"floodShare":1.0,"areaKm2":0.63,"hvi":null,"lon":-80.23545,"lat":25.78737}},{"type":"Feature","geometry":{"type":"Polygon","coordinates":[[[-80.21483,25.78019],[-80.21466,25.77353],[-80.22218,25.77328],[-80.22286,25.7731],[-80.22286,25.77812],[-80.22252,25.77997],[-80.21483,25.78019]]]},"properties":{"id":58,"geoid":"12086005201","name":"Tract 52.01","tract":"52.01","pop":5074,"pop65":928,"popU18":1040,"hh":2379,"hhNoVeh":821,"pov":1142,"povUniverse":5074,"disab":590,"lep":3199,"hhNoNet":303,"pop65Alone":379,"atRisk":4777,"hazardShare":0.941,"floodShare":0.664,"areaKm2":0.6,"hvi":null,"lon":-80.21881,"lat":25.7768}},{"type":"Feature","geometry":{"type":"Polygon","coordinates":[[[-80.21049,25.78026],[-80.21061,25.78003],[-80.2104,25.78019],[-80.21047,25.77999],[-80.21004,25.77986],[-80.20931,25.77914],[-80.20883,25.7791],[-80.20847,25.77891],[-80.20853,25.77876],[-80.20831,25.77883],[-80.20833,25.77852],[-80.20799,25.77824],[-80.20754,25.77827],[-80.20753,25.77846],[-80.20707,25.77818],[-80.20785,25.77761],[-80.2077,25.77372],[-80.21466,25.77353],[-80.21483,25.78019],[-80.21049,25.78026]]]},"properties":{"id":59,"geoid":"12086005202","name":"Tract 52.02","tract":"52.02","pop":6115,"pop65":1191,"popU18":1207,"hh":2183,"hhNoVeh":596,"pov":1174,"povUniverse":5742,"disab":455,"lep":3482,"hhNoNet":508,"pop65Alone":312,"atRisk":6115,"hazardShare":1.0,"floodShare":0.973,"areaKm2":0.48,"hvi":null,"lon":-80.2113,"lat":25.77702}},{"type":"Feature","geometry":{"type":"Polygon","coordinates":[[[-80.21456,25.7696],[-80.22266,25.76938],[-80.22286,25.7731],[-80.22218,25.77328],[-80.21466,25.77353],[-80.21456,25.7696]]]},"properties":{"id":60,"geoid":"12086005303","name":"Tract 53.03","tract":"53.03","pop":3504,"pop65":370,"popU18":574,"hh":1325,"hhNoVeh":376,"pov":779,"povUniverse":3504,"disab":189,"lep":2130,"hhNoNet":353,"pop65Alone":143,"atRisk":3459,"hazardShare":0.987,"floodShare":0.334,"areaKm2":0.35,"hvi":null,"lon":-80.21867,"lat":25.77144}},{"type":"Feature","geometry":{"type":"Polygon","coordinates":[[[-80.21445,25.76589],[-80.2225,25.76561],[-80.22266,25.76938],[-80.21456,25.7696],[-80.21445,25.76589]]]},"properties":{"id":61,"geoid":"12086005304","name":"Tract 53.04","tract":"53.04","pop":4197,"pop65":609,"popU18":787,"hh":1653,"hhNoVeh":496,"pov":1056,"povUniverse":4197,"disab":424,"lep":2463,"hhNoNet":426,"pop65Alone":248,"atRisk":3288,"hazardShare":0.783,"floodShare":0.168,"areaKm2":0.34,"hvi":null,"lon":-80.21855,"lat":25.76758}},{"type":"Feature","geometry":{"type":"Polygon","coordinates":[[[-80.2076,25.76985],[-80.21456,25.7696],[-80.21466,25.77353],[-80.2077,25.77372],[-80.2076,25.76985]]]},"properties":{"id":62,"geoid":"12086005305","name":"Tract 53.05","tract":"53.05","pop":4047,"pop65":665,"popU18":729,"hh":1726,"hhNoVeh":602,"pov":1557,"povUniverse":3915,"disab":702,"lep":2410,"hhNoNet":479,"pop65Alone":281,"atRisk":4047,"hazardShare":1.0,"floodShare":0.889,"areaKm2":0.3,"hvi":null,"lon":-80.21112,"lat":25.77167}},{"type":"Feature","geometry":{"type":"Polygon","coordinates":[[[-80.2076,25.76985],[-80.20744,25.76599],[-80.21445,25.76589],[-80.21456,25.7696],[-80.2076,25.76985]]]},"properties":{"id":63,"geoid":"12086005306","name":"Tract 53.06","tract":"53.06","pop":4275,"pop65":978,"popU18":416,"hh":2131,"hhNoVeh":1004,"pov":1106,"povUniverse":4232,"disab":786,"lep":3048,"hhNoNet":630,"pop65Alone":497,"atRisk":3441,"hazardShare":0.805,"floodShare":0.194,"areaKm2":0.3,"hvi":null,"lon":-80.21101,"lat":25.76781}},{"type":"Feature","geometry":{"type":"Polygon","coordinates":[[[-80.23606,25.77245],[-80.2391,25.77234],[-80.23934,25.77947],[-80.23576,25.77957],[-80.23565,25.77567],[-80.23617,25.77563],[-80.23606,25.77245]]]},"properties":{"id":64,"geoid":"12086005403","name":"Tract 54.03","tract":"54.03","pop":1950,"pop65":336,"popU18":425,"hh":501,"hhNoVeh":67,"pov":546,"povUniverse":1928,"disab":474,"lep":979,"hhNoNet":28,"pop65Alone":19,"atRisk":0,"hazardShare":0.0,"floodShare":0.0,"areaKm2":0.26,"hvi":null,"lon":-80.23745,"lat":25.776}},{"type":"Feature","geometry":{"type":"Polygon","coordinates":[[[-80.229,25.77263],[-80.23606,25.77245],[-80.23617,25.77563],[-80.23565,25.77567],[-80.23576,25.77957],[-80.22809,25.77976],[-80.22797,25.77623],[-80.22911,25.77619],[-80.229,25.77263]]]},"properties":{"id":65,"geoid":"12086005405","name":"Tract 54.05","tract":"54.05","pop":3883,"pop65":528,"popU18":596,"hh":1196,"hhNoVeh":261,"pov":571,"povUniverse":3883,"disab":553,"lep":1924,"hhNoNet":95,"pop65Alone":97,"atRisk":214,"hazardShare":0.055,"floodShare":0.0,"areaKm2":0.58,"hvi":null,"lon":-80.23238,"lat":25.77593}},{"type":"Feature","geometry":{"type":"Polygon","coordinates":[[[-80.22286,25.7731],[-80.22432,25.77276],[-80.229,25.77263],[-80.22911,25.77619],[-80.22797,25.77623],[-80.22809,25.77976],[-80.22252,25.77997],[-80.22286,25.77812],[-80.22286,25.7731]]]},"properties":{"id":66,"geoid":"12086005406","name":"Tract 54.06","tract":"54.06","pop":3976,"pop65":496,"popU18":865,"hh":1465,"hhNoVeh":560,"pov":794,"povUniverse":3901,"disab":668,"lep":2298,"hhNoNet":457,"pop65Alone":43,"atRisk":1220,"hazardShare":0.307,"floodShare":0.135,"areaKm2":0.45,"hvi":null,"lon":-80.22545,"lat":25.77626}},{"type":"Feature","geometry":{"type":"Polygon","coordinates":[[[-80.23098,25.77257],[-80.23068,25.76541],[-80.23885,25.76518],[-80.2391,25.77234],[-80.23098,25.77257]]]},"properties":{"id":67,"geoid":"12086005407","name":"Little Havana","tract":"54.07","pop":2779,"pop65":665,"popU18":624,"hh":1017,"hhNoVeh":189,"pov":671,"povUniverse":2743,"disab":284,"lep":1564,"hhNoNet":105,"pop65Alone":183,"atRisk":0,"hazardShare":0.0,"floodShare":0.0,"areaKm2":0.65,"hvi":null,"lon":-80.23488,"lat":25.76867}},{"type":"Feature","geometry":{"type":"Polygon","coordinates":[[[-80.22286,25.7731],[-80.22266,25.76919],[-80.23081,25.76894],[-80.23098,25.77257],[-80.22432,25.77276],[-80.22286,25.7731]]]},"properties":{"id":68,"geoid":"12086005409","name":"Tract 54.09","tract":"54.09","pop":3580,"pop65":809,"popU18":284,"hh":1873,"hhNoVeh":709,"pov":1456,"povUniverse":3554,"disab":633,"lep":2605,"hhNoNet":509,"pop65Alone":480,"atRisk":274,"hazardShare":0.077,"floodShare":0.0,"areaKm2":0.33,"hvi":null,"lon":-80.22682,"lat":25.77107}},{"type":"Feature","geometry":{"type":"Polygon","coordinates":[[[-80.2225,25.76561],[-80.23068,25.76541],[-80.23081,25.76894],[-80.22266,25.76919],[-80.2225,25.76561]]]},"properties":{"id":69,"geoid":"12086005410","name":"Tract 54.10","tract":"54.10","pop":2994,"pop65":576,"popU18":721,"hh":1261,"hhNoVeh":275,"pov":1565,"povUniverse":2994,"disab":551,"lep":1746,"hhNoNet":358,"pop65Alone":342,"atRisk":0,"hazardShare":0.0,"floodShare":0.0,"areaKm2":0.32,"hvi":null,"lon":-80.22669,"lat":25.76732}},{"type":"Feature","geometry":{"type":"Polygon","coordinates":[[[-80.25104,25.76478],[-80.25514,25.76469],[-80.25546,25.77184],[-80.24371,25.7722],[-80.24365,25.77031],[-80.24568,25.77025],[-80.24562,25.76855],[-80.25123,25.7684],[-80.25104,25.76478]]]},"properties":{"id":70,"geoid":"12086005503","name":"Tract 55.03","tract":"55.03","pop":3834,"pop65":558,"popU18":792,"hh":1290,"hhNoVeh":210,"pov":860,"povUniverse":3834,"disab":183,"lep":1754,"hhNoNet":80,"pop65Alone":108,"atRisk":1995,"hazardShare":0.52,"floodShare":0.216,"areaKm2":0.59,"hvi":null,"lon":-80.25195,"lat":25.76846}},{"type":"Feature","geometry":{"type":"Polygon","coordinates":[[[-80.23885,25.76518],[-80.25104,25.76478],[-80.25123,25.7684],[-80.24562,25.76855],[-80.24568,25.77025],[-80.24365,25.77031],[-80.24371,25.7722],[-80.2391,25.77234],[-80.23885,25.76518]]]},"properties":{"id":71,"geoid":"12086005504","name":"Tract 55.04","tract":"55.04","pop":3354,"pop65":642,"popU18":794,"hh":1074,"hhNoVeh":138,"pov":795,"povUniverse":3318,"disab":326,"lep":1512,"hhNoNet":96,"pop65Alone":85,"atRisk":638,"hazardShare":0.19,"floodShare":0.02,"areaKm2":0.71,"hvi":null,"lon":-80.24231,"lat":25.76899}},{"type":"Feature","geometry":{"type":"Polygon","coordinates":[[[-80.24895,25.77204],[-80.25546,25.77184],[-80.25572,25.77894],[-80.24907,25.77915],[-80.24895,25.77204]]]},"properties":{"id":72,"geoid":"12086005505","name":"Tract 55.05","tract":"55.05","pop":2297,"pop65":519,"popU18":409,"hh":863,"hhNoVeh":121,"pov":226,"povUniverse":2275,"disab":500,"lep":1131,"hhNoNet":115,"pop65Alone":148,"atRisk":1086,"hazardShare":0.473,"floodShare":0.063,"areaKm2":0.52,"hvi":null,"lon":-80.25232,"lat":25.77551}},{"type":"Feature","geometry":{"type":"Polygon","coordinates":[[[-80.2391,25.77234],[-80.24895,25.77204],[-80.24916,25.77906],[-80.23934,25.77947],[-80.2391,25.77234]]]},"properties":{"id":73,"geoid":"12086005506","name":"Tract 55.06","tract":"55.06","pop":3660,"pop65":824,"popU18":734,"hh":1181,"hhNoVeh":95,"pov":794,"povUniverse":3593,"disab":434,"lep":1555,"hhNoNet":203,"pop65Alone":114,"atRisk":0,"hazardShare":0.0,"floodShare":0.0,"areaKm2":0.78,"hvi":null,"lon":-80.24416,"lat":25.77594}},{"type":"Feature","geometry":{"type":"Polygon","coordinates":[[[-80.25514,25.76469],[-80.27147,25.76417],[-80.2717,25.77147],[-80.25546,25.77184],[-80.25514,25.76469]]]},"properties":{"id":74,"geoid":"12086005600","name":"Tract 56","tract":"56","pop":4914,"pop65":1121,"popU18":655,"hh":1840,"hhNoVeh":211,"pov":454,"povUniverse":4903,"disab":705,"lep":2278,"hhNoNet":205,"pop65Alone":263,"atRisk":1982,"hazardShare":0.403,"floodShare":0.058,"areaKm2":1.31,"hvi":null,"lon":-80.26344,"lat":25.76801}},{"type":"Feature","geometry":{"type":"Polygon","coordinates":[[[-80.28841,25.78058],[-80.28812,25.77078],[-80.3042,25.7705],[-80.31291,25.77015],[-80.31252,25.77059],[-80.31167,25.77044],[-80.29692,25.77699],[-80.29429,25.77854],[-80.29069,25.78024],[-80.28841,25.78058]]]},"properties":{"id":75,"geoid":"12086005701","name":"Tract 57.01","tract":"57.01","pop":5533,"pop65":1830,"popU18":531,"hh":2591,"hhNoVeh":489,"pov":1076,"povUniverse":5511,"disab":856,"lep":3855,"hhNoNet":617,"pop65Alone":847,"atRisk":4892,"hazardShare":0.884,"floodShare":0.286,"areaKm2":1.36,"hvi":null,"lon":-80.29444,"lat":25.77533}},{"type":"Feature","geometry":{"type":"Polygon","coordinates":[[[-80.26954,25.77872],[-80.27536,25.77855],[-80.27546,25.77939],[-80.2764,25.77937],[-80.2764,25.78116],[-80.27611,25.78117],[-80.276,25.78006],[-80.27536,25.78053],[-80.27512,25.77998],[-80.27487,25.77988],[-80.27464,25.78118],[-80.27328,25.78155],[-80.27298,25.7799],[-80.27288,25.77973],[-80.27262,25.77975],[-80.27248,25.78183],[-80.27086,25.78206],[-80.27082,25.78234],[-80.26973,25.78271],[-80.27176,25.78262],[-80.27411,25.78308],[-80.27411,25.78293],[-80.2743,25.78312],[-80.27412,25.78353],[-80.27198,25.78308],[-80.26965,25.78316],[-80.26954,25.77872]]]},"properties":{"id":76,"geoid":"12086005705","name":"Tract 57.05","tract":"57.05","pop":3255,"pop65":959,"popU18":536,"hh":1522,"hhNoVeh":262,"pov":629,"povUniverse":3255,"disab":420,"lep":1847,"hhNoNet":152,"pop65Alone":393,"atRisk":3255,"hazardShare":1.0,"floodShare":0.952,"areaKm2":0.22,"hvi":null,"lon":-80.27104,"lat":25.78105}},{"type":"Feature","geometry":{"type":"Polygon","coordinates":[[[-80.27536,25.77855],[-80.28832,25.77799],[-80.28841,25.78058],[-80.28751,25.78043],[-80.28731,25.77947],[-80.28554,25.77935],[-80.28502,25.77902],[-80.2841,25.77901],[-80.28391,25.77913],[-80.28378,25.77979],[-80.28316,25.77964],[-80.28315,25.77952],[-80.27996,25.77949],[-80.27859,25.77972],[-80.27833,25.77954],[-80.27829,25.7798],[-80.27687,25.78046],[-80.27696,25.7806],[-80.2764,25.78116],[-80.2764,25.77937],[-80.27546,25.77939],[-80.27536,25.77855]]]},"properties":{"id":77,"geoid":"12086005706","name":"Tract 57.06","tract":"57.06","pop":3992,"pop65":1121,"popU18":607,"hh":1832,"hhNoVeh":435,"pov":924,"povUniverse":3720,"disab":506,"lep":2119,"hhNoNet":175,"pop65Alone":611,"atRisk":3992,"hazardShare":1.0,"floodShare":0.877,"areaKm2":0.2,"hvi":null,"lon":-80.27736,"lat":25.77955}},{"type":"Feature","geometry":{"type":"Polygon","coordinates":[[[-80.28196,25.77104],[-80.28812,25.77078],[-80.28832,25.77799],[-80.2822,25.77825],[-80.28196,25.77104]]]},"properties":{"id":78,"geoid":"12086005707","name":"Tract 57.07","tract":"57.07","pop":1479,"pop65":370,"popU18":228,"hh":634,"hhNoVeh":78,"pov":284,"povUniverse":1479,"disab":215,"lep":971,"hhNoNet":100,"pop65Alone":57,"atRisk":737,"hazardShare":0.498,"floodShare":0.117,"areaKm2":0.49,"hvi":null,"lon":-80.28515,"lat":25.77452}},{"type":"Feature","geometry":{"type":"Polygon","coordinates":[[[-80.2717,25.77147],[-80.28196,25.77104],[-80.2822,25.77825],[-80.27192,25.77871],[-80.2717,25.77147]]]},"properties":{"id":79,"geoid":"12086005708","name":"Tract 57.08","tract":"57.08","pop":6441,"pop65":1264,"popU18":1067,"hh":2200,"hhNoVeh":381,"pov":898,"povUniverse":6441,"disab":972,"lep":2941,"hhNoNet":471,"pop65Alone":230,"atRisk":3686,"hazardShare":0.572,"floodShare":0.253,"areaKm2":0.82,"hvi":null,"lon":-80.27695,"lat":25.77484}},{"type":"Feature","geometry":{"type":"Polygon","coordinates":[[[-80.28785,25.76357],[-80.3039,25.7631],[-80.3042,25.7705],[-80.29168,25.77072],[-80.29154,25.76615],[-80.28798,25.76625],[-80.28785,25.76357]]]},"properties":{"id":80,"geoid":"12086005803","name":"Tract 58.03","tract":"58.03","pop":6461,"pop65":1105,"popU18":1229,"hh":2078,"hhNoVeh":159,"pov":985,"povUniverse":6439,"disab":763,"lep":2797,"hhNoNet":99,"pop65Alone":138,"atRisk":1841,"hazardShare":0.285,"floodShare":0.032,"areaKm2":1.12,"hvi":null,"lon":-80.29782,"lat":25.76686}},{"type":"Feature","geometry":{"type":"Polygon","coordinates":[[[-80.3039,25.7631],[-80.31778,25.76264],[-80.31861,25.76289],[-80.31811,25.76308],[-80.31741,25.7654],[-80.31655,25.76706],[-80.31558,25.76819],[-80.31432,25.76919],[-80.31296,25.7699],[-80.31291,25.77015],[-80.3042,25.7705],[-80.3039,25.7631]]]},"properties":{"id":81,"geoid":"12086005804","name":"Tract 58.04","tract":"58.04","pop":3962,"pop65":1262,"popU18":575,"hh":1224,"hhNoVeh":105,"pov":889,"povUniverse":3961,"disab":636,"lep":2213,"hhNoNet":168,"pop65Alone":183,"atRisk":1714,"hazardShare":0.433,"floodShare":0.072,"areaKm2":1.02,"hvi":null,"lon":-80.31045,"lat":25.76656}},{"type":"Feature","geometry":{"type":"Polygon","coordinates":[[[-80.27147,25.76417],[-80.27966,25.76387],[-80.2799,25.77115],[-80.2717,25.77147],[-80.27147,25.76417]]]},"properties":{"id":82,"geoid":"12086005805","name":"Tract 58.05","tract":"58.05","pop":2210,"pop65":426,"popU18":353,"hh":763,"hhNoVeh":39,"pov":308,"povUniverse":2202,"disab":178,"lep":772,"hhNoNet":100,"pop65Alone":114,"atRisk":1201,"hazardShare":0.543,"floodShare":0.073,"areaKm2":0.66,"hvi":null,"lon":-80.2757,"lat":25.76766}},{"type":"Feature","geometry":{"type":"Polygon","coordinates":[[[-80.27966,25.76387],[-80.28785,25.76357],[-80.28798,25.76625],[-80.29154,25.76615],[-80.29168,25.77072],[-80.2799,25.77115],[-80.27966,25.76387]]]},"properties":{"id":83,"geoid":"12086005806","name":"Tract 58.06","tract":"58.06","pop":3845,"pop65":824,"popU18":736,"hh":1443,"hhNoVeh":188,"pov":147,"povUniverse":3845,"disab":741,"lep":1711,"hhNoNet":249,"pop65Alone":263,"atRisk":1177,"hazardShare":0.306,"floodShare":0.051,"areaKm2":0.84,"hvi":null,"lon":-80.28569,"lat":25.76719}},{"type":"Feature","geometry":{"type":"Polygon","coordinates":[[[-80.23861,25.75871],[-80.23826,25.75033],[-80.25457,25.74987],[-80.25483,25.75725],[-80.24266,25.75767],[-80.24271,25.75859],[-80.23861,25.75871]]]},"properties":{"id":84,"geoid":"12086006302","name":"Tract 63.02","tract":"63.02","pop":5815,"pop65":858,"popU18":1365,"hh":2090,"hhNoVeh":170,"pov":1065,"povUniverse":5804,"disab":444,"lep":1724,"hhNoNet":88,"pop65Alone":121,"atRisk":593,"hazardShare":0.102,"floodShare":0.008,"areaKm2":1.38,"hvi":null,"lon":-80.24659,"lat":25.75457}},{"type":"Feature","geometry":{"type":"Polygon","coordinates":[[[-80.23861,25.75871],[-80.24271,25.75859],[-80.24266,25.75767],[-80.24679,25.75751],[-80.24701,25.76493],[-80.23885,25.76518],[-80.23861,25.75871]]]},"properties":{"id":85,"geoid":"12086006303","name":"Tract 63.03","tract":"63.03","pop":3835,"pop65":1075,"popU18":530,"hh":1799,"hhNoVeh":476,"pov":817,"povUniverse":3823,"disab":590,"lep":2007,"hhNoNet":305,"pop65Alone":613,"atRisk":0,"hazardShare":0.0,"floodShare":0.0,"areaKm2":0.63,"hvi":null,"lon":-80.2428,"lat":25.76135}},{"type":"Feature","geometry":{"type":"Polygon","coordinates":[[[-80.24679,25.75751],[-80.25483,25.75725],[-80.25514,25.76469],[-80.24701,25.76493],[-80.24679,25.75751]]]},"properties":{"id":86,"geoid":"12086006304","name":"Tract 63.04","tract":"63.04","pop":3197,"pop65":808,"popU18":392,"hh":1354,"hhNoVeh":165,"pov":747,"povUniverse":3197,"disab":576,"lep":1452,"hhNoNet":132,"pop65Alone":223,"atRisk":2604,"hazardShare":0.815,"floodShare":0.179,"areaKm2":0.67,"hvi":null,"lon":-80.25096,"lat":25.76113}},{"type":"Feature","geometry":{"type":"Polygon","coordinates":[[[-80.2304,25.75813],[-80.23856,25.75778],[-80.23885,25.76518],[-80.23068,25.76541],[-80.2304,25.75813]]]},"properties":{"id":87,"geoid":"12086006401","name":"Tract 64.01","tract":"64.01","pop":3543,"pop65":699,"popU18":525,"hh":1377,"hhNoVeh":214,"pov":640,"povUniverse":3543,"disab":490,"lep":1833,"hhNoNet":290,"pop65Alone":220,"atRisk":0,"hazardShare":0.0,"floodShare":0.0,"areaKm2":0.67,"hvi":null,"lon":-80.23462,"lat":25.76163}},{"type":"Feature","geometry":{"type":"Polygon","coordinates":[[[-80.22231,25.75822],[-80.2304,25.75813],[-80.23068,25.76541],[-80.2225,25.76561],[-80.22231,25.75822]]]},"properties":{"id":88,"geoid":"12086006402","name":"Tract 64.02","tract":"64.02","pop":4394,"pop65":601,"popU18":724,"hh":1646,"hhNoVeh":137,"pov":781,"povUniverse":4355,"disab":325,"lep":1261,"hhNoNet":151,"pop65Alone":128,"atRisk":0,"hazardShare":0.0,"floodShare":0.0,"areaKm2":0.66,"hvi":null,"lon":-80.22648,"lat":25.7619}},{"type":"Feature","geometry":{"type":"Polygon","coordinates":[[[-80.21445,25.76589],[-80.21424,25.75778],[-80.21628,25.75769],[-80.21628,25.75797],[-80.2223,25.75791],[-80.2225,25.76561],[-80.21445,25.76589]]]},"properties":{"id":89,"geoid":"12086006403","name":"Tract 64.03","tract":"64.03","pop":3279,"pop65":1042,"popU18":417,"hh":1578,"hhNoVeh":164,"pov":166,"povUniverse":3254,"disab":701,"lep":1588,"hhNoNet":340,"pop65Alone":488,"atRisk":122,"hazardShare":0.037,"floodShare":0.0,"areaKm2":0.71,"hvi":null,"lon":-80.21835,"lat":25.76175}},{"type":"Feature","geometry":{"type":"Polygon","coordinates":[[[-80.23014,25.7506],[-80.23826,25.75033],[-80.23856,25.75778],[-80.2304,25.75813],[-80.23014,25.7506]]]},"properties":{"id":90,"geoid":"12086006501","name":"Tract 65.01","tract":"65.01","pop":3402,"pop65":784,"popU18":584,"hh":1274,"hhNoVeh":100,"pov":309,"povUniverse":3386,"disab":429,"lep":1311,"hhNoNet":186,"pop65Alone":154,"atRisk":0,"hazardShare":0.0,"floodShare":0.0,"areaKm2":0.68,"hvi":null,"lon":-80.23435,"lat":25.75423}},{"type":"Feature","geometry":{"type":"Polygon","coordinates":[[[-80.22231,25.75822],[-80.22199,25.75087],[-80.23014,25.7506],[-80.2304,25.75813],[-80.22231,25.75822]]]},"properties":{"id":91,"geoid":"12086006503","name":"Tract 65.03","tract":"65.03","pop":2296,"pop65":470,"popU18":339,"hh":817,"hhNoVeh":91,"pov":368,"povUniverse":2267,"disab":303,"lep":1050,"hhNoNet":136,"pop65Alone":41,"atRisk":0,"hazardShare":0.0,"floodShare":0.0,"areaKm2":0.67,"hvi":null,"lon":-80.22621,"lat":25.75448}},{"type":"Feature","geometry":{"type":"Polygon","coordinates":[[[-80.21424,25.75778],[-80.21417,25.75129],[-80.21455,25.75107],[-80.22199,25.75087],[-80.2223,25.75791],[-80.21628,25.75797],[-80.21628,25.75769],[-80.21424,25.75778]]]},"properties":{"id":92,"geoid":"12086006504","name":"Tract 65.04","tract":"65.04","pop":1862,"pop65":356,"popU18":259,"hh":835,"hhNoVeh":87,"pov":207,"povUniverse":1855,"disab":267,"lep":446,"hhNoNet":31,"pop65Alone":63,"atRisk":0,"hazardShare":0.0,"floodShare":0.0,"areaKm2":0.61,"hvi":null,"lon":-80.21816,"lat":25.75425}},{"type":"Feature","geometry":{"type":"Polygon","coordinates":[[[-80.19549,25.76636],[-80.1955,25.76153],[-80.19512,25.76154],[-80.19508,25.75931],[-80.19717,25.76048],[-80.19742,25.76629],[-80.19549,25.76636]]]},"properties":{"id":93,"geoid":"12086006603","name":"Tract 66.03","tract":"66.03","pop":2783,"pop65":737,"popU18":397,"hh":1345,"hhNoVeh":450,"pov":758,"povUniverse":2783,"disab":251,"lep":1248,"hhNoNet":24,"pop65Alone":122,"atRisk":1550,"hazardShare":0.557,"floodShare":0.091,"areaKm2":0.14,"hvi":null,"lon":-80.19635,"lat":25.76298}},{"type":"Feature","geometry":{"type":"Polygon","coordinates":[[[-80.19717,25.76048],[-80.19886,25.76146],[-80.19966,25.76125],[-80.19973,25.76333],[-80.19958,25.76334],[-80.19919,25.76478],[-80.19906,25.76624],[-80.19742,25.76629],[-80.19717,25.76048]]]},"properties":{"id":94,"geoid":"12086006604","name":"Tract 66.04","tract":"66.04","pop":2183,"pop65":333,"popU18":231,"hh":1274,"hhNoVeh":210,"pov":386,"povUniverse":2183,"disab":230,"lep":844,"hhNoNet":100,"pop65Alone":85,"atRisk":273,"hazardShare":0.125,"floodShare":0.0,"areaKm2":0.12,"hvi":null,"lon":-80.19844,"lat":25.76336}},{"type":"Feature","geometry":{"type":"Polygon","coordinates":[[[-80.19563,25.76845],[-80.19549,25.76636],[-80.19906,25.76624],[-80.19912,25.76509],[-80.19958,25.76334],[-80.1999,25.76333],[-80.20057,25.76525],[-80.20073,25.76521],[-80.20082,25.76813],[-80.19807,25.7682],[-80.19772,25.7679],[-80.19747,25.76789],[-80.1975,25.76859],[-80.19685,25.76853],[-80.1967,25.76838],[-80.19691,25.76822],[-80.19681,25.76813],[-80.19646,25.76841],[-80.19563,25.76845]]]},"properties":{"id":95,"geoid":"12086006605","name":"Tract 66.05","tract":"66.05","pop":1660,"pop65":218,"popU18":90,"hh":943,"hhNoVeh":139,"pov":131,"povUniverse":1660,"disab":28,"lep":391,"hhNoNet":0,"pop65Alone":95,"atRisk":1311,"hazardShare":0.789,"floodShare":0.459,"areaKm2":0.15,"hvi":null,"lon":-80.1999,"lat":25.76598}},{"type":"Feature","geometry":{"type":"Polygon","coordinates":[[[-80.20073,25.76521],[-80.2074,25.76504],[-80.20752,25.76791],[-80.20082,25.76813],[-80.20073,25.76521]]]},"properties":{"id":96,"geoid":"12086006606","name":"Tract 66.06","tract":"66.06","pop":1181,"pop65":232,"popU18":214,"hh":548,"hhNoVeh":108,"pov":282,"povUniverse":1176,"disab":137,"lep":707,"hhNoNet":169,"pop65Alone":43,"atRisk":1164,"hazardShare":0.986,"floodShare":0.157,"areaKm2":0.21,"hvi":null,"lon":-80.20412,"lat":25.7667}},{"type":"Feature","geometry":{"type":"Polygon","coordinates":[[[-80.2074,25.76504],[-80.20057,25.76525],[-80.1999,25.76333],[-80.21433,25.76294],[-80.21445,25.76589],[-80.20744,25.76599],[-80.2074,25.76504]]]},"properties":{"id":97,"geoid":"12086006607","name":"Tract 66.07","tract":"66.07","pop":3231,"pop65":382,"popU18":508,"hh":1355,"hhNoVeh":164,"pov":782,"povUniverse":3205,"disab":363,"lep":1020,"hhNoNet":194,"pop65Alone":53,"atRisk":2698,"hazardShare":0.835,"floodShare":0.213,"areaKm2":0.38,"hvi":null,"lon":-80.20736,"lat":25.76457}},{"type":"Feature","geometry":{"type":"Polygon","coordinates":[[[-80.19966,25.76125],[-80.20647,25.75663],[-80.21417,25.75129],[-80.21433,25.76294],[-80.19973,25.76333],[-80.19966,25.76125]]]},"properties":{"id":98,"geoid":"12086006608","name":"Tract 66.08","tract":"66.08","pop":3423,"pop65":544,"popU18":440,"hh":1364,"hhNoVeh":177,"pov":169,"povUniverse":3417,"disab":211,"lep":589,"hhNoNet":82,"pop65Alone":118,"atRisk":1144,"hazardShare":0.334,"floodShare":0.036,"areaKm2":1.11,"hvi":null,"lon":-80.20972,"lat":25.75748}},{"type":"Feature","geometry":{"type":"Polygon","coordinates":[[[-80.1908,25.7568],[-80.19085,25.75642],[-80.19141,25.75608],[-80.19161,25.75633],[-80.19328,25.7557],[-80.19364,25.75537],[-80.19342,25.75525],[-80.19354,25.7552],[-80.19374,25.75537],[-80.19439,25.75509],[-80.19497,25.75457],[-80.19465,25.75417],[-80.19724,25.75264],[-80.19762,25.75225],[-80.19799,25.75262],[-80.19839,25.75228],[-80.19803,25.75183],[-80.19843,25.75141],[-80.19984,25.75317],[-80.19288,25.75801],[-80.1908,25.7568]]]},"properties":{"id":99,"geoid":"12086006705","name":"Tract 67.05","tract":"67.05","pop":3894,"pop65":556,"popU18":510,"hh":1941,"hhNoVeh":105,"pov":196,"povUniverse":3894,"disab":217,"lep":537,"hhNoNet":16,"pop65Alone":264,"atRisk":3894,"hazardShare":1.0,"floodShare":0.668,"areaKm2":0.19,"hvi":null,"lon":-80.1962,"lat":25.75475}},{"type":"Feature","geometry":{"type":"MultiPolygon","coordinates":[[[[-80.19716,25.74651],[-80.19226,25.74645],[-80.18951,25.74671],[-80.18936,25.74596],[-80.18976,25.74571],[-80.19135,25.74557],[-80.19728,25.74554],[-80.19948,25.74587],[-80.20041,25.74639],[-80.20096,25.74694],[-80.20036,25.74732],[-80.1994,25.74689],[-80.19716,25.74651]]],[[[-80.19984,25.75317],[-80.19864,25.75165],[-80.19913,25.75133],[-80.19885,25.75099],[-80.20013,25.74966],[-80.20211,25.74806],[-80.20397,25.75041],[-80.19984,25.75317]]]]},"properties":{"id":100,"geoid":"12086006706","name":"Tract 67.06","tract":"67.06","pop":2948,"pop65":349,"popU18":317,"hh":1586,"hhNoVeh":38,"pov":68,"povUniverse":2948,"disab":196,"lep":732,"hhNoNet":107,"pop65Alone":106,"atRisk":2948,"hazardShare":1.0,"floodShare":0.748,"areaKm2":0.27,"hvi":null,"lon":-80.1949,"lat":25.74638}},{"type":"Feature","geometry":{"type":"Polygon","coordinates":[[[-80.18467,25.76385],[-80.1851,25.76404],[-80.18709,25.76816],[-80.18745,25.76917],[-80.18727,25.76945],[-80.18318,25.76958],[-80.18281,25.76937],[-80.18277,25.76901],[-80.18427,25.76412],[-80.18467,25.76385]]]},"properties":{"id":101,"geoid":"12086006707","name":"Tract 67.07","tract":"67.07","pop":4191,"pop65":431,"popU18":754,"hh":2048,"hhNoVeh":158,"pov":71,"povUniverse":4191,"disab":173,"lep":361,"hhNoNet":19,"pop65Alone":64,"atRisk":4191,"hazardShare":1.0,"floodShare":1.0,"areaKm2":0.18,"hvi":null,"lon":-80.18495,"lat":25.76682}},{"type":"Feature","geometry":{"type":"Polygon","coordinates":[[[-80.18822,25.76563],[-80.19069,25.76619],[-80.19004,25.76879],[-80.19003,25.76974],[-80.18984,25.76963],[-80.18851,25.76978],[-80.18805,25.76932],[-80.18795,25.76889],[-80.18821,25.7663],[-80.18842,25.76579],[-80.18822,25.76563]]]},"properties":{"id":102,"geoid":"12086006709","name":"Tract 67.09","tract":"67.09","pop":1925,"pop65":97,"popU18":240,"hh":1027,"hhNoVeh":117,"pov":24,"povUniverse":1925,"disab":20,"lep":98,"hhNoNet":0,"pop65Alone":10,"atRisk":1925,"hazardShare":1.0,"floodShare":1.0,"areaKm2":0.09,"hvi":null,"lon":-80.1892,"lat":25.76774}},{"type":"Feature","geometry":{"type":"Polygon","coordinates":[[[-80.18968,25.76272],[-80.18863,25.76252],[-80.18882,25.76086],[-80.18901,25.761],[-80.18907,25.76075],[-80.1888,25.76077],[-80.18885,25.75974],[-80.18917,25.75968],[-80.19219,25.76035],[-80.19154,25.76297],[-80.18964,25.76258],[-80.18968,25.76272]]]},"properties":{"id":103,"geoid":"12086006713","name":"Tract 67.13","tract":"67.13","pop":1782,"pop65":118,"popU18":242,"hh":1027,"hhNoVeh":107,"pov":178,"povUniverse":1782,"disab":33,"lep":352,"hhNoNet":0,"pop65Alone":46,"atRisk":1782,"hazardShare":1.0,"floodShare":1.0,"areaKm2":0.1,"hvi":null,"lon":-80.19035,"lat":25.76138}},{"type":"Feature","geometry":{"type":"Polygon","coordinates":[[[-80.18917,25.75968],[-80.18892,25.75892],[-80.18898,25.75816],[-80.18934,25.75748],[-80.19005,25.75689],[-80.1908,25.7568],[-80.19288,25.75801],[-80.19219,25.76035],[-80.18917,25.75968]]]},"properties":{"id":104,"geoid":"12086006714","name":"Tract 67.14","tract":"67.14","pop":2197,"pop65":494,"popU18":209,"hh":1286,"hhNoVeh":165,"pov":183,"povUniverse":2197,"disab":113,"lep":239,"hhNoNet":8,"pop65Alone":238,"atRisk":2197,"hazardShare":1.0,"floodShare":1.0,"areaKm2":0.11,"hvi":null,"lon":-80.19079,"lat":25.7586}},{"type":"Feature","geometry":{"type":"Polygon","coordinates":[[[-80.19886,25.76146],[-80.19288,25.75801],[-80.20364,25.75055],[-80.20433,25.75031],[-80.20607,25.75019],[-80.20877,25.7502],[-80.21194,25.74932],[-80.21979,25.74656],[-80.21983,25.74694],[-80.21954,25.74743],[-80.21869,25.74819],[-80.19947,25.76137],[-80.19886,25.76146]]]},"properties":{"id":105,"geoid":"12086006715","name":"Tract 67.15","tract":"67.15","pop":4202,"pop65":561,"popU18":732,"hh":1916,"hhNoVeh":97,"pov":260,"povUniverse":4171,"disab":414,"lep":753,"hhNoNet":0,"pop65Alone":154,"atRisk":139,"hazardShare":0.033,"floodShare":0.003,"areaKm2":1.38,"hvi":null,"lon":-80.20438,"lat":25.75404}},{"type":"Feature","geometry":{"type":"Polygon","coordinates":[[[-80.19188,25.76168],[-80.19288,25.75801],[-80.19508,25.75931],[-80.19512,25.76154],[-80.19188,25.76168]]]},"properties":{"id":106,"geoid":"12086006716","name":"Brickell","tract":"67.16","pop":949,"pop65":5,"popU18":37,"hh":712,"hhNoVeh":121,"pov":205,"povUniverse":949,"disab":47,"lep":50,"hhNoNet":0,"pop65Alone":5,"atRisk":949,"hazardShare":1.0,"floodShare":0.527,"areaKm2":0.09,"hvi":null,"lon":-80.19369,"lat":25.76}},{"type":"Feature","geometry":{"type":"Polygon","coordinates":[[[-80.19328,25.76159],[-80.1955,25.76153],[-80.1954,25.76347],[-80.19321,25.76352],[-80.19312,25.76252],[-80.19328,25.76159]]]},"properties":{"id":107,"geoid":"12086006717","name":"Tract 67.17","tract":"67.17","pop":2350,"pop65":139,"popU18":223,"hh":1293,"hhNoVeh":200,"pov":532,"povUniverse":2350,"disab":205,"lep":543,"hhNoNet":0,"pop65Alone":18,"atRisk":799,"hazardShare":0.34,"floodShare":0.048,"areaKm2":0.05,"hvi":null,"lon":-80.19425,"lat":25.76252}},{"type":"Feature","geometry":{"type":"Polygon","coordinates":[[[-80.19069,25.76619],[-80.19188,25.76168],[-80.19328,25.76159],[-80.19312,25.76252],[-80.19332,25.76642],[-80.19225,25.76645],[-80.19069,25.76619]]]},"properties":{"id":108,"geoid":"12086006718","name":"Tract 67.18","tract":"67.18","pop":3038,"pop65":17,"popU18":144,"hh":1788,"hhNoVeh":406,"pov":205,"povUniverse":3038,"disab":184,"lep":232,"hhNoNet":0,"pop65Alone":17,"atRisk":3038,"hazardShare":1.0,"floodShare":0.996,"areaKm2":0.1,"hvi":null,"lon":-80.19224,"lat":25.76403}},{"type":"Feature","geometry":{"type":"Polygon","coordinates":[[[-80.19321,25.76352],[-80.1954,25.76347],[-80.19549,25.76636],[-80.19332,25.76642],[-80.19321,25.76352]]]},"properties":{"id":109,"geoid":"12086006719","name":"Tract 67.19","tract":"67.19","pop":2264,"pop65":38,"popU18":139,"hh":1561,"hhNoVeh":211,"pov":64,"povUniverse":2264,"disab":8,"lep":92,"hhNoNet":0,"pop65Alone":17,"atRisk":2264,"hazardShare":1.0,"floodShare":0.86,"areaKm2":0.07,"hvi":null,"lon":-80.19434,"lat":25.76483}},{"type":"Feature","geometry":{"type":"Polygon","coordinates":[[[-80.19003,25.76974],[-80.19004,25.76879],[-80.19069,25.76619],[-80.19225,25.76645],[-80.19549,25.76636],[-80.19563,25.76845],[-80.19445,25.76856],[-80.19314,25.76965],[-80.19229,25.77006],[-80.19146,25.76996],[-80.19141,25.76974],[-80.19134,25.76993],[-80.19023,25.76966],[-80.19003,25.76974]]]},"properties":{"id":110,"geoid":"12086006720","name":"Tract 67.20","tract":"67.20","pop":2397,"pop65":24,"popU18":409,"hh":1386,"hhNoVeh":252,"pov":90,"povUniverse":2397,"disab":95,"lep":189,"hhNoNet":0,"pop65Alone":11,"atRisk":2397,"hazardShare":1.0,"floodShare":1.0,"areaKm2":0.18,"hvi":null,"lon":-80.19291,"lat":25.76821}},{"type":"Feature","geometry":{"type":"Polygon","coordinates":[[[-80.18947,25.76591],[-80.19008,25.76352],[-80.18964,25.76258],[-80.19154,25.76297],[-80.19069,25.76619],[-80.18947,25.76591]]]},"properties":{"id":111,"geoid":"12086006721","name":"Tract 67.21","tract":"67.21","pop":3338,"pop65":90,"popU18":184,"hh":2042,"hhNoVeh":112,"pov":314,"povUniverse":3338,"disab":53,"lep":429,"hhNoNet":0,"pop65Alone":24,"atRisk":3338,"hazardShare":1.0,"floodShare":1.0,"areaKm2":0.05,"hvi":null,"lon":-80.19046,"lat":25.76456}},{"type":"Feature","geometry":{"type":"Polygon","coordinates":[[[-80.18822,25.76563],[-80.18844,25.76375],[-80.18874,25.76382],[-80.18887,25.76346],[-80.18885,25.76323],[-80.18856,25.76317],[-80.18863,25.76252],[-80.18968,25.76272],[-80.19008,25.76352],[-80.18947,25.76591],[-80.18822,25.76563]]]},"properties":{"id":112,"geoid":"12086006722","name":"Tract 67.22","tract":"67.22","pop":1783,"pop65":113,"popU18":343,"hh":805,"hhNoVeh":105,"pov":204,"povUniverse":1783,"disab":51,"lep":446,"hhNoNet":0,"pop65Alone":11,"atRisk":0,"hazardShare":0.0,"floodShare":1.0,"areaKm2":0.05,"hvi":null,"lon":-80.18911,"lat":25.76444}},{"type":"Feature","geometry":{"type":"Polygon","coordinates":[[[-80.22768,25.73385],[-80.2279,25.73343],[-80.22824,25.73338],[-80.22854,25.73343],[-80.22921,25.734],[-80.2296,25.73402],[-80.22978,25.73387],[-80.22972,25.7335],[-80.23005,25.73313],[-80.22965,25.73259],[-80.23027,25.73243],[-80.23058,25.73277],[-80.2303,25.73231],[-80.23078,25.732],[-80.23094,25.73217],[-80.23099,25.73201],[-80.23121,25.7322],[-80.23139,25.7321],[-80.23119,25.73185],[-80.23096,25.73186],[-80.23145,25.73155],[-80.2317,25.73181],[-80.23192,25.73159],[-80.23265,25.73197],[-80.23308,25.73171],[-80.23319,25.73142],[-80.23291,25.73104],[-80.23337,25.73077],[-80.2332,25.7303],[-80.23336,25.72972],[-80.23295,25.72963],[-80.23275,25.72897],[-80.23341,25.72859],[-80.2337,25.72876],[-80.23387,25.7286],[-80.23306,25.72769],[-80.23385,25.727],[-80.23435,25.72743],[-80.2358,25.72605],[-80.23699,25.72708],[-80.23713,25.72749],[-80.2383,25.72717],[-80.23942,25.72825],[-80.23951,25.73003],[-80.23751,25.73164],[-80.23784,25.73994],[-80.22987,25.74285],[-80.22966,25.73604],[-80.22768,25.73385]]]},"properties":{"id":113,"geoid":"12086006801","name":"Dinner Key","tract":"68.01","pop":3676,"pop65":866,"popU18":753,"hh":1594,"hhNoVeh":110,"pov":323,"povUniverse":3676,"disab":284,"lep":269,"hhNoNet":12,"pop65Alone":101,"atRisk":995,"hazardShare":0.271,"floodShare":0.317,"areaKm2":1.18,"hvi":null,"lon":-80.23306,"lat":25.73477}},{"type":"Feature","geometry":{"type":"MultiPolygon","coordinates":[[[[-80.21924,25.73388],[-80.22004,25.73408],[-80.22065,25.73483],[-80.22061,25.73501],[-80.21848,25.73703],[-80.218,25.73719],[-80.21734,25.73706],[-80.21687,25.73649],[-80.21693,25.73581],[-80.21864,25.73415],[-80.21924,25.73388]]],[[[-80.20397,25.75041],[-80.20211,25.74806],[-80.2023,25.74792],[-80.20264,25.74821],[-80.20627,25.7468],[-80.2066,25.74651],[-80.20836,25.74577],[-80.20899,25.74525],[-80.20946,25.74441],[-80.20971,25.74464],[-80.20968,25.74498],[-80.20994,25.74511],[-80.20969,25.74531],[-80.20934,25.7453],[-80.20924,25.74545],[-80.2093,25.74555],[-80.20936,25.74535],[-80.20966,25.74534],[-80.21,25.74512],[-80.20975,25.74495],[-80.2098,25.74476],[-80.20962,25.74427],[-80.21021,25.74409],[-80.21058,25.74371],[-80.21032,25.74307],[-80.21056,25.74239],[-80.21042,25.74201],[-80.21065,25.74192],[-80.21094,25.74219],[-80.21036,25.74133],[-80.21068,25.74074],[-80.21436,25.73831],[-80.21593,25.7388],[-80.2166,25.7396],[-80.21847,25.73957],[-80.22029,25.73831],[-80.22086,25.73917],[-80.2206,25.73935],[-80.22075,25.7396],[-80.22278,25.73859],[-80.22261,25.73843],[-80.22107,25.73917],[-80.22037,25.73799],[-80.22088,25.73723],[-80.22625,25.73425],[-80.22741,25.73612],[-80.22748,25.7363],[-80.2273,25.73651],[-80.22746,25.73657],[-80.22761,25.73626],[-80.22644,25.73417],[-80.2274,25.7337],[-80.22966,25.73604],[-80.22987,25.74285],[-80.21147,25.74946],[-80.20877,25.7502],[-80.20647,25.75016],[-80.20397,25.75041]]]]},"properties":{"id":114,"geoid":"12086006802","name":"Bayshore Villas","tract":"68.02","pop":3726,"pop65":1126,"popU18":816,"hh":1505,"hhNoVeh":210,"pov":283,"povUniverse":3694,"disab":335,"lep":344,"hhNoNet":9,"pop65Alone":216,"atRisk":1606,"hazardShare":0.431,"floodShare":0.387,"areaKm2":2.32,"hvi":null,"lon":-80.22038,"lat":25.74208}},{"type":"Feature","geometry":{"type":"Polygon","coordinates":[[[-80.22987,25.74285],[-80.23784,25.73994],[-80.23826,25.75033],[-80.23014,25.7506],[-80.22987,25.74285]]]},"properties":{"id":115,"geoid":"12086006901","name":"Tract 69.01","tract":"69.01","pop":2738,"pop65":396,"popU18":490,"hh":1211,"hhNoVeh":81,"pov":159,"povUniverse":2715,"disab":260,"lep":874,"hhNoNet":65,"pop65Alone":124,"atRisk":0,"hazardShare":0.0,"floodShare":0.0,"areaKm2":0.82,"hvi":null,"lon":-80.23399,"lat":25.74534}},{"type":"Feature","geometry":{"type":"Polygon","coordinates":[[[-80.21979,25.74656],[-80.22987,25.74285],[-80.23014,25.7506],[-80.21455,25.75107],[-80.21918,25.74782],[-80.21983,25.74694],[-80.21979,25.74656]]]},"properties":{"id":116,"geoid":"12086006902","name":"Tract 69.02","tract":"69.02","pop":3076,"pop65":726,"popU18":479,"hh":1405,"hhNoVeh":123,"pov":348,"povUniverse":3076,"disab":487,"lep":879,"hhNoNet":197,"pop65Alone":218,"atRisk":0,"hazardShare":0.0,"floodShare":0.0,"areaKm2":0.79,"hvi":null,"lon":-80.22486,"lat":25.74717}},{"type":"Feature","geometry":{"type":"Polygon","coordinates":[[[-80.23798,25.74342],[-80.24518,25.74322],[-80.24551,25.74337],[-80.24564,25.74366],[-80.24616,25.74364],[-80.2464,25.75012],[-80.23826,25.75033],[-80.23798,25.74342]]]},"properties":{"id":117,"geoid":"12086007003","name":"Tract 70.03","tract":"70.03","pop":4733,"pop65":464,"popU18":1016,"hh":1680,"hhNoVeh":100,"pov":300,"povUniverse":4733,"disab":298,"lep":1331,"hhNoNet":349,"pop65Alone":119,"atRisk":0,"hazardShare":0.0,"floodShare":0.0,"areaKm2":0.63,"hvi":null,"lon":-80.24221,"lat":25.74692}},{"type":"Feature","geometry":{"type":"Polygon","coordinates":[[[-80.2464,25.75012],[-80.24616,25.74322],[-80.25433,25.74299],[-80.25457,25.74987],[-80.2464,25.75012]]]},"properties":{"id":118,"geoid":"12086007004","name":"Tract 70.04","tract":"70.04","pop":5111,"pop65":630,"popU18":928,"hh":2108,"hhNoVeh":100,"pov":494,"povUniverse":5029,"disab":595,"lep":1431,"hhNoNet":118,"pop65Alone":209,"atRisk":1026,"hazardShare":0.201,"floodShare":0.019,"areaKm2":0.63,"hvi":null,"lon":-80.2504,"lat":25.74681}},{"type":"Feature","geometry":{"type":"Polygon","coordinates":[[[-80.23798,25.74342],[-80.23784,25.73994],[-80.24592,25.73698],[-80.24616,25.74364],[-80.24564,25.74366],[-80.24551,25.74337],[-80.24518,25.74322],[-80.23798,25.74342]]]},"properties":{"id":119,"geoid":"12086007005","name":"Tract 70.05","tract":"70.05","pop":1860,"pop65":385,"popU18":82,"hh":1025,"hhNoVeh":83,"pov":235,"povUniverse":1842,"disab":80,"lep":802,"hhNoNet":225,"pop65Alone":26,"atRisk":0,"hazardShare":0.0,"floodShare":0.0,"areaKm2":0.44,"hvi":null,"lon":-80.24197,"lat":25.7405}},{"type":"Feature","geometry":{"type":"Polygon","coordinates":[[[-80.24592,25.73698],[-80.25077,25.73518],[-80.25402,25.73507],[-80.25433,25.74299],[-80.24616,25.74322],[-80.24592,25.73698]]]},"properties":{"id":120,"geoid":"12086007006","name":"Tract 70.06","tract":"70.06","pop":3240,"pop65":576,"popU18":672,"hh":1277,"hhNoVeh":87,"pov":361,"povUniverse":3139,"disab":229,"lep":1074,"hhNoNet":93,"pop65Alone":128,"atRisk":609,"hazardShare":0.188,"floodShare":0.006,"areaKm2":0.67,"hvi":null,"lon":-80.25009,"lat":25.73939}},{"type":"Feature","geometry":{"type":"Polygon","coordinates":[[[-80.25077,25.73518],[-80.25271,25.73375],[-80.25462,25.73197],[-80.25587,25.73129],[-80.25588,25.73223],[-80.25792,25.73218],[-80.25817,25.73863],[-80.25618,25.73871],[-80.25623,25.74201],[-80.25428,25.74208],[-80.25402,25.73507],[-80.25077,25.73518]]]},"properties":{"id":121,"geoid":"12086007007","name":"Tract 70.07","tract":"70.07","pop":3698,"pop65":227,"popU18":624,"hh":1583,"hhNoVeh":81,"pov":795,"povUniverse":3657,"disab":245,"lep":545,"hhNoNet":16,"pop65Alone":35,"atRisk":2989,"hazardShare":0.808,"floodShare":0.159,"areaKm2":0.41,"hvi":null,"lon":-80.25606,"lat":25.73599}},{"type":"Feature","geometry":{"type":"Polygon","coordinates":[[[-80.24592,25.73698],[-80.24549,25.72796],[-80.24992,25.7278],[-80.24996,25.72847],[-80.25134,25.72844],[-80.2514,25.7298],[-80.25371,25.72975],[-80.25389,25.73266],[-80.25077,25.73518],[-80.24592,25.73698]]]},"properties":{"id":122,"geoid":"12086007101","name":"Tract 71.01","tract":"71.01","pop":3002,"pop65":318,"popU18":773,"hh":1166,"hhNoVeh":86,"pov":400,"povUniverse":3002,"disab":375,"lep":370,"hhNoNet":111,"pop65Alone":55,"atRisk":206,"hazardShare":0.069,"floodShare":0.0,"areaKm2":0.61,"hvi":null,"lon":-80.24979,"lat":25.73214}},{"type":"Feature","geometry":{"type":"Polygon","coordinates":[[[-80.23877,25.72761],[-80.24004,25.72628],[-80.24228,25.72809],[-80.24375,25.72672],[-80.24512,25.72797],[-80.24549,25.72796],[-80.24569,25.73163],[-80.23751,25.73191],[-80.23751,25.73164],[-80.23951,25.73003],[-80.23942,25.72825],[-80.23877,25.72761]]]},"properties":{"id":123,"geoid":"12086007103","name":"Tract 71.03","tract":"71.03","pop":2121,"pop65":282,"popU18":273,"hh":1223,"hhNoVeh":49,"pov":429,"povUniverse":2121,"disab":32,"lep":108,"hhNoNet":151,"pop65Alone":93,"atRisk":31,"hazardShare":0.015,"floodShare":0.03,"areaKm2":0.33,"hvi":null,"lon":-80.24252,"lat":25.72902}},{"type":"Feature","geometry":{"type":"Polygon","coordinates":[[[-80.23751,25.73191],[-80.24569,25.73163],[-80.24592,25.73698],[-80.23784,25.73994],[-80.23751,25.73191]]]},"properties":{"id":124,"geoid":"12086007104","name":"Tract 71.04","tract":"71.04","pop":3280,"pop65":225,"popU18":703,"hh":1468,"hhNoVeh":123,"pov":137,"povUniverse":3280,"disab":203,"lep":221,"hhNoNet":0,"pop65Alone":101,"atRisk":0,"hazardShare":0.0,"floodShare":0.0,"areaKm2":0.61,"hvi":null,"lon":-80.24177,"lat":25.73568}},{"type":"Feature","geometry":{"type":"Polygon","coordinates":[[[-80.24992,25.7278],[-80.24512,25.72797],[-80.24375,25.72672],[-80.24437,25.72614],[-80.24517,25.72484],[-80.2463,25.72366],[-80.247,25.72429],[-80.24702,25.72477],[-80.24952,25.72491],[-80.24953,25.72408],[-80.25342,25.72398],[-80.25344,25.72445],[-80.25509,25.72439],[-80.25762,25.72426],[-80.25802,25.72372],[-80.26156,25.72361],[-80.26169,25.72653],[-80.25866,25.7287],[-80.25621,25.73105],[-80.25462,25.73197],[-80.25389,25.73266],[-80.25371,25.72975],[-80.2514,25.7298],[-80.25134,25.72844],[-80.24996,25.72847],[-80.24992,25.7278]]]},"properties":{"id":125,"geoid":"12086007200","name":"Tract 72","tract":"72","pop":2898,"pop65":415,"popU18":708,"hh":1199,"hhNoVeh":323,"pov":727,"povUniverse":2898,"disab":207,"lep":231,"hhNoNet":163,"pop65Alone":164,"atRisk":1341,"hazardShare":0.463,"floodShare":0.083,"areaKm2":0.91,"hvi":null,"lon":-80.25458,"lat":25.72824}},{"type":"Feature","geometry":{"type":"Polygon","coordinates":[[[-80.23877,25.72761],[-80.23832,25.72713],[-80.23932,25.72548],[-80.2402,25.72457],[-80.2401,25.72444],[-80.24076,25.72449],[-80.24092,25.72411],[-80.2412,25.72416],[-80.24171,25.72347],[-80.24222,25.72389],[-80.2423,25.72381],[-80.24124,25.72298],[-80.2418,25.72223],[-80.24299,25.72317],[-80.2422,25.72248],[-80.24238,25.72216],[-80.24228,25.72198],[-80.24244,25.72196],[-80.24223,25.72169],[-80.24259,25.72136],[-80.24288,25.72142],[-80.24343,25.72192],[-80.24375,25.72161],[-80.24358,25.72146],[-80.24343,25.72161],[-80.24275,25.72101],[-80.24328,25.72039],[-80.24352,25.72072],[-80.24371,25.7204],[-80.24338,25.72025],[-80.24387,25.7198],[-80.24384,25.72021],[-80.24421,25.72004],[-80.24438,25.71974],[-80.24418,25.71958],[-80.24394,25.71973],[-80.24411,25.71947],[-80.24449,25.71929],[-80.24461,25.71888],[-80.24478,25.71904],[-80.24502,25.7188],[-80.2449,25.71865],[-80.2453,25.71862],[-80.24517,25.7183],[-80.24471,25.71844],[-80.24476,25.7178],[-80.24509,25.71778],[-80.24594,25.71861],[-80.24612,25.71857],[-80.24512,25.71771],[-80.24498,25.7173],[-80.24552,25.71755],[-80.24506,25.71722],[-80.2452,25.71702],[-80.24559,25.71662],[-80.24704,25.71745],[-80.24696,25.71759],[-80.24715,25.71769],[-80.24743,25.7173],[-80.24723,25.71719],[-80.24712,25.7173],[-80.2457,25.71649],[-80.2461,25.71607],[-80.24633,25.71617],[-80.24665,25.71593],[-80.2483,25.71673],[-80.24695,25.71597],[-80.24709,25.71568],[-80.24667,25.71544],[-80.24695,25.71515],[-80.24701,25.71547],[-80.24744,25.71553],[-80.24787,25.71465],[-80.24818,25.71448],[-80.2494,25.71518],[-80.24935,25.71495],[-80.24826,25.71442],[-80.24851,25.71422],[-80.24967,25.71481],[-80.24975,25.71452],[-80.24951,25.71462],[-80.24852,25.71398],[-80.24892,25.71396],[-80.24913,25.71339],[-80.24913,25.71249],[-80.24879,25.7116],[-80.25205,25.71154],[-80.2519,25.71128],[-80.24872,25.71149],[-80.24864,25.71059],[-80.2475,25.70922],[-80.24845,25.70921],[-80.24843,25.70875],[-80.25279,25.70856],[-80.25279,25.70778],[-80.25879,25.7076],[-80.25839,25.70789],[-80.26111,25.70801],[-80.26188,25.70897],[-80.26101,25.70905],[-80.26156,25.72361],[-80.25802,25.72372],[-80.25762,25.72426],[-80.25509,25.72439],[-80.25344,25.72445],[-80.25342,25.72398],[-80.24953,25.72408],[-80.24952,25.72491],[-80.24702,25.72477],[-80.247,25.72429],[-80.2463,25.72366],[-80.24517,25.72484],[-80.24416,25.72639],[-80.24228,25.72809],[-80.24004,25.72628],[-80.23877,25.72761]]]},"properties":{"id":126,"geoid":"12086007300","name":"Coconut Grove","tract":"73","pop":4324,"pop65":611,"popU18":1397,"hh":1574,"hhNoVeh":33,"pov":224,"povUniverse":4324,"disab":127,"lep":102,"hhNoNet":0,"pop65Alone":144,"atRisk":1287,"hazardShare":0.298,"floodShare":0.232,"areaKm2":2.89,"hvi":null,"lon":-80.25328,"lat":25.71786}},{"type":"Feature","geometry":{"type":"Polygon","coordinates":[[[-80.25589,25.78605],[-80.25572,25.77894],[-80.26401,25.77872],[-80.26409,25.78511],[-80.26122,25.7859],[-80.25589,25.78605]]]},"properties":{"id":127,"geoid":"12086490100","name":"Tract 4901","tract":"4901","pop":1319,"pop65":253,"popU18":150,"hh":512,"hhNoVeh":28,"pov":183,"povUniverse":1307,"disab":107,"lep":697,"hhNoNet":113,"pop65Alone":70,"atRisk":1319,"hazardShare":1.0,"floodShare":0.915,"areaKm2":0.64,"hvi":null,"lon":-80.25993,"lat":25.78187}}]}